csvName,name,uid,primary_uid,alias,addr,address_norm,area,area_name,catalogID,di_tag,std_tag,std_tag_id,tel,x,y,lon,lat,geo
西安交大,西安交通大学,d67ad39faf3a5d6929201a71,2419033015855752544,['交通大学'],陕西省西安市碑林区咸宁西路28号,[陕西省(610000)|PROV|1|][西安市(610100)|CITY|1|][碑林区(610103)|AREA|1|][文治路()|ROAD|0|]咸宁西路28号,8257,西安市碑林区,975,学校 教育 大学,教育培训;高等院校,1802,(029)83228400,12132861.77,4038466.26,108.9789034,34.2477539,108.9746903 34.2430668;108.9747404 34.2524857;108.9768549 34.2524859;108.9831451 34.252415;108.9831131 34.2478462;108.9831627 34.2434943;108.9831356 34.243392;108.982825 34.2432602;108.982476 34.2431148;108.9822135 34.2430362;108.981671 34.2429556;108.9747412 34.242921;108.9746903 34.2430668
西安交大,西安交通大学(曲江校区),1de2ab509879aa1ac6effb98,218253866175847752,['西安交通大学'],西安市雁塔区雁翔路99号,[陕西省(610000)|PROV|0|][西安市(610100)|CITY|1|][雁塔区(610113)|AREA|1|][雁翔路()|ROAD|1|99号$],8256,西安市雁塔区,467,学校 教育 大学,教育培训;高等院校,1802,(029)83399201,12134821.78,4035364.02,108.9963427,34.2248526,108.9945748 34.2274502;108.9977048 34.2288573;108.997442 34.2293882;108.9978783 34.2295718;108.9987647 34.2297558;108.9988311 34.2294246;109.0007018 34.229793;109.0019059 34.2276099;109.0003067 34.2269147;109.0014037 34.2250479;109.0029049 34.2257682;109.0032306 34.2253977;109.0005568 34.2241382;109.001382 34.2226909;108.9966614 34.2208027;108.9950036 34.2234502;108.993641 34.2257494;108.9951857 34.226405;108.9945748 34.2274502
西安交大,西安交大,ce0c0026d50a13ba465726f4,116384434480922209,,碑林区,[陕西省(610000)|PROV|0|][西安市(610100)|CITY|0|][碑林区(610103)|AREA|1|][文治路()|ROAD|0|],8257,西安市碑林区,0,商圈 行政区划,行政地标;商圈,2906,,12133268.0,4038410.2,108.9825184,34.2473859,108.9745291 34.2522213;108.9745569 34.2523626;108.9746514 34.2524943;108.9747975 34.2525855;108.9749846 34.2526235;108.983364 34.2526487;108.9916255 34.2525604;108.9918345 34.2524296;108.9919234 34.252216;108.9919552 34.2469418;108.9919275 34.246799;108.9917619 34.2466133;108.9915482 34.2465404;108.9889899 34.2465883;108.9887817 34.2465645;108.9885957 34.2464925;108.9883874 34.2463173;108.9882778 34.2460636;108.9882665 34.2434038;108.9882184 34.2432412;108.9881036 34.2431166;108.9796614 34.2395452;108.9794505 34.239499;108.9792698 34.2395264;108.9791523 34.2395845;108.9790375 34.2397023;108.9786275 34.2404568;108.9784471 34.2412017;108.9784867 34.2422778;108.9784165 34.2424536;108.9782554 34.2426215;108.9780765 34.2427131;108.9778647 34.2427551;108.9749335 34.2427688;108.9746886 34.2428703;108.9745694 34.2430337;108.9745287 34.2435322;108.9745291 34.2522213
西安交大,西安交大(雁塔校区),4edf9fbf3f91c697cc06a47f,17848772952661688319,,西安市雁塔区雁塔西路76号,[陕西省(610000)|PROV|0|][西安市(610100)|CITY|1|][雁塔区(610113)|AREA|1|][雁塔西路()|ROAD|1|76号$],8256,西安市雁塔区,468,学校 教育 大学,教育培训;高等院校,1802,(029)82655011,12128069.88,4034567.52,108.9360231,34.2187071,108.9301136 34.2180108;108.930219 34.2162204;108.935551 34.2162491;108.9410848 34.2161967;108.9410013 34.2196278;108.9366198 34.2196031;108.9349812 34.2196365;108.9347659 34.2195171;108.9346127 34.2192848;108.9346406 34.217942;108.9301136 34.2180108
西安交大,西安交通大学(兴庆校区)-教学二区,92ffcc24f0c2f85326e0a028,6961191780064950620,['西安交通大学(兴庆校区)-教学二区'; '西安交通大学兴庆校区教学二区'],兴庆南路5号,[陕西省(610000)|PROV|0|][西安市(610100)|CITY|0|][碑林区(610103)|AREA|0|][二环南路东段()|ROAD|0|]兴庆南路5号,8257,西安市碑林区,468,学校 教育 大学,教育培训;其他,1801,,12133572.15,4037865.69,108.9852223,34.2433633,108.9834732 34.2431646;108.9834731 34.2443521;108.9871565 34.2443785;108.9871506 34.2430051;108.9843207 34.2418257;108.9835927 34.2428733;108.9834732 34.2431646
西安交大,西安交通大学医学院第一附属医院,be1ea5efe36988a614948e56,1263138431370788863,,西安市雁塔区雁塔西路277号,[陕西省(610000)|PROV|0|][西安市(610100)|CITY|1|][雁塔区(610113)|AREA|1|][雁塔西路()|ROAD|1|277号$],8256,西安市雁塔区,486,医疗 医院,医疗;综合医院,2002,,12127640.52,4034915.01,108.932155,34.2213634,108.9327313 34.2223341;108.9334566 34.2223201;108.9343256 34.2223199;108.9343367 34.2203197;108.9342968 34.2202347;108.9341222 34.22007;108.9339097 34.2199854;108.9336763 34.2199887;108.9319134 34.219983;108.9303908 34.2199769;108.9299248 34.2199754;108.9299296 34.2223406;108.9302769 34.2223422;108.9323492 34.2224116;108.9327333 34.2224181;108.9327313 34.2223341
西安交大,西安交大第二附属医院,02a15a0ea6e4ae802cb17e12,4459783870492683358,['西北医院'],西安市新城区西五路157号,[陕西省(610000)|PROV|0|][西安市(610100)|CITY|1|][新城区(610102)|AREA|1|][西五路()|ROAD|1|157号$],8258,西安市新城区,0,三级医院 医疗 三甲医院 医院,医疗;综合医院,2002,(029)87678421,12129215.6,4041792.33,108.9463456,34.2724547,108.9480485 34.273143;108.9480595 34.2719574;108.9481772 34.2719252;108.9481682 34.2716743;108.9454632 34.2716698;108.9446665 34.2716673;108.9446725 34.2721551;108.9446874 34.2728208;108.9454292 34.2728204;108.9454412 34.2731312;108.9458599 34.2731294;108.9473147 34.2731525;108.9480485 34.273143
西安交大,西安交大-继续教育学院,b84dc63017ad43ec157643aa,6613167525582215412,['交大-继续教育学院'; '西安交通大学(雁塔校区)-继续教育学院'; '西安交通大学继续教育学院'],西安市雁塔区翠华路137号,[陕西省(610000)|PROV|0|][西安市(610100)|CITY|1|][雁塔区(610113)|AREA|1|][翠华路()|ROAD|1|137号$],8256,西安市雁塔区,468,学校 教育 学院,教育培训;成人教育,1806,(029)82657024,12129994.15,4034502.59,108.9533075,34.2180383,108.9519482 34.2191405;108.9542642 34.2191157;108.9542693 34.2189448;108.954682 34.2189275;108.9546705 34.2169777;108.9519607 34.2170146;108.9519482 34.2191405
西安交大,西安市儿童医院,a86009b1e0f6ea0707026fde,2841006169223183138,['陕西省儿童医疗中心'; '西安交通大学附属儿童医院'],西安市莲湖区西举院巷69号,[陕西省(610000)|PROV|0|][西安市(610100)|CITY|1|][莲湖区(610104)|AREA|1|][西举院巷()|ROAD|1|69号$],8255,西安市莲湖区,0,专科医院 医疗 儿童医院 医院,医疗;专科医院,2003,(029)87311818,12126540.0,4040622.95,108.9222519,34.2641129,108.9230651 34.2655474;108.9230601 34.2644025;108.9234475 34.2643916;108.9234614 34.2642764;108.9240023 34.2642556;108.9239696 34.2636113;108.9234106 34.2636213;108.923401 34.2628756;108.9226714 34.2628766;108.9226711 34.2625896;108.9210523 34.2626112;108.9210771 34.2655635;108.9230651 34.2655474
西安交大,西安交通大学-南门,39d43f82b29ff786a8059d54,17998542881794555903,['西安交通大学(南门)'; '西安交通大学兴庆校区(南门)'],陕西省西安市碑林区咸宁西路28号,[陕西省(610000)|PROV|1|][西安市(610100)|CITY|1|][碑林区(610103)|AREA|1|][友谊东路()|ROAD|0|]咸宁西路28号,8257,西安市碑林区,468,出入口 门,出入口;门,2708,,12132848.44,4037836.84,108.9787821,34.2430577,
西安交大,西安市第四医院,e2c734e40cce524415a19036,1260781087030771711,['四医院'; '西安第四医院'; '西安交通大学附属广仁医院'; '西安市四院'; '西安四院'],陕西省西安市新城区解放路21号,[陕西省(610000)|PROV|1|][西安市(610100)|CITY|1|][新城区(610102)|AREA|1|][解放路()|ROAD|1|21号$],8258,西安市新城区,0,医疗 医院,医疗;综合医院,2002,(029)87420006,12130675.93,4040439.66,108.9594218,34.2623103,108.9586371 34.2622506;108.9586506 34.2617467;108.9596739 34.2617447;108.9596968 34.2617748;108.9602243 34.2617457;108.9602333 34.2618467;108.9599875 34.2618912;108.9600059 34.2623682;108.9600373 34.2629652;108.9599925 34.2630171;108.9599119 34.263024;108.9591384 34.262956;108.9590627 34.2629189;108.9589728 34.2624749;108.9589009 34.2622659;108.9586371 34.2622506
西安交大,西安交通大学城市学院,2a443b7d1620d50077026964,6057651909160336644,['城市学院'; '交大城市'; '交大城市学院'; '西安城市学院'; '西安大学城市学院'; '西安交大城市学院'; '西安交大城院'; '西安交通大城市学院'; '西安交通大学大城市学院'; '西安市城市交通学院'; '西交城市学院'; '西交大城市学院'],西安市未央区尚稷路8715号,[陕西省(610000)|PROV|0|][西安市(610100)|CITY|1|][未央区(610112)|AREA|1|]尚稷路8715号,8253,西安市未央区,468,学校 教育 大学 民办高校,教育培训;高等院校,1802,(029)86652000,12119018.98,4055032.31,108.8547424,34.3711994,108.8563033 34.37642;108.857657 34.3686321;108.8533242 34.368039;108.8531084 34.3689272;108.8529085 34.3698108;108.8528824 34.3699627;108.8527612 34.3706831;108.8521921 34.375231;108.8563033 34.37642
西安交大,西安交通大学-北门,65fcdfb1dd0358c8f7b9161e,10977356272574258252,['西安交通大学(北门)'; '西安交通大学兴庆校区(北门)'],陕西省西安市碑林区咸宁西路28号,[陕西省(610000)|PROV|1|][西安市(610100)|CITY|1|][碑林区(610103)|AREA|1|][咸宁西路()|ROAD|1|28号$],8257,西安市碑林区,468,出入口 门,出入口;门,2708,,12132872.7,4039073.76,108.9790041,34.2522862,
西安交大,西安交通大学科技创新港科创基地,f666b824b8ecc7fa8f55ecc4,7671266073018986301,['交大科创基地'],陕西省西安市长安区学森一路,[陕西省(610000)|PROV|1|][西安市(610100)|CITY|1|][长安区(610116)|AREA|1|][学森一路()|ROAD|1|],8248,西安市长安区,256,工业区 行政区划,公司企业;园区,2503,,12096446.23,4039893.04,108.6519164,34.2588967,
西安交大,交大三村,6e2ae9a177916f980b1cc7ca,14068238525858896535,['西安交大三村'; '西安交通大学三村'],金花南路交大三村,[陕西省(610000)|PROV|0|][西安市(610100)|CITY|0|][碑林区(610103)|AREA|0|][金花南路()|ROAD|1|]交大三村,8257,西安市碑林区,238,房地产 住宅区 小区,房地产;住宅区,2403,,12134134.05,4038472.87,108.9902245,34.2479625,108.9915762 34.2487879;108.9915783 34.2479742;108.9915754 34.2467457;108.9914788 34.246675;108.9908485 34.2466659;108.988395 34.2466711;108.9883014 34.2467393;108.9883242 34.2477378;108.9891159 34.2477285;108.9892234 34.2477812;108.9892243 34.2484739;108.9883083 34.2484836;108.9883241 34.2494721;108.9883789 34.249501;108.9884944 34.2495166;108.9892322 34.2495095;108.9894264 34.2495339;108.9896544 34.2495352;108.9905496 34.2495426;108.9911022 34.249544;108.9911022 34.249601;108.9915911 34.2496045;108.9915762 34.2487879
西安交大,西安交大医学院附属市九院,3fdce332eeac656feb12e43a,5851062891918172218,['西安交大医学院附属市九院'],西安市碑林区南二环路东段151号,[陕西省(610000)|PROV|0|][西安市(610100)|CITY|1|][碑林区(610103)|AREA|1|][二环南路东段()|ROAD|0|]南二环路东段151号,8257,西安市碑林区,489,三级医院 医疗 三甲医院 医院,医疗;综合医院,2002,(029)82322257;(029)82322548,12132198.1,4037111.81,108.9729889,34.2375784,108.972389 34.2384096;108.9744557 34.2384179;108.9743712 34.2375812;108.9721128 34.2366462;108.9719165 34.237058;108.971863 34.2371804;108.9720009 34.2372608;108.9718412 34.237643;108.972126 34.23781;108.9721618 34.2379483;108.9722729 34.2380655;108.9721926 34.2383816;108.972389 34.2384096
西安交大,西安交通大学-东南门,083a55faf5472979246e9854,17998542894679457791,['交通大学东南门'; '西安交大东南门'; '西安交通大学(兴庆校区)-东南门'; '西安交通大学兴庆校区(东南门)'; '西安交通大学兴庆校区-东南门'],咸宁西路28号西安交通大学,[陕西省(610000)|PROV|0|][西安市(610100)|CITY|0|][碑林区(610103)|AREA|0|][兴庆路()|ROAD|0|]咸宁西路28号[西安交通大学(2419033015855752544)|POI_PARENT|1|],8257,西安市碑林区,468,出入口 门,出入口;门,2708,,12133332.45,4038344.38,108.9830916,34.2469032,
西安交大,西安交大医学部,077d72fa2ab1da24d7851fbe,3617303485605249750,['西安交大-医学部'],雁塔西路76号,[陕西省(610000)|PROV|0|][西安市(610100)|CITY|0|][雁塔区(610113)|AREA|0|][雁塔西路()|ROAD|1|76号$],8256,西安市雁塔区,0,学校 教育 大学,教育培训;高等院校,1802,(029)82655011,12128091.03,4034590.97,108.9362134,34.2188789,
西安交大,西安交通大学-医学院,ec419195f64cdfa136b06c99,3538912549290658786,['交通大学医学院'],雁塔西路76,[陕西省(610000)|PROV|0|][西安市(610100)|CITY|0|][雁塔区(610113)|AREA|0|][雁塔西路()|ROAD|1|76$],8256,西安市雁塔区,192,学校 教育 学院,教育培训;高等院校,1802,(029)82655011,12128129.89,4034587.89,108.9365632,34.2188504,108.9359599 34.218885;108.9359652 34.2185561;108.9370944 34.2185532;108.9370991 34.2188929;108.9359599 34.218885
西安交大,西安交大医院,84cca2de8e040dd1c51e5176,9826001587225815602,,西安市雁塔区雁塔西路277号,[陕西省(610000)|PROV|0|][西安市(610100)|CITY|1|][雁塔区(610113)|AREA|1|][雁塔西路()|ROAD|1|277号$],8256,西安市雁塔区,0,医疗 医院,医疗;其他,2001,(029)85323888,12129860.0,4034499.15,108.9521054,34.2180181,108.9519794 34.2178304;108.9519694 34.2182053;108.9522285 34.2182088;108.9522445 34.2178299;108.9519794 34.2178304
西安交大,西安交通大学附属中学,1cea15a97466afc407fef56e,17969223923203571711,['交大附中高中'; '交通大学附属中学'; '西安交大附属中学'; '西安交大附中'; '西安交通大学附中'; '西交大附中'; '西交附中'],西安市雁塔区雁翔路99号,[陕西省(610000)|PROV|0|][西安市(610100)|CITY|1|][雁塔区(610113)|AREA|1|][延兴门西路()|ROAD|0|]雁翔路99号,8256,西安市雁塔区,471,中学 学校 教育,教育培训;中学,1803,(029)82295802,12135114.26,4035523.3,108.9989472,34.2260682,108.9973124 34.227411;108.9989841 34.2281676;109.0011003 34.2248894;108.9994196 34.2241488;108.9973124 34.227411
西安交大,西安交通大学南洋大酒店,504d6113caf107aa46572676,1263666635038785535,['交大南洋大酒店'; '南洋大酒店'; '西安交大南洋大酒店'; '西安交通大学(学术交流中心)南洋大酒店'; '西安交通大学学术交流中心南洋大酒店'],陕西省西安市碑林区兴庆南路1号(友谊东路与兴庆南路十字东北角),[陕西省(610000)|PROV|1|][西安市(610100)|CITY|1|][碑林区(610103)|AREA|1|]兴庆南路1号([友谊东路()|ROAD|1|]与兴庆南路十字东北角),8257,西安市碑林区,782,宾馆,酒店;其他,1101,(029)87665566,12133489.31,4037814.06,108.984485,34.2429677,108.9834818 34.2432832;108.9838325 34.2433063;108.9846021 34.2432873;108.9848646 34.2432801;108.9850607 34.2432609;108.9853803 34.2427956;108.9853802 34.2426576;108.9852475 34.2425807;108.9844551 34.2425843;108.9843085 34.2426532;108.984166 34.2428641;108.9837391 34.242765;108.9836233 34.2429423;108.9834769 34.2432042;108.9834818 34.2432832
西安交大,西安交通大学口腔医院,6b69fba523b4e0bf2efaa7ac,1342153011878018625,['西安交通大学医学院附属口腔医院'],西安市新城区西五路98号,[陕西省(610000)|PROV|0|][西安市(610100)|CITY|1|][新城区(610102)|AREA|1|]西五路98号,8258,西安市新城区,486,口腔医院 专科医院 医疗 医院,医疗;专科医院,2003,(029)87275706,12128965.79,4041564.23,108.9441006,34.2707776,108.9434938 34.2712787;108.944356 34.2712687;108.944414 34.2712681;108.9446031 34.2712699;108.9445987 34.270867;108.9453196 34.2708503;108.945351 34.270178;108.9446271 34.2701748;108.944632 34.2699368;108.9442319 34.2699443;108.9442253 34.2703603;108.943488 34.2703508;108.9434792 34.2705519;108.9434612 34.2705451;108.9434435 34.2708883;108.9433805 34.270918;108.9433988 34.2712758;108.9434938 34.2712787
西安交大,交大电脑城,89fd4ea32bd4155ee4e96596,1260113339875327999,['交大电脑城'; '交通大学电脑城'; '西安交通大学电脑城(兴庆路)'],兴庆路159号交大东门,[陕西省(610000)|PROV|0|][西安市(610100)|CITY|0|][碑林区(610103)|AREA|0|][兴庆路()|ROAD|1|159号$]交大东门,8257,西安市碑林区,1,购物 数码 电脑,购物;家电数码,1206,,12133315.08,4038891.0,108.9829399,34.2509779,
西安交大,西安交通大学(财经校区)-经济与金融学院,3fb0aca2abf894818d7727c4,10202624233167412385,['西安交大经济与金融学院'; '西安交通大学经济与金融学院'],陕西省西安市雁塔区雁塔西路74号,[陕西省(610000)|PROV|1|][西安市(610100)|CITY|1|][雁塔区(610113)|AREA|1|][雁塔西路()|ROAD|1|74号$],8256,西安市雁塔区,192,学校 教育 学院,教育培训;其他,1801,(029)82656949,12128481.75,4034591.79,108.9397292,34.2188319,
西安交大,西安交大阳光中学,c879fa0158859e4ac909f032,17998430916292116479,['西安阳光中学'; '阳光中学'],西影路5号,[陕西省(610000)|PROV|0|][西安市(610100)|CITY|0|][雁塔区(610113)|AREA|0|][西影路()|ROAD|1|5号$],8256,西安市雁塔区,471,中学 学校 教育,教育培训;中学,1803,(029)82625360,12135653.38,4037527.3,109.0037525,34.2410545,109.0025535 34.2413708;109.0025247 34.2413069;109.003156 34.2402233;109.0049891 34.2409844;109.0045024 34.2417603;109.0043438 34.2418481;109.0033501 34.2413933;109.0025535 34.2413708
西安交大,西安交通大学第二附属医院(大明宫院区),6dd562a136674bce373a71c7,8866569528878681770,['西安交通大学第二附属医院'],西安市未央区大明宫・圣远广场(建强路西),[陕西省(610000)|PROV|0|][西安市(610100)|CITY|1|][未央区(610112)|AREA|1|]大明宫・圣远广场([建强路()|ROAD|1|]西),8253,西安市未央区,0,医疗 医院,医疗;其他,2001,,12129659.54,4044908.84,108.9503353,34.2956526,
西安交大,西安市第八医院,923ffd00553b77aed92f2857,1263139951789211647,['陕西省传染病院'; '西安交通大学医学院附属西安市第八医院'],西安市雁塔区丈八东路2号,[陕西省(610000)|PROV|0|][西安市(610100)|CITY|1|][雁塔区(610113)|AREA|1|][丈八东路()|ROAD|1|2号$],8256,西安市雁塔区,1,医疗 医院,医疗;专科医院,2003,(029)85410050;(029)85331580,12128275.83,4031813.74,108.9378966,34.198139,108.9366186 34.1993988;108.9366396 34.1994478;108.9366805 34.1994807;108.9367493 34.1995006;108.9396149 34.199525;108.9396389 34.1979705;108.9387433 34.197968;108.9387613 34.1973862;108.9382137 34.1973811;108.9382157 34.1968992;108.9368432 34.1969084;108.9367555 34.1969175;108.9366807 34.1969526;108.9366298 34.1970197;108.9366186 34.1993988
西安交大,西安交通大学-一村,e56bf5e3c3f940440782c249,17998531186598608895,['交大一村'; '西安交大一村'; '西安交通大学一村'],碑林区咸宁路与兴庆路十字东南角,[陕西省(610000)|PROV|0|][西安市(610100)|CITY|0|][碑林区(610103)|AREA|1|]咸宁路与[兴庆路()|ROAD|1|]十字东南角,8257,西安市碑林区,238,房地产 住宅区 小区,房地产;住宅区,2403,,12133524.43,4038891.43,108.9848026,34.2510078,108.9835803 34.2514913;108.983606 34.2502528;108.9840864 34.2502567;108.9840955 34.2504948;108.9861507 34.2504982;108.9862001 34.2515169;108.9835803 34.2514913
西安交大,西安济仁医院,0a15c7ecd84b95e5ed74f858,1263145105749966847,['西安交大第二临床医学院附属济仁医院'],西安市邑区沣京大道1号,[陕西省(610000)|PROV|0|][西安市(610100)|CITY|1|][邑区(610118)|AREA|1|][丰京路()|ROAD|0|]沣京大道1号,1811,西安市邑区,489,医疗 医院,医疗;综合医院,2002,(029)84836666,12094254.55,4020031.78,108.6323325,34.1104935,108.632934 34.1102752;108.6329421 34.1097774;108.6321945 34.1097843;108.6320677 34.1098604;108.631941 34.1099406;108.6318332 34.1100847;108.631873 34.1115582;108.6333361 34.1115414;108.6333353 34.1102887;108.632934 34.1102752
西安交大,交大康桥宾馆,e2c734e403235f4414a1908d,1260107099287846911,['康桥宾馆'; '西安交大康桥宾馆'],陕西省西安市碑林区咸宁西路28号交大商业街(近理工大学),[陕西省(610000)|PROV|1|][西安市(610100)|CITY|1|][碑林区(610103)|AREA|1|][咸宁西路()|ROAD|1|28号$]交大商业街(近理工大学),8257,西安市碑林区,14,招待所 宾馆 客栈,酒店;其他,1101,(029)82666366,12133886.84,4038959.25,108.9880275,34.2515596,108.9878801 34.2518157;108.9878846 34.2512458;108.9881649 34.2512498;108.9881683 34.2518158;108.9878801 34.2518157
西安交大,西安市精神卫生中心,46cddfaa58294fdf441a3262,17598365556173231093,['陕西省精神卫生中心'; '西安交通大学医学部附属精神卫生中心'],西安市长安区航天大道东段与包茂高速交叉点东南角,[陕西省(610000)|PROV|0|][西安市(610100)|CITY|1|][长安区(610116)|AREA|1|]航天大道东段与包茂高速交叉点东南角,8248,西安市长安区,0,专科医院 医疗 医院 精神病医院,医疗;专科医院,2003,(029)63606310;(029)63609288,12135241.94,4028583.41,109.0001262,34.1743091,108.9975797 34.1752084;108.9988303 34.1751956;108.9989687 34.1753722;109.0023392 34.1753849;109.0027616 34.1732493;108.9975699 34.173203;108.9975797 34.1752084
西安交大,西安交大附小金辉分校曲江分部,45e2ca8d44d268df7069d3a6,13463435965014914564,['交大附属中学'; '交大附中'; '交大科技园区交大附中'; '西安交通附属中学'; '西安中学'],雁翔路99号西安交通大学曲江校区附近,[陕西省(610000)|PROV|0|][西安市(610100)|CITY|0|][雁塔区(610113)|AREA|0|]雁翔路99号西安交通大学曲江校区附近,8256,西安市雁塔区,0,学校 小学 教育,教育培训;小学,1804,,12135161.68,4035769.9,108.9993691,34.2279115,
西安交大,西安交通大学-幼儿园,fcf2cade09ba931b88b988b5,8858341186398716523,['交大幼儿园'; '西安交大幼儿园'],碑林区咸宁西路28号,[陕西省(610000)|PROV|0|][西安市(610100)|CITY|0|][碑林区(610103)|AREA|1|][咸宁西路()|ROAD|1|28号$],8257,西安市碑林区,476,幼儿园 学校 教育,教育培训;幼儿园,1805,(029)82665310;(029)82668470,12133717.92,4038897.77,108.9865242,34.2510797,108.9862822 34.251449;108.9862508 34.2504497;108.9860547 34.2504499;108.9860503 34.2500288;108.986081 34.2499993;108.9861127 34.2499958;108.9870378 34.250013;108.9870607 34.2514381;108.9862822 34.251449
西安交大,交大三村-东门,de88e3c599244177246e9889,301680202609151273,['交大三村(东2门)'; '交大三村东门'],西安市碑林区西安交通大学三村号,[陕西省(610000)|PROV|0|][西安市(610100)|CITY|1|][碑林区(610103)|AREA|1|][金花南路()|ROAD|0|]西安交通大学三村号,8257,西安市碑林区,238,正门 出入口 门,出入口;门,2708,,12134266.01,4038510.31,108.991399,34.2482576,
西安交大,西安交大-附小,083a55faf5722979246e986b,17998493416656207871,['交大附小'; '交通大学附属小学'; '西安交通大学附属小学'; '线交通大学附属小学'],西安市碑林区咸宁西路28号,[陕西省(610000)|PROV|0|][西安市(610100)|CITY|1|][碑林区(610103)|AREA|1|][咸宁西路()|ROAD|1|28号$],8257,西安市碑林区,188,学校 小学 教育,教育培训;小学,1804,(029)82668189,12134101.85,4038989.82,108.9899408,34.2518143,108.9905241 34.2521853;108.9905364 34.25138;108.9893576 34.2513974;108.9893582 34.2522063;108.9905241 34.2521853
西安交大,西安交通大学-西南门,77403f20eb096e38a3acc4fa,9177999887444113967,['交通大学西南门'; '西安交通大学(西门)'],陕西省西安市碑林区咸宁西路28号西安交通大学,[陕西省(610000)|PROV|1|][西安市(610100)|CITY|1|][碑林区(610103)|AREA|1|][兴庆西路()|ROAD|0|]咸宁西路28号[西安交通大学(2419033015855752544)|POI_PARENT|1|],8257,西安市碑林区,0,出入口 门,出入口;门,2708,,12132409.05,4038387.52,108.9748723,34.247115,
西安交大,交大南门,6b1d6886b297ad4b4c6d464d,50553007183352097,,33路;252路;313路;401路;612路;700路,,8257,西安市碑林区,524,,,,,12132855.12,4037793.2,108.9788414,34.242733,
西安交大,西安交大-停车场,504d17c9db114fcea3acc4f8,17689513116498818824,,学森路与樱花西道交叉口西50米,[陕西省(610000)|PROV|0|][西安市(610100)|CITY|0|][碑林区(610103)|AREA|0|]学森路与樱花西道交叉口西50米,8257,西安市碑林区,0,停车场 交通设施,交通设施;停车场,2208,,12132734.13,4038692.35,108.9777684,34.2494251,
西安交大,交大附中航天校区,a3fabf9cd0666f6152e5c52e,9553698771583427890,,陕西省西安市长安区航天南路180号,[陕西省(610000)|PROV|1|][西安市(610100)|CITY|1|][长安区(610116)|AREA|1|]航天南路180号,8248,西安市长安区,0,中学 学校 教育,教育培训;中学,1803,(029)89689922,12131744.6,4024626.65,108.9689752,34.1443774,108.9659396 34.1437888;108.9684413 34.1470043;108.9720765 34.1448426;108.9694084 34.1418065;108.9659396 34.1437888
西安交大,西安交大出版传媒大厦,1e23bc582b61f5f8eaf85347,11308389338383329201,['交大出版传媒大厦'; '西安交大出版传媒大厦'],陕西省西安市碑林区西安交通大学兴庆校区教学二区,[陕西省(610000)|PROV|1|][西安市(610100)|CITY|1|][碑林区(610103)|AREA|1|][二环南路东段()|ROAD|0|]西安交通大学兴庆校区教学二区,8257,西安市碑林区,0,房地产 写字楼,房地产;写字楼,2402,,12133727.37,4037830.97,108.9866032,34.2431241,
西安交大,西安交通大学,70605cddb8e4e330f32d83f9,10075062855556410113,,陕西省西安市长安区学森一路,[陕西省(610000)|PROV|1|][西安市(610100)|CITY|1|][长安区(610116)|AREA|1|][学森一路()|ROAD|1|],8248,西安市长安区,0,学校 教育 大学,教育培训;高等院校,1802,,12097011.52,4040457.63,108.6569842,34.2631024,
西安交大,西安交通大学-西门,e0eaee4da73bb4b4c056ac32,11495000019272393759,['西安交通大学兴庆校区(西1门)'],陕西省西安市碑林区咸宁西路28号,[陕西省(610000)|PROV|1|][西安市(610100)|CITY|1|][碑林区(610103)|AREA|1|][兴庆西路()|ROAD|0|]咸宁西路28号,8257,西安市碑林区,0,出入口 门,出入口;门,2708,,12132391.58,4037867.94,108.9747145,34.2432379,
西安交大,西安交通大学国家大学科技园,7c5e480b9257e5c9adb22a14,17660426726787776511,['交通大学国家大学科技园'; '陕西交通大学国家大学科技园'; '西安交大科技园'; '西安交通大学国家大学科技园(雁翔路)'; '西安交通大学科技园'],西安市雁塔区雁翔路99号,[陕西省(610000)|PROV|0|][西安市(610100)|CITY|1|][雁塔区(610113)|AREA|1|][雁翔路()|ROAD|1|99号$],8256,西安市雁塔区,256,科技园 行政区划,公司企业;园区,2503,(029)83399995,12134477.28,4035732.51,108.9932747,34.227564,108.992385 34.2274186;108.9927894 34.226823;108.9943112 34.2274729;108.9936837 34.2285047;108.9930694 34.228266;108.9931141 34.2281396;108.9932924 34.2279;108.9932251 34.2277532;108.9926644 34.2275112;108.992385 34.2274186
西安交大,交大曲江新村,8cd071cbcfe2ef5e6240a96d,3829725711837879412,['交大曲江新村小区'; '西安交通大学曲江新村'],陕西省西安市雁塔区雁翔路99号,[陕西省(610000)|PROV|1|][西安市(610100)|CITY|1|][雁塔区(610113)|AREA|1|]雁翔路99号,8256,西安市雁塔区,238,房地产 住宅区 小区,房地产;住宅区,2403,,12135262.87,4035926.71,109.0002704,34.2290894,
西安交大,交大科技园,877f4c14ab159b7b2cb96dde,9400919399030801842,['西安交通大学国家大学科技园(雁翔路)'],陕西省西安市雁塔区雁翔路,[陕西省(610000)|PROV|1|][西安市(610100)|CITY|1|][雁塔区(610113)|AREA|1|][雁翔路()|ROAD|1|],8256,西安市雁塔区,0,科技园 行政区划,公司企业;园区,2503,,12135067.4,4034721.35,108.9985328,34.2200829,
西安交大,西安交通大学医学院第一附属医院-东门,631c41576663d66231f71d7f,17848773541072207871,,雁塔西路277号,[陕西省(610000)|PROV|0|][西安市(610100)|CITY|0|][雁塔区(610113)|AREA|0|][雁塔西路()|ROAD|1|277号$],8256,西安市雁塔区,1,出入口 门,出入口;门,2708,,12127860.84,4034986.99,108.9341391,34.2218664,
西安交大,西安交通大学出版社,51a4ad715078fc3f6d20b96d,17497177332840369455,['西安交大出版社'; '西安交通大学音像出版社'],兴庆南路1号,[陕西省(610000)|PROV|0|][西安市(610100)|CITY|0|][碑林区(610103)|AREA|0|][兴庆路()|ROAD|0|]兴庆南路1号,8257,西安市碑林区,0,出版社 公司企业,文化传媒;新闻出版,1902,(029)82668316,12133324.3,4038308.23,108.9830189,34.2466325,
西安交大,西安交大附中分校,d69855071e3f824b79b55c9f,12466585538808045499,['交大附中'; '交大附中分校'; '西安交通大学附属中学'],碑林区兴庆南路135号,[陕西省(610000)|PROV|0|][西安市(610100)|CITY|0|][碑林区(610103)|AREA|1|][兴庆路()|ROAD|0|]兴庆南路135号,8257,西安市碑林区,471,中学 学校 教育,教育培训;中学,1803,(029)82668353,12133506.4,4038550.54,108.9846403,34.248463,108.9835336 34.2480015;108.9835365 34.2488841;108.9858487 34.2488775;108.9858488 34.2481667;108.9851248 34.2481689;108.9851249 34.2479989;108.9835336 34.2480015
西安交大,交大创业园,d219bb1d0aab7f8bf50e7751,17998540313404112895,['西安交大创业园'; '西安交通大学-创业园'],兴庆南路30号,[陕西省(610000)|PROV|0|][西安市(610100)|CITY|0|][碑林区(610103)|AREA|0|][兴庆路()|ROAD|0|]兴庆南路30号,8257,西安市碑林区,236,房地产 写字楼,公司企业;园区,2503,,12133322.22,4038709.08,108.9830024,34.249622,108.9829135 34.249973;108.9830918 34.2499755;108.9830952 34.2492707;108.982908 34.24928;108.9829135 34.249973
西工大,西北工业大学(友谊校区),c332966b1c0ad5c2d6b74eb2,17046146367555972126,['西北工业大学'; '西北工业大学(友谊校区)'],西安市碑林区友谊西路127号,[陕西省(610000)|PROV|0|][西安市(610100)|CITY|1|][碑林区(610103)|AREA|1|]友谊西路127号,8257,西安市碑林区,468,学校 教育 大学,教育培训;高等院校,1802,,12125261.53,4038201.31,108.9107144,34.2462324,108.905735 34.2476772;108.9061779 34.2476957;108.9063226 34.2482312;108.9066583 34.248269;108.9066533 34.248433;108.9071083 34.2484065;108.9079272 34.248405;108.9079592 34.2483336;108.9090208 34.2483738;108.9090373 34.2490165;108.9091565 34.249157;108.9092115 34.249223;108.9092245 34.2493579;108.9092092 34.2495994;108.9135286 34.2496068;108.9155069 34.2495582;108.9155333 34.248637;108.9155087 34.2461947;108.9155351 34.2451164;108.9155185 34.2439929;108.915525 34.24292;108.9117491 34.2428996;108.907028 34.2429732;108.9065961 34.2430625;108.9061719 34.2432582;108.9057642 34.2435492;108.9057609 34.2443681;108.9057192 34.2457867;108.9057399 34.2462858;108.9057658 34.2469549;108.905735 34.2476772
西工大,西北工业大学(长安校区),ac5e594a4e2716d31d580047,15008478874060025130,['西北工业大学(长安校区)'; '西北工业大学长安校区'; '西北工业大学校区'; '西工大长安校区'],西安市长安区东祥路1号,[陕西省(610000)|PROV|0|][西安市(610100)|CITY|1|][长安区(610116)|AREA|1|][长安大道()|ROAD|0|]东祥路1号,8248,西安市长安区,467,学校 教育 大学,教育培训;高等院校,1802,,12108543.04,4009926.56,108.7604412,34.0349395,108.7548054 34.0331037;108.7548184 34.0333536;108.7548184 34.0336036;108.7548034 34.0342494;108.7547883 34.0349712;108.7547953 34.0356671;108.7547912 34.0363599;108.7547922 34.0370187;108.7547911 34.0381715;108.754816 34.0386744;108.754809 34.0389983;108.754849 34.0390483;108.754917 34.0390853;108.760252 34.0390869;108.7629141 34.039081;108.7642472 34.0390926;108.7649323 34.0391009;108.7655804 34.0391053;108.764936 34.0289733;108.7646532 34.0258679;108.7639742 34.0252307;108.7633812 34.0245936;108.7623772 34.0232745;108.7612573 34.0216884;108.7604744 34.0203084;108.7547124 34.0203557;108.7547855 34.0321089;108.7548054 34.0331037
西工大,西工大西苑,5c56edd63daff35aa1d23056,17998541142332801023,['西北工业大学西苑'],劳动南路118号,[陕西省(610000)|PROV|0|][西安市(610100)|CITY|0|][莲湖区(610104)|AREA|0|][西市二路()|ROAD|0|]劳动南路118号,8255,西安市莲湖区,238,房地产 住宅区 小区,房地产;住宅区,2403,(029)89348070,12124104.53,4037815.0,108.9002998,34.2434422,108.9009212 34.244893;108.9009432 34.2449598;108.9009706 34.2456316;108.9009999 34.2460974;108.9012119 34.2461041;108.9022289 34.2461184;108.902729 34.2461394;108.9029563 34.2461189;108.9029941 34.2457127;108.9028889 34.2456535;108.9023762 34.2455937;108.9023894 34.2459476;108.9013101 34.2459318;108.9012551 34.2441195;108.9021812 34.2441062;108.9023614 34.2440161;108.9029501 34.2439934;108.902933 34.2437475;108.9026173 34.2432307;108.9021925 34.2426075;108.9013376 34.2429892;108.9002998 34.2434422;108.9003181 34.243889;108.9003186 34.2448808;108.9009212 34.244893
西工大,西工大-西门,9ba7f35e0b191dc638e4a6d5,15688597188988480138,['西北工业大学(友谊西路校区)-西门'; '西北工业大学国家大学科技园西门'; '西北工业大学友谊校区(西门)'],陕西省西安市碑林区友谊西路127号西北工业大学西门海天科苑楼,[陕西省(610000)|PROV|1|][西安市(610100)|CITY|1|][碑林区(610103)|AREA|1|][求实路()|ROAD|0|]友谊西路127号西北工业大学西门海天科苑楼,8257,西安市碑林区,0,出入口 门,出入口;门,2708,,12124717.35,4038202.73,108.9058143,34.2462967,
西工大,西北工业大学明德学院,fd34c861f7e13162fe0eb088,3579513711024561252,['明德学院'; '西北大学明德学院'; '西北工大明德学院'; '西北工业大学明德院'; '西北工业明德学院'; '西北明德学院'; '西工大明德'; '西工大明德学院'],陕西省西安市长安区S107(关中环线),[陕西省(610000)|PROV|1|][西安市(610100)|CITY|1|][长安区(610116)|AREA|1|]S107(关中环线),8248,西安市长安区,470,学校 教育 大学 民办高校,教育培训;高等院校,1802,(029)85603158,12110824.81,4011522.56,108.7809273,34.0469676,108.7772934 34.0509564;108.7807344 34.0517439;108.7814071 34.0496599;108.7816498 34.0495398;108.7827215 34.0473739;108.7831005 34.0465939;108.7837305 34.0466882;108.7838027 34.0464558;108.7842531 34.0462659;108.784578 34.0452539;108.7840371 34.0448245;108.7850907 34.0420726;108.780055 34.0437658;108.779416 34.0449126;108.7772934 34.0509564
西工大,西北工业大学-南门,d4034eb3b07e15f6c0364457,17998542705700896767,['西北工业大学(友谊西路校区)-南门'; '西北工业大学友谊校区(南门)'],友谊西路127号,[陕西省(610000)|PROV|0|][西安市(610100)|CITY|0|][碑林区(610103)|AREA|0|][友谊西路()|ROAD|1|127号$],8257,西安市碑林区,468,出入口 门,出入口;门,2708,,12125431.71,4037760.74,108.9122458,34.2429262,
西工大,西工大附中(西北工业大学附属中学),c9189bf4cdff9efeb320a849,11922064211173395979,['西北工业大学-附属中学'; '西北工业大学附属中学'; '西工大附中'],西安市碑林区友谊西路127,[陕西省(610000)|PROV|0|][西安市(610100)|CITY|1|][碑林区(610103)|AREA|1|][友谊西路()|ROAD|1|127$],8257,西安市碑林区,187,中学 学校 教育,教育培训;中学,1803,(029)88492401;(029)88494872,12125405.92,4037672.27,108.9120131,34.2422695,
西工大,西北工业大学-东门,25ec69fc1c0e1b00c26c14ce,17671041326142980095,['西北工业大学(东门)'; '西北工业大学(友谊西路校区)-东门'; '西北工业大学友谊校区(东门)'],西工大路3号西北工业大学,[陕西省(610000)|PROV|0|][西安市(610100)|CITY|0|][碑林区(610103)|AREA|0|][西工大路()|ROAD|1|3号$][西北工业大学(17046146367555972126)|POI_PARENT|1|],8257,西安市碑林区,468,出入口 门,出入口;门,2708,,12125778.37,4038215.6,108.9153715,34.2462733,
西工大,陕西省人民医院,62e29b0ee608e33522f01749,4818035142538550284,['陕西省临床医学研究院'; '西安医学院附属医院'; '西北工业大学附属医院'],西安市碑林区黄雁村友谊西路256号,[陕西省(610000)|PROV|0|][西安市(610100)|CITY|1|][碑林区(610103)|AREA|1|]黄雁村友谊西路256号,8257,西安市碑林区,20,医疗 医院,医疗;综合医院,2002,(029)85251331,12126902.02,4037575.46,108.9254982,34.2413252,108.9237102 34.2420673;108.9237196 34.242604;108.9273495 34.2426016;108.9273329 34.2400512;108.9237365 34.2400493;108.9237102 34.2420673
西工大,西北工业大学-东会议室,145fdbfbe6275ea94d2fdfdb,17548526842538648519,,陕西省西安市碑林区友谊西路西段-127号-付38号,[陕西省(610000)|PROV|1|][西安市(610100)|CITY|1|][碑林区(610103)|AREA|1|][友谊西路()|ROAD|1|]西段-127号-付38号,8257,西安市碑林区,0,旅游景点 展览馆,文化传媒;展览馆,1906,,12124886.89,4037817.01,108.9073389,34.243405,
西工大,西工大旺园学生公寓,3e9f815e9dd472dd9e95de49,14430302771394819051,['旺元学生公寓'; '旺园公寓楼'; '西北工业大学友谊校区旺园学生公寓'; '西工大旺园公寓'; '西工大旺园公寓(西市城东南)'; '西工大望园学生公寓'],张家村街道友谊西路127号,[陕西省(610000)|PROV|0|][西安市(610100)|CITY|0|][莲湖区(610104)|AREA|0|][西市南路()|ROAD|0|]张家村街道友谊西路127号,8255,西安市莲湖区,238,房地产 住宅区 小区 宿舍,房地产;宿舍,2404,,12124544.58,4038148.26,108.9042592,34.2459036,108.9053522 34.2461843;108.9053603 34.2456455;108.9035576 34.2456529;108.9031459 34.2456479;108.9031408 34.2461807;108.9036135 34.2461826;108.9053522 34.2461843
西工大,西北工业大学-航海学院,b69443d98e0db887cb213dcc,1961901561529930742,['航海学院'; '西北工业大学-航海学院'; '西北工业大学友谊校区航海学院'; '西工大航海学院'],友谊西路127号,[陕西省(610000)|PROV|0|][西安市(610100)|CITY|0|][碑林区(610103)|AREA|0|][友谊西路()|ROAD|1|127号$],8257,西安市碑林区,192,学校 教育 学院,教育培训;高等院校,1802,(029)88492611,12125252.75,4037648.23,108.9106332,34.2421082,
西工大,西北工业大学-西馆,8fe965242531b2d8b42655b0,5606256507811058625,['西北工业大学(友谊校区)西馆'; '西北工业大学友谊校区研究生西馆'; '西馆'],陕西西安友谊西路127号,[陕西省(610000)|PROV|1|][西安市(610100)|CITY|1|][碑林区(610103)|AREA|0|][友谊西路()|ROAD|1|127号$],8257,西安市碑林区,192,科研机构 教育,教育培训;其他,1801,,12124944.05,4037865.57,108.9078538,34.2437618,
西工大,西北工业大学-诚字楼,54692c458d0971b197ec8413,1617945990535434461,['诚字楼'; '西北工业大学诚字楼'; '西北工业大学友谊西路校区-诚字楼'],陕西西安友谊西路127号,[陕西省(610000)|PROV|1|][西安市(610100)|CITY|1|][碑林区(610103)|AREA|0|][友谊西路()|ROAD|1|127号$],8257,西安市碑林区,192,学校 教育 教学楼,教育培训;其他,1801,,12125075.77,4038070.91,108.9090407,34.2452801,
西工大,西北工业大学医院,37d60a468c43f5601e1d1154,17998543483089977343,['西工大医院'],西安市碑林区友谊西路127号,[陕西省(610000)|PROV|0|][西安市(610100)|CITY|1|][碑林区(610103)|AREA|1|][糜家桥()|ROAD|0|]友谊西路127号,8257,西安市碑林区,20,医疗 医院,医疗;综合医院,2002,(029)88493836;(029)88493920,12124903.14,4038457.1,108.907488,34.2481776,108.9070336 34.248357;108.9078919 34.2483947;108.9079678 34.2483677;108.9079808 34.2481628;108.9080108 34.2481178;108.9080218 34.2480628;108.9080058 34.2479989;108.9079868 34.2479679;108.9079199 34.2479559;108.9077021 34.247961;108.9076541 34.247948;108.9076381 34.247917;108.9072495 34.2479101;108.9072475 34.2480631;108.9071935 34.248123;108.9071186 34.248194;108.9070327 34.2482291;108.9070336 34.248357
西工大,西北工业大学-学舟楼,cf96807f0308364c6f47609e,513054049556730479,['西北工业大学学舟楼'; '西北工业大学友谊西路校区-学舟楼'; '学舟楼'],友谊西路127号,[陕西省(610000)|PROV|0|][西安市(610100)|CITY|0|][碑林区(610103)|AREA|0|]友谊西路127号,8257,西安市碑林区,192,学校 教育 教学楼,教育培训;其他,1801,,12125120.44,4038171.09,108.9094434,34.2460226,
西工大,西北工业大学-留学生公寓,fde58162f56b4b3109b93a89,11724668985936524221,['留学生公寓'; '西北工业大学(友谊西路校区)-留学生公寓'; '西北工业大学留学生公寓'],陕西省西安市碑林区友谊西路127号西北工业大学内,[陕西省(610000)|PROV|1|][西安市(610100)|CITY|1|][碑林区(610103)|AREA|1|][友谊西路()|ROAD|1|127号$]西北工业大学内,8257,西安市碑林区,0,房地产 住宅区 小区 宿舍,房地产;宿舍,2404,,12125625.39,4038044.98,108.913992,34.2450214,
西工大,西北工业大学创新科技大楼,38b5357619f3be3173210b8c,7878172035360996759,['西北工业大学-创新科技大楼'],陕西省西安市碑林区劳动南路17-3号,[陕西省(610000)|PROV|1|][西安市(610100)|CITY|1|][碑林区(610103)|AREA|1|][劳动南路()|ROAD|1|17-3号$],8257,西安市碑林区,0,房地产 写字楼,房地产;写字楼,2402,,12124763.56,4038055.05,108.9062296,34.2451914,
西工大,西北工业大学-毅字楼,d17ae99dd965dd19bd484211,14060167280430749596,['西北工业大学友谊西路校区-毅字楼'; '西北工业大学友谊校区毅字楼'; '毅字楼'],陕西西安友谊西路127号,[陕西省(610000)|PROV|1|][西安市(610100)|CITY|1|][碑林区(610103)|AREA|0|][友谊西路()|ROAD|1|127号$],8257,西安市碑林区,192,学校 教育 教学楼,教育培训;其他,1801,,12125303.28,4037873.49,108.9110891,34.2437825,
西工大,西北工业大学医院,2206b63161af4df5b11e36da,10603161289658253097,['西工大医院'],东祥路1号西北工业大学学沣河校区(东一门)附近,[陕西省(610000)|PROV|0|][西安市(610100)|CITY|0|][长安区(610116)|AREA|0|][东大路()|ROAD|0|]东祥路1号西北工业大学学沣河校区(东一门)附近,8248,西安市长安区,489,综合医院 医疗 医院,医疗;综合医院,2002,,12109177.41,4010096.69,108.7661234,34.0362713,108.7656286 34.0365839;108.7669329 34.0365326;108.766875 34.0355528;108.76685 34.0355358;108.7655317 34.0355771;108.7655247 34.0355911;108.7655906 34.0365749;108.7656286 34.0365839
西工大,西北工业大学-爱生楼,59ebcaca100af7939de3216a,5232749411742653340,['爱生楼'; '西北工业大学(友谊校区)爱生楼'],陕西省西安市碑林区友谊西路127号西北工业大学内,[陕西省(610000)|PROV|1|][西安市(610100)|CITY|1|][碑林区(610103)|AREA|1|][友谊西路()|ROAD|1|127号$]西北工业大学内,8257,西安市碑林区,192,活动中心 教育,教育培训;其他,1801,,12125534.7,4037996.64,108.9131746,34.2446727,
西工大,西北工业大学-健翔楼,cd7e3a208c842e03c8213d32,10929264403085752717,['西北工业大学(友谊校区)-健翔楼'; '西北工业大学友谊西路校区-健翔楼'],陕西西安友谊西路127号,[陕西省(610000)|PROV|1|][西安市(610100)|CITY|1|][碑林区(610103)|AREA|0|]友谊西路127号,8257,西安市碑林区,192,学校 教育 教学楼,教育培训;其他,1801,,12125297.08,4038428.45,108.9110357,34.2479225,
西工大,西北工业大学-档案馆,5b25f446e0c5d697102935c2,17671027998859460607,,友谊西路350号卡塞尔国际少儿艺术中心附近,[陕西省(610000)|PROV|0|][西安市(610100)|CITY|0|][碑林区(610103)|AREA|0|][友谊西路()|ROAD|1|350号$]卡塞尔国际少儿艺术中心附近,8257,西安市碑林区,629,政府机构 机关单位 档案馆,政府机构;行政单位,2604,(029)88493280,12125191.25,4037936.02,108.9100802,34.2442616,
西工大,西北工业大学-图书馆,49d95938bf73443dc61e5116,17628900185071419391,['西北工业大学图书馆'; '西北工业大学(友谊校区)图书馆'],陕西省西安市碑林区友谊西路127号西北工业大学,[陕西省(610000)|PROV|1|][西安市(610100)|CITY|1|][碑林区(610103)|AREA|1|][友谊西路()|ROAD|1|127号$][西北工业大学(17046146367555972126)|POI_PARENT|1|],8257,西安市碑林区,169,教育 图书馆,教育培训;图书馆,1812,(029)88492361,12125351.54,4037981.35,108.9115243,34.2445813,
西工大,西北工业大学附属小学(龙湖分校),a2dfa7509d0360de9cec2ba9,2564497040113150741,['西北工业大学附属小学龙湖分校'],西安市灞桥区沁水路与高楼路交汇处南200米,[陕西省(610000)|PROV|0|][西安市(610100)|CITY|1|][灞桥区(610111)|AREA|1|][沁水路()|ROAD|1|]与高楼路交汇处南200米,8247,西安市灞桥区,0,学校 小学 教育,教育培训;小学,1804,(029)82465890,12138805.04,4040276.13,109.0319836,34.2614084,109.0315424 34.2622559;109.0325755 34.2620353;109.0328436 34.2608031;109.0310932 34.2607597;109.0315424 34.2622559
西工大,西北工业大学-航空楼,fee32811ef1becdbaeb22a2a,16360781901887128189,['航空楼'; '西北工业大学航空楼'; '西北工业大学友谊西路校区-航空楼'; '西北工业大学友谊校区航空楼'],陕西西安友谊西路127号,[陕西省(610000)|PROV|1|][西安市(610100)|CITY|1|][碑林区(610103)|AREA|0|][友谊西路()|ROAD|1|127号$],8257,西安市碑林区,192,学校 教育 教学楼,教育培训;其他,1801,,12125310.01,4038135.31,108.9111508,34.2457345,
西工大,西北工业大学-管理学院,f27856d27e16f46007fef570,11352151869011815697,,西安市碑林区友谊西路127号西北工业大学友谊校区,[陕西省(610000)|PROV|0|][西安市(610100)|CITY|1|][碑林区(610103)|AREA|1|][友谊西路()|ROAD|1|127号$]西北工业大学友谊校区,8257,西安市碑林区,192,学校 教育 学院,教育培训;其他,1801,,12125234.97,4038112.61,108.9104747,34.2455739,
西工大,西北工业大学-党政办公楼,cc36e7549ba568524f6d461d,500053055970146950,['西北工业大学党政办公楼'],友谊西路127附近,[陕西省(610000)|PROV|0|][西安市(610100)|CITY|0|][碑林区(610103)|AREA|0|][友谊西路()|ROAD|1|127$]附近,8257,西安市碑林区,192,房地产 职能机构 学校 教育 写字楼,教育培训;其他,1801,,12125165.69,4037790.36,108.9098495,34.243178,
西工大,西北工业大学长安校区-东一门,6cc015abcff6520702ec015e,1591235876550019448,['西北工业大学(长安校区)-东门'; '西北工业大学长安校区(东1门)'; '西北工业大学长安校区(东一门)'; '西北工业大学长安校区教学东楼B座'; '西北工业大学长安校区理学院'; '西北工业大学长安校区力学与土木建筑学院'; '西北工业大学长安校区实验大楼'; '西北工业大学长安校区自动化学院'],东祥路1号,[陕西省(610000)|PROV|0|][西安市(610100)|CITY|0|][长安区(610116)|AREA|0|][东大路()|ROAD|0|]东祥路1号,8248,西安市长安区,474,出入口 门,出入口;门,2708,,12109064.99,4009985.77,108.7651154,34.0354329,
西工大,西北工业大学-书海楼,a4fa93cd10c354573586f417,8023882073799429707,['书海楼'; '西北工业大学友谊西路校区-书海楼'],陕西西安友谊西路127号,[陕西省(610000)|PROV|1|][西安市(610100)|CITY|1|][碑林区(610103)|AREA|0|]友谊西路127号,8257,西安市碑林区,192,出版社 公司企业,教育培训;其他,1801,,12124989.01,4038160.42,108.9082598,34.2459566,
西工大,西北工业大学长安校区,10c6d750dfa92dc3f5c59cc7,11998658546998781492,,333路,,8248,西安市长安区,524,,,,,12108508.22,4010512.88,108.7601323,34.0393203,
西工大,西北工业大学-体育馆,189713b7721f2472a10464dd,3670499687227787911,,友谊西路127号西北工业大学内,[陕西省(610000)|PROV|0|][西安市(610100)|CITY|0|][碑林区(610103)|AREA|0|]友谊西路127号西北工业大学内,8257,西安市碑林区,460,运动健身 体育场馆,运动健身;体育场馆,1702,,12125532.44,4038243.92,108.9131553,34.2465173,
西工大,西北工业大学-翱翔训练馆,cdef4edf79f5114e28d7ab5a,17998545037868138495,,陕西省西安市碑林区友谊西路127号西北工业大学内,[陕西省(610000)|PROV|1|][西安市(610100)|CITY|1|][碑林区(610103)|AREA|1|]友谊西路127号西北工业大学内,8257,西安市碑林区,460,运动健身 体育场馆,运动健身;体育场馆,1702,,12125532.23,4038231.32,108.9131534,34.2464234,
西工大,西北工业大学-机电学院,8a688f42d554b87fb9df8f1d,11706439684750604496,,西北工业大学航空楼B座1/2～8/11/12层,[陕西省(610000)|PROV|0|][西安市(610100)|CITY|0|][碑林区(610103)|AREA|0|]西北工业大学航空楼B座1/2～8/11/12层,8257,西安市碑林区,192,学校 教育 学院,教育培训;其他,1801,,12125384.96,4038127.76,108.911826,34.2456693,
西工大,西北工业大学-塑胶田径场,18193a40f463a05897ec845f,7873211019763884177,['西北工业大学田径场'],友谊西路127号西北工业大学内,[陕西省(610000)|PROV|0|][西安市(610100)|CITY|0|][碑林区(610103)|AREA|0|][西建新村()|ROAD|0|]友谊西路127号西北工业大学内,8257,西安市碑林区,460,洗浴 休闲娱乐,运动健身;体育场馆,1702,,12125585.87,4038442.35,108.9136377,34.2479904,
西工大,西北工业大学-停车场,fe140f214366285d63180935,11154685296707690811,['西北工业大学停车场'; '停车场'],西安市碑林区友谊西路127号,[陕西省(610000)|PROV|0|][西安市(610100)|CITY|1|][碑林区(610103)|AREA|1|][友谊西路()|ROAD|1|127号$],8257,西安市碑林区,0,停车场 交通设施,交通设施;停车场,2208,,12125246.53,4037802.92,108.9105777,34.2432627,
西工大,西北工业大学医院-西1门,463ec8d65123c505f82d61d4,17973645592527951777,,东大路与银河路交叉口东北100米,[陕西省(610000)|PROV|0|][西安市(610100)|CITY|0|][长安区(610116)|AREA|0|][东大路()|ROAD|1|]与银河路交叉口东北100米,8248,西安市长安区,0,出入口 门,出入口;门,2708,,12109153.27,4010035.01,108.7659067,34.0358082,
西工大,西北工业大学-外国语学院,4d346d4be62e933adbd89115,5929877648696618886,,陕西省西安市长安区东大街道办东祥路1号西北工业大学长安校区教学东楼A座,[陕西省(610000)|PROV|1|][西安市(610100)|CITY|1|][长安区(610116)|AREA|1|]东大街道办东祥路1号西北工业大学长安校区教学东楼A座,8248,西安市长安区,0,学校 教育 大学,教育培训;其他,1801,(029)88430908,12108696.86,4009804.58,108.7618174,34.0340437,
西工大,西北工业大学-航海东楼,8b349c5dfbe6eed0fbf0cb97,14251906735001617736,['西北工业大学-航海东楼'; '西北工业大学航海东楼'],友谊西路127号西北工业大学航海学院航海,[陕西省(610000)|PROV|0|][西安市(610100)|CITY|0|][碑林区(610103)|AREA|0|][友谊西路()|ROAD|1|127号$]西北工业大学航海学院航海,8257,西安市碑林区,0,学校 教育 大学,教育培训;其他,1801,,12125355.11,4037685.37,108.9115554,34.2423733,
西工大,西北工业大学-游泳池,de70f14eee0399b2f7e73b19,14004454908147109270,,陕西省西安市碑林区友谊西路127号西北工业大学内,[陕西省(610000)|PROV|1|][西安市(610100)|CITY|1|][碑林区(610103)|AREA|1|][建新巷()|ROAD|0|]友谊西路127号西北工业大学内,8257,西安市碑林区,460,游泳馆 运动健身 体育场馆,运动健身;体育场馆,1702,,12125551.03,4038479.58,108.913324,34.2482726,
西工大,西北工业大学-理发室,beabdbf4d5300de57069d3c2,17671027887190310911,['理发室'; '西北工业大学理发室'],陕西省西安市碑林区友谊西路127号西北工业大学内,[陕西省(610000)|PROV|1|][西安市(610100)|CITY|1|][碑林区(610103)|AREA|1|][友谊西路()|ROAD|1|127号$]西北工业大学内,8257,西安市碑林区,141,丽人 美容 美发,丽人;美发,1403,,12125653.22,4038099.48,108.9142431,34.2454242,
西工大,东大村,4bb049d948f1af47990050db,17998406314719444991,['大东'],陕西省西安市长安区中共东大村支部委员会(西北工业大学北),[陕西省(610000)|PROV|1|][西安市(610100)|CITY|1|][长安区(610116)|AREA|1|][巡航北路()|ROAD|0|]中共东大村支部委员会(西北工业大学北),8248,西安市长安区,651,村庄 行政区划,行政地标;村庄,2908,,12108775.84,4010572.39,108.762528,34.0397936,
西工大,西北工业大学-航空学院,e3b8cd287b9f464ce115f9a3,17253317037419375579,,陕西省西安市碑林区西北工业大学航空楼A座4-9层C座1-5层,[陕西省(610000)|PROV|1|][西安市(610100)|CITY|1|][碑林区(610103)|AREA|1|]西北工业大学航空楼A座4-9层C座1-5层,8257,西安市碑林区,192,学校 教育 学院,教育培训;高等院校,1802,,12125314.03,4038069.84,108.9111868,34.2452458,
西工大,西北工业大学医院-南门,2a301d5b500d9688eb12e402,3775854928199568431,,陕西省西安市碑林区友谊西路226号附近,[陕西省(610000)|PROV|1|][西安市(610100)|CITY|1|][碑林区(610103)|AREA|1|]友谊西路226号附近,8257,西安市碑林区,0,出入口 门,出入口;门,2708,,12124924.49,4038431.81,108.9076801,34.247987,
西工大,西北工业大学-音像电子出版社,4eb3b533ee07c27543024557,17998542709995864063,['西北工业大学出版社'; '音像电子出版社'],友谊西路127号西北工业大学友谊校区,[陕西省(610000)|PROV|0|][西安市(610100)|CITY|0|][碑林区(610103)|AREA|0|]友谊西路127号西北工业大学友谊校区,8257,西安市碑林区,244,出版社 公司企业,文化传媒;新闻出版,1902,(029)88492314,12124989.01,4038160.42,108.9082598,34.2459566,
西工大,西北工业大学-西村0号楼,e30e5b9ced00740a04026f9a,3746909145990681961,['西北工业大学(友谊西路校区)-西村0号楼'; '西北工业大学西村0号楼'; '西北工业大学友谊西路校区-西0'],陕西西安友谊西路127号,[陕西省(610000)|PROV|1|][西安市(610100)|CITY|1|][碑林区(610103)|AREA|0|]友谊西路127号,8257,西安市碑林区,0,教育,教育培训;其他,1801,,12125020.74,4038348.0,108.9085464,34.2473525,
西工大,西北工业大学-综合服务楼,83a27225b673388221026224,7388204787941206319,['西北工业大学-综合服务楼'],友谊西路127号西北工业大学内,[陕西省(610000)|PROV|0|][西安市(610100)|CITY|0|][碑林区(610103)|AREA|0|]友谊西路127号西北工业大学内,8257,西安市碑林区,236,职能机构 学校 教育,教育培训;其他,1801,,12125347.98,4038361.82,108.9114939,34.2474195,
西工大,西北工业大学长安校区-停车场,f2859ce5bf6152d643e1929f,14217785859422712456,,陕西省西安市长安区西北工业大学长安校区内,[陕西省(610000)|PROV|1|][西安市(610100)|CITY|1|][长安区(610116)|AREA|1|][西北工业大学长安校区(15008478874060025130)|POI_PARENT|1|]内,8248,西安市长安区,0,停车场 交通设施,交通设施;停车场,2208,,12108249.18,4010003.57,108.7578126,34.0354809,
西工大,西北工业大学医院-西2门,64d7893b6a04f0ac3310af4a,11353012618719365999,,东大路与银河路交叉口东北150米,[陕西省(610000)|PROV|0|][西安市(610100)|CITY|0|][长安区(610116)|AREA|0|][东大路()|ROAD|1|]与银河路交叉口东北150米,8248,西安市长安区,0,出入口 门,出入口;门,2708,,12109151.32,4010118.18,108.7658896,34.0364301,
西工大,西北工业大学-停车场,2849dc5892998a64b9df8ffa,12061587699908958578,['西北工业大学停车场柳荫路'; '西北工业大学西村停车场'],柳荫路与求实路交叉口西北100米,[陕西省(610000)|PROV|0|][西安市(610100)|CITY|0|][碑林区(610103)|AREA|0|]柳荫路与求实路交叉口西北100米,8257,西安市碑林区,0,停车场 交通设施,交通设施;停车场,2208,,12125018.9,4038258.78,108.9085294,34.2466872,
西京医院,空军军医大学(第四军医大学)西京医院,38e48037e20eb450373a71f8,1261280948209582079,['空军军医大学西京医院'],陕西省西安市新城区长乐西路127号,[陕西省(610000)|PROV|1|][西安市(610100)|CITY|1|][新城区(610102)|AREA|1|][长乐西路()|ROAD|1|127号$],8258,西安市新城区,486,医疗 医院,医疗;其他,2001,(029)84775507,12133366.67,4041729.2,108.9834172,34.2721508,108.9798414 34.274366;108.9797986 34.2756032;108.9806794 34.2756193;108.9806745 34.2758272;108.9819208 34.2758187;108.9819036 34.2768472;108.9830249 34.2768522;108.983042 34.2756926;108.9845812 34.2756886;108.9857965 34.275713;108.9858933 34.2753835;108.9859109 34.2749698;108.9860356 34.2749566;108.9860224 34.2743375;108.985942 34.2740644;108.9859236 34.2732253;108.9858378 34.2725042;108.9858249 34.272481;108.9856832 34.272278;108.9856332 34.2717814;108.9845913 34.2717974;108.984573 34.2711853;108.9822819 34.2711456;108.9806226 34.2711303;108.9806092 34.271633;108.9800752 34.2716406;108.9800911 34.2743884;108.9798414 34.274366
西京医院,西京医院,76e694a809990913740269ca,4998313137013284696,,203路;237路;408路;410路;512路;517路;622路;709路,,8258,西安市新城区,524,,,,,12133358.11,4041414.64,108.9833392,34.2698042,
西京医院,西京医院-南门,5083a40c85bbe2ff3010af05,7826323484558417755,,长乐西路125-127号,[陕西省(610000)|PROV|0|][西安市(610100)|CITY|0|][新城区(610102)|AREA|0|][长乐西路()|ROAD|1|125-127号$],8258,西安市新城区,0,出入口 门,出入口;门,2708,,12133364.39,4041631.52,108.9833963,34.2714222,
西京医院,西京医院-停车场,27045b6f31cc08e6d23ce358,9341809618227762078,,长乐西路127号,[陕西省(610000)|PROV|0|][西安市(610100)|CITY|0|][新城区(610102)|AREA|0|][长乐西路()|ROAD|1|127号$],8258,西安市新城区,217,停车场 交通设施,交通设施;停车场,2208,,12133122.62,4041685.89,108.9812453,34.2717971,
西京医院,西京医院-门诊部,c8e8f63388e60011ab0dd813,17660421014481272831,,长乐西路127号,[陕西省(610000)|PROV|0|][西安市(610100)|CITY|0|][新城区(610102)|AREA|0|][长乐西路()|ROAD|1|127号$],8258,西安市新城区,201,综合医院 医疗 医院,医疗;其他,2001,(029)84775507,12133358.74,4041706.71,108.9833465,34.2719821,
西京医院,西京医院西京医院急诊中心,ce1ba846212a2004a2d230d6,15319606364783424109,,陕西省西安市新城区长乐西路127-1号,[陕西省(610000)|PROV|1|][西安市(610100)|CITY|1|][新城区(610102)|AREA|1|][长乐西路()|ROAD|1|127-1号$],8258,西安市新城区,198,医疗,医疗;其他,2001,(029)84775539,12133372.76,4041734.13,108.9834714,34.2721884,
西京医院,西京医院-骨科楼,f780b0496abf42acad080f66,11928983115469595149,,陕西省西安市新城区长乐西路127号,[陕西省(610000)|PROV|1|][西安市(610100)|CITY|1|][新城区(610102)|AREA|1|][长乐西路()|ROAD|1|127号$],8258,西安市新城区,201,医疗 医院,医疗;其他,2001,,12133298.9,4041983.55,108.9828156,34.2740387,
西京医院,西京医院-体检中心,2611ac154b96663307026f41,18082277571270593196,,长乐西路127号西京医院5层,[陕西省(610000)|PROV|0|][西安市(610100)|CITY|0|][新城区(610102)|AREA|0|][长乐西路()|ROAD|1|127号$]西京医院5层,8258,西安市新城区,201,体检中心 医疗,医疗;体检机构,2006,,12133429.84,4041665.71,108.9839789,34.2716855,
西京医院,西京医院-地下停车场,01fc6983806b1a7481a12e43,4746693053040223815,,陕西省西安市新城区长乐西路127号,[陕西省(610000)|PROV|1|][西安市(610100)|CITY|1|][新城区(610102)|AREA|1|][长乐西路()|ROAD|1|127号$],8258,西安市新城区,0,停车场 交通设施,交通设施;停车场,2208,,12133311.99,4041664.76,108.9829303,34.2716634,
西京医院,西京医院-停车场,08d9b999afc1c81a465726b6,11588960310864079783,,陕西省西安市新城区西京医院(康复路地铁站东460米),[陕西省(610000)|PROV|1|][西安市(610100)|CITY|1|][新城区(610102)|AREA|1|][长乐西路()|ROAD|0|]西京医院(康复路地铁站东460米),8258,西安市新城区,217,停车场 交通设施,交通设施;停车场,2208,,12133472.95,4041671.51,108.9843625,34.2717342,
西京医院,西京医院停车场-出入口,2f328e11600cdc68dbd8914f,9264479254323931620,,陕西省西安市新城区长乐西路131号附近,[陕西省(610000)|PROV|1|][西安市(610100)|CITY|1|][新城区(610102)|AREA|1|][长乐西路()|ROAD|1|131号$]附近,8258,西安市新城区,0,出入口,出入口;停车场出入口,2709,,12133365.98,4041603.87,108.9834103,34.2712162,
西京医院,西京医院-地上停车场,272e7dbd9e3dc4fcdb131893,3447604923016809501,,长乐西路15号西京医院内,[陕西省(610000)|PROV|0|][西安市(610100)|CITY|0|][新城区(610102)|AREA|0|][长乐西路()|ROAD|1|15号$]西京医院内,8258,西安市新城区,0,停车场 交通设施,交通设施;停车场,2208,,12133533.17,4041849.32,108.9848993,34.2730677,
西京医院,如家酒店(西安西京医院兴庆路店),cde5b06ca8a084f741e19214,16583654603415491255,,西安市碑林区兴庆路95号,[陕西省(610000)|PROV|0|][西安市(610100)|CITY|1|][碑林区(610103)|AREA|1|][兴庆路()|ROAD|1|95号$],8257,西安市碑林区,14,宾馆 快捷酒店 连锁酒店,酒店;快捷酒店,1103,(029)83180001,12133408.38,4040081.55,108.9837776,34.2598692,108.9835549 34.259996;108.9840095 34.2599805;108.9840043 34.2597225;108.9835596 34.2597311;108.9835549 34.259996
西京医院,西京医院-幼儿园,2e20f1bbdb393f5846e274cb,8419989364514195409,,长乐西路125-127号,[陕西省(610000)|PROV|0|][西安市(610100)|CITY|0|][新城区(610102)|AREA|0|][金桂路()|ROAD|0|]长乐西路125-127号,8258,西安市新城区,476,幼儿园 学校 教育,教育培训;幼儿园,1805,,12133538.69,4042038.15,108.9849494,34.2744763,108.9846777 34.2746742;108.9852453 34.2746955;108.9852612 34.2742767;108.9846498 34.2742614;108.9846368 34.2746643;108.9846777 34.2746742
西京医院,西京医院-停车场,f9f71da3ec295cf977026911,1984438356474416855,,西京大道与金桂路交叉口西北150米,[陕西省(610000)|PROV|0|][西安市(610100)|CITY|0|][新城区(610102)|AREA|0|][西京大道()|ROAD|1|]与金桂路交叉口西北150米,8258,西安市新城区,0,停车场 交通设施,交通设施;停车场,2208,,12133357.39,4042102.22,108.9833366,34.2749309,
西京医院,中国银行(西安西京医院支行),cdd5f13f0896bf05d23ce33f,16154847682792374900,,西安市新城区长乐西路127号,[陕西省(610000)|PROV|0|][西安市(610100)|CITY|1|][新城区(610102)|AREA|1|][西京大道()|ROAD|0|]长乐西路127号,8258,西安市新城区,541,金融 银行,金融;银行,2302,,12133234.16,4042096.32,108.9822401,34.2748713,
西京医院,西京医院整形美容中心,4e5ad3c046d8be632cb90897,2438860835911039692,,长乐西路145第附近,[陕西省(610000)|PROV|0|][西安市(610100)|CITY|0|][新城区(610102)|AREA|0|][长乐西路()|ROAD|1|145$]第附近,8258,西安市新城区,0,丽人 美容,丽人;美容,1402,,12133177.61,4041617.2,108.9817342,34.2712918,
西京医院,西京医院-西2门,29276b6087f0f3db8bf15d8a,2688443915975723728,,梧桐路与长乐西路交叉口北50米,[陕西省(610000)|PROV|0|][西安市(610100)|CITY|0|][新城区(610102)|AREA|0|][梧桐路()|ROAD|1|]与长乐西路交叉口北50米,8258,西安市新城区,0,出入口 门,出入口;门,2708,,12133234.47,4041608.16,108.9822402,34.2712316,
西京医院,西京医院-家属院,4860fbb8844bede81811d5fa,17846780764393769281,,长乐西路15号,[陕西省(610000)|PROV|0|][西安市(610100)|CITY|0|][新城区(610102)|AREA|0|][金桂路()|ROAD|0|]长乐西路15号,8258,西安市新城区,0,房地产 宿舍,房地产;宿舍,2404,,12133623.78,4042160.29,108.9857071,34.2753978,
西京医院,雅杰商务酒店(西京医院店),6b9c5d191964575316a1902a,325538609611842678,['雅杰商务酒店'],陕西省西安市新城区长乐西路3号西京医院往东50米,[陕西省(610000)|PROV|1|][西安市(610100)|CITY|1|][新城区(610102)|AREA|1|][长乐西路()|ROAD|1|3号$]西京医院往东50米,8258,西安市新城区,14,宾馆 舒适型,酒店;其他,1101,(029)68678999,12133734.81,4041672.19,108.9866924,34.2717726,
西京医院,7天酒店(西安西京医院通化门地铁站店),3810c8799da8a3929c09f713,1259968693966733311,['7天连锁酒店'; '7天连锁酒店(西安金花路通化门地铁站店)'],西安市碑林区东二环路电子大厦隔壁,[陕西省(610000)|PROV|0|][西安市(610100)|CITY|1|][碑林区(610103)|AREA|1|][东二环路()|ROAD|1|][电子大厦(17998530559533383679)|POI_PARENT|1|]隔壁,8257,西安市碑林区,0,宾馆 快捷酒店 连锁酒店,酒店;快捷酒店,1103,(029)82469288;(029)83266654,12134153.67,4040997.44,108.9904151,34.2667933,
西京医院,同兴宾馆(西京医院店),efa9ea588c93467aa8059d84,8536774708659126825,['同兴宾馆'],陕西省西安市新城区长乐西路双鱼大厦3层,[陕西省(610000)|PROV|1|][西安市(610100)|CITY|1|][新城区(610102)|AREA|1|][长乐西路()|ROAD|1|]双鱼大厦3层,8258,西安市新城区,0,宾馆 客栈,酒店;其他,1101,(029)82497021,12133570.35,4041596.95,108.9852287,34.2711907,
西京医院,西京医院(内部餐厅),d25e675074c982c304026f28,7752217352280966488,,陕西省西安市新城区长乐西路99号,[陕西省(610000)|PROV|1|][西安市(610100)|CITY|1|][新城区(610102)|AREA|1|][长乐西路()|ROAD|1|99号$],8258,西安市新城区,0,美食 食堂,美食;中餐厅,1002,,12133586.51,4041684.48,108.985373,34.2718454,
西京医院,西京医院-教学楼,f3b849aa946a60fadf1e52de,11199152997058117461,,长乐西路127号,[陕西省(610000)|PROV|0|][西安市(610100)|CITY|0|][新城区(610102)|AREA|0|][西京大道()|ROAD|0|]长乐西路127号,8258,西安市新城区,201,医疗,医疗;其他,2001,,12133162.64,4041998.24,108.9816031,34.2741311,
西京医院,西京医院住院-三部,bc6a7c87810788bed6851fae,10954417801796162925,,长乐西路街道长乐西路127号,[陕西省(610000)|PROV|0|][西安市(610100)|CITY|0|][新城区(610102)|AREA|0|][长乐西路()|ROAD|1|]街道长乐西路127号,8258,西安市新城区,201,综合医院 医疗 医院,医疗;其他,2001,,12133062.19,4041713.1,108.9807077,34.2719925,
西京医院,西京医院-地下停车场(一),a4c3a0e86a7d1f737c29bde8,9155259209755711009,,长乐西路15号,[陕西省(610000)|PROV|0|][西安市(610100)|CITY|0|][新城区(610102)|AREA|0|][长乐西路()|ROAD|1|15号$],8258,西安市新城区,0,停车场 交通设施,交通设施;停车场,2208,,12133303.74,4041675.66,108.9828569,34.2717436,
西京医院,星辰商务酒店(西京医院),2b27faea6e3cceb54d776eda,14098382956295925288,['星辰商务酒店'],陕西省西安市碑林区长乐西路西京医院天桥向东100米丹尼尔世纪广场美食街内,[陕西省(610000)|PROV|1|][西安市(610100)|CITY|1|][碑林区(610103)|AREA|1|][长乐西路()|ROAD|1|]西京医院天桥向东100米丹尼尔世纪广场美食街内,8257,西安市碑林区,14,宾馆,酒店;快捷酒店,1103,(029)83295165,12133723.97,4041326.22,108.9865938,34.2691915,
西京医院,西京医院高新区干部住房,75eed2d5924158ac2bb97c58,8394785637115410025,,高新四路,[陕西省(610000)|PROV|0|][西安市(610100)|CITY|0|][雁塔区(610113)|AREA|0|][高新四路()|ROAD|1|],8256,西安市雁塔区,0,房地产 住宅区,房地产;住宅区,2403,,12123173.17,4037123.58,108.8919323,34.2382892,108.8917436 34.2386326;108.8914967 34.2382167;108.8920907 34.237937;108.8923816 34.2383689;108.8917436 34.2386326
西京医院,中国工商银行(西安西京医院支行),1109170cb03c13c058f6be8f,11543992660486275501,,西安市新城区长乐西路127号西京医院骨科楼对面,[陕西省(610000)|PROV|0|][西安市(610100)|CITY|1|][新城区(610102)|AREA|1|][西京大道()|ROAD|0|]长乐西路127号西京医院骨科楼对面,8258,西安市新城区,542,金融 银行,金融;银行,2302,(029)82559855,12133261.1,4042053.81,108.9824796,34.2745578,
西京医院,西京医院-神经内外科,5460dfd11f34d0d595f08cc7,8958167216751493443,,长乐西路127号第四军医大学西京医院门诊部F4,[陕西省(610000)|PROV|0|][西安市(610100)|CITY|0|][新城区(610102)|AREA|0|][长乐西路()|ROAD|1|127号$]第四军医大学西京医院门诊部F4,8258,西安市新城区,201,医疗 医院,医疗;其他,2001,,12133398.92,4041859.92,108.9837049,34.2731296,
西京医院,西京医院-消化病急诊,15ecf7c7dd969be1095cb356,6496313986203055298,,长乐中路街道长乐西路15号,[陕西省(610000)|PROV|0|][西安市(610100)|CITY|0|][新城区(610102)|AREA|0|]长乐中路街道[长乐西路()|ROAD|1|15号$],8258,西安市新城区,198,医疗 下属科室机构,医疗;其他,2001,,12133311.78,4041646.0,108.9829283,34.2715235,
西京医院,西京医院办公楼,a6a36284266c866915a190ec,3329166854754769851,,陕西省西安市新城区长乐西路127号,[陕西省(610000)|PROV|1|][西安市(610100)|CITY|1|][新城区(610102)|AREA|1|][西京大道()|ROAD|0|]长乐西路127号,8258,西安市新城区,0,综合医院 医疗 医院,医疗;其他,2001,,12133238.5,4042116.97,108.9822788,34.2750259,
西京医院,时代旅馆(西京医院店),33b74ccadd5bca21c7f025b8,6963039482390200473,['时代旅馆'],陕西省西安市碑林区兴庆路长乐坊玫瑰坊小区18号2层,[陕西省(610000)|PROV|1|][西安市(610100)|CITY|1|][碑林区(610103)|AREA|1|][兴庆路()|ROAD|1|]长乐坊玫瑰坊小区18号2层,8257,西安市碑林区,115,宾馆 客栈,酒店;其他,1101,(029)83224743,12133288.99,4040866.31,108.9827206,34.2657065,
西京医院,幸福公寓酒店(康复路西京医院店),8b85b76818ecaec36018095b,3551049789622743118,['幸福公寓酒店'],陕西省西安市碑林区兴庆北路兴庆雅居小区1单元5层505室,[陕西省(610000)|PROV|1|][西安市(610100)|CITY|1|][碑林区(610103)|AREA|1|][兴庆路()|ROAD|0|]兴庆北路兴庆雅居小区1单元5层505室,8257,西安市碑林区,14,公寓式酒店 宾馆,酒店;公寓式酒店,1104,13093947222,12133403.48,4041169.61,108.9837413,34.2679828,
西京医院,如家驿居酒店(西京医院通化门地铁站店),2dd4473a37217cf02cb90802,12653527197177509039,,新城区长乐西路21号(与金花北路交汇处西北角),[陕西省(610000)|PROV|0|][西安市(610100)|CITY|0|][新城区(610102)|AREA|1|][长乐西路()|ROAD|1|21号$](与金花北路交汇处西北角),8258,西安市新城区,14,宾馆 快捷酒店 连锁酒店,酒店;快捷酒店,1103,(029)81016677,12133987.91,4041606.61,108.9889439,34.2713154,108.9885491 34.2716678;108.9892285 34.2716553;108.9892958 34.2715553;108.9892827 34.2712041;108.9885478 34.2712539;108.9885491 34.2716678
西京医院,西京医院-西1门,a7d9d3a12179d5e8bea240c6,8385716446077054821,,陕西省西安市新城区长乐西路(第四军医大学口腔医院内),[陕西省(610000)|PROV|1|][西安市(610100)|CITY|1|][新城区(610102)|AREA|1|][长乐西路()|ROAD|1|](第四军医大学口腔医院内),8258,西安市新城区,0,出入口 门,出入口;门,2708,,12133111.38,4041602.73,108.9811448,34.2711757,
西京医院,西安阳阳公寓酒店(西京医院店),c838d63915160c5c2806ce34,7164573593649865648,['西安阳阳公寓酒店'],陕西省西安市碑林区兴庆路幸福公寓楼2单元8楼803室(西京医院南侧150米路东),[陕西省(610000)|PROV|1|][西安市(610100)|CITY|1|][碑林区(610103)|AREA|1|][兴庆路()|ROAD|1|]幸福公寓楼2单元8楼803室(西京医院南侧150米路东),8257,西安市碑林区,14,宾馆 客栈,酒店;公寓式酒店,1104,18392358886,12133410.71,4041200.41,108.9838058,34.2682134,
西京医院,西京医院-项目部,553b175b352ef3b8a9f72992,5615938999518807127,,西安市新城区长乐西路127号第四军医大学西京医院骨科B1,[陕西省(610000)|PROV|0|][西安市(610100)|CITY|1|][新城区(610102)|AREA|1|][长乐西路()|ROAD|1|127号$]第四军医大学西京医院骨科B1,8258,西安市新城区,1030100,生活服务,生活服务;其他,1301,,12133362.14,4041966.17,108.9833782,34.2739172,
西京医院,西京动物医院,d6ee8724b54ec19da8f0cdc4,17686515380345896959,,东县门36号附4号,[陕西省(610000)|PROV|0|][西安市(610100)|CITY|0|][碑林区(610103)|AREA|0|][下马陵()|ROAD|0|]东县门36号附4号,8257,西安市碑林区,150,宠物 生活服务 宠物医院,生活服务;宠物服务,1315,(029)87528221,12130296.08,4039310.12,108.956016,34.253887,
西京医院,IU酒店(西京医院通化门地铁站店),294ce5639339d16e9de3210e,2573884566056058092,,西安市新城区长乐西路41号长乐大厦15楼,[陕西省(610000)|PROV|0|][西安市(610100)|CITY|1|][新城区(610102)|AREA|1|][长乐西路()|ROAD|1|41号$][长乐大厦(11802108171066962804)|POI_PARENT|1|15楼$],8258,西安市新城区,0,宾馆,酒店;快捷酒店,1103,(029)81018777,12133997.27,4041611.57,108.9890272,34.2713536,
西京医院,西京医院-书吧,ff49f7be849c9b052efaa713,10982433053447134933,,长乐西路127号西京医院内,[陕西省(610000)|PROV|0|][西安市(610100)|CITY|0|][新城区(610102)|AREA|0|][西京大道()|ROAD|0|]长乐西路127号西京医院内,8258,西安市新城区,395,购物,购物;商铺,1207,,12133243.24,4042046.75,108.9823206,34.2745029,
西京医院,西京医院-爱心早餐,6e54fefa554dd65e9222e09f,15439723645519492,,陕西省西安市新城区长乐西路127号西京医院内,[陕西省(610000)|PROV|1|][西安市(610100)|CITY|1|][新城区(610102)|AREA|1|][西京大道()|ROAD|0|]长乐西路127号西京医院内,8258,西安市新城区,0,快餐 美食 早餐 餐馆 小吃,美食;小吃快餐店,1004,,12133252.86,4042075.54,108.9824064,34.2747188,
西京医院,西安雁塔西京门诊部(恒瑞佳园东北),e054e8ea1b7ef0281894c6e7,9540817515430644495,['西安雁塔西京门诊部'],陕西省西安市雁塔区朱雀大街长安西路福林胜景恒瑞佳园,[陕西省(610000)|PROV|1|][西安市(610100)|CITY|1|][雁塔区(610113)|AREA|1|]朱雀大街[长安西路()|ROAD|1|]福林胜景恒瑞佳园,8256,西安市雁塔区,0,门诊部 医疗,医疗;其他,2001,,12128158.38,4030880.24,108.9368466,34.1911916,
西京医院,西京医院家属院-51号楼,35807df13dcdd5b004fef535,17125248996786804182,,陕西省西安市新城区北四合窑建秦苑小区南,[陕西省(610000)|PROV|1|][西安市(610100)|CITY|1|][新城区(610102)|AREA|1|]北四合窑建秦苑小区南,8258,西安市新城区,238,房地产 住宅区 内部楼号,房地产;内部楼栋,2405,,12133290.98,4042348.58,108.9827469,34.2767593,
西京医院,OYO秦时明月快捷酒店(西安西京医院兴庆路店),8cba4bb08f51129dad045773,1259723094851846143,,陕西省西安市碑林区兴庆路69号(兴庆宫附近加油站斜对面),[陕西省(610000)|PROV|1|][西安市(610100)|CITY|1|][碑林区(610103)|AREA|1|][兴庆路()|ROAD|1|69号$](兴庆宫附近加油站斜对面),8257,西安市碑林区,14,宾馆 快捷酒店,酒店;快捷酒店,1103,(029)83215191,12133408.96,4039922.03,108.9837817,34.2586796,108.9836343 34.2589258;108.9839012 34.258925;108.9839769 34.2589258;108.9839799 34.2587808;108.9838982 34.2587831;108.9839032 34.2584062;108.9836403 34.258403;108.9836343 34.2589258
西京医院,西京医院-理容中心,e36ab5d1aa9901291d580018,11123149326281431397,,陕西省西安市新城区长乐西路127号西京医院内,[陕西省(610000)|PROV|1|][西安市(610100)|CITY|1|][新城区(610102)|AREA|1|]长乐西路127号西京医院内,8258,西安市新城区,141,丽人 美容 美发,丽人;美容,1402,,12133236.52,4042048.36,108.9822608,34.2745141,
西京医院,西安阳光酒店(西京医院店),23bcededa108e67f7bf7960a,1942222410621065058,,陕西省西安市新城区长乐西路安仁坊小区8号楼4层405室(第四军医大学斜对面),[陕西省(610000)|PROV|1|][西安市(610100)|CITY|1|][新城区(610102)|AREA|1|][长乐西路()|ROAD|1|][安仁坊小区(10588341555901491866)|POI_PARENT|1|8号楼4层405室$](第四军医大学斜对面),8258,西安市新城区,0,宾馆 客栈,酒店;其他,1101,18628618260,12132405.86,4041537.45,108.9748637,34.2706065,
西京医院,二棵树宾馆(西京医院店),806fb9eb6c3859a2d6b74ea1,868106482478117213,['二棵树宾馆'],陕西省西安市碑林区兴庆北路80号,[陕西省(610000)|PROV|1|][西安市(610100)|CITY|1|][碑林区(610103)|AREA|1|][兴庆路()|ROAD|0|]兴庆北路80号,8257,西安市碑林区,14,宾馆,酒店;其他,1101,(029)83255889,12133326.35,4041180.72,108.9830551,34.2680559,
西京医院,西京医院-医学配镜中心,ff7467d93d26ee430782c2c0,18119511540941840613,,西安市新城区长乐西路127号第四军医大学西京医院门诊部B1,[陕西省(610000)|PROV|0|][西安市(610100)|CITY|1|][新城区(610102)|AREA|1|][长乐西路()|ROAD|1|127号$]第四军医大学西京医院门诊部B1,8258,西安市新城区,5100300,购物 眼镜,购物;商铺,1207,,12133363.72,4041629.66,108.9833904,34.2714082,
西京医院,西京医院-发热门诊,0bbb3d9e728b5ff2f32d8322,14879242269764743290,,长乐西路127号,[陕西省(610000)|PROV|0|][西安市(610100)|CITY|0|][新城区(610102)|AREA|0|][长乐西路()|ROAD|1|127号$],8258,西安市新城区,201,门诊部 医疗,医疗;其他,2001,,12133448.24,4041758.5,108.9841431,34.2723797,
唐都医院,空军军医大学唐都医院,92b5cb74c0962c451f3894a8,713035225996057524,['第四军医大学第二附属医院'],西安市灞桥区新寺路1号,[陕西省(610000)|PROV|0|][西安市(610100)|CITY|1|][灞桥区(610111)|AREA|1|]新寺路1号,8247,西安市灞桥区,486,医疗 医院,医疗;综合医院,2002,(029)84777777;(029)84777590,12141646.67,4043527.37,109.0575682,34.2851875,109.0593839 34.2869661;109.0594279 34.2866556;109.0594507 34.2853068;109.0589421 34.285262;109.0589369 34.2846243;109.0588065 34.2839358;109.0587215 34.2839266;109.0587353 34.2831177;109.0562376 34.283268;109.0563421 34.284251;109.056256 34.2843904;109.0561944 34.2869175;109.0593839 34.2869661
唐都医院,唐都医院,f7ea6f54e9bfabaae9f8533a,7727501234788429400,,42路;401路;508路;927路,,8247,西安市灞桥区,524,,,,,12141704.39,4043210.93,109.0580868,34.2828209,
唐都医院,唐都医院-门诊部,daeb4fb5fe0d47b7a4c75662,5240002539150965875,,新医路1号唐都医院内,[陕西省(610000)|PROV|0|][西安市(610100)|CITY|0|][灞桥区(610111)|AREA|0|][新医路()|ROAD|1|1号$]唐都医院内,8247,西安市灞桥区,201,门诊部 医疗,医疗;其他,2001,(029)84777777,12141649.56,4043528.44,109.0575942,34.2851951,
唐都医院,唐都医院-停车场,427a40c1728742211676432d,2361446653937594126,,新医路1号唐都医院内,[陕西省(610000)|PROV|0|][西安市(610100)|CITY|0|][灞桥区(610111)|AREA|0|][新医路()|ROAD|1|1号$]唐都医院内,8247,西安市灞桥区,217,停车场 交通设施,交通设施;停车场,2208,,12141618.77,4043264.31,109.0573167,34.2832305,
唐都医院,第四军医大学唐都医院-住院一部,3307048c571f54e000ec016e,8002841568439356967,,陕西省西安市灞桥区新寺路1号,[陕西省(610000)|PROV|1|][西安市(610100)|CITY|1|][灞桥区(610111)|AREA|1|][新寺路()|ROAD|1|1号$],8247,西安市灞桥区,201,医疗 医院,医疗;其他,2001,(029)84777114,12141650.9,4043334.52,109.0576059,34.2837494,
唐都医院,唐都医院-南门,e1fede6629a2ad4b7069d3fe,5160187570566113952,,陕西省西安市灞桥区新寺路1号,[陕西省(610000)|PROV|1|][西安市(610100)|CITY|1|][灞桥区(610111)|AREA|1|][新寺路()|ROAD|1|1号$],8247,西安市灞桥区,0,出入口 门,出入口;门,2708,,12141696.36,4043261.41,109.0580147,34.2831983,
唐都医院,唐都医院-住院部,593d3580d1ece797b1077d28,16543117194996339035,,新寺路569号附近,[陕西省(610000)|PROV|0|][西安市(610100)|CITY|0|][灞桥区(610111)|AREA|0|][新寺路()|ROAD|1|569号$]附近,8247,西安市灞桥区,201,医疗 下属科室机构,医疗;其他,2001,,12141744.0,4043515.6,109.0584437,34.2850866,
唐都医院,唐都医院-停车场,a3f4213906d68f1df22d83a8,12622994882807578578,,新寺路1号,[陕西省(610000)|PROV|0|][西安市(610100)|CITY|0|][灞桥区(610111)|AREA|0|][新寺路()|ROAD|1|1号$],8247,西安市灞桥区,0,停车场 交通设施,交通设施;停车场,2208,,12141919.48,4043533.16,109.0600221,34.285195,
唐都医院,唐都医院停车场-出入口,dc02b8b8b0fc91aac61b750c,18418617317879838018,,陕西省西安市灞桥区新寺路1号唐都医院内,[陕西省(610000)|PROV|1|][西安市(610100)|CITY|1|][灞桥区(610111)|AREA|1|][新寺路()|ROAD|1|1号$]唐都医院内,8247,西安市灞桥区,0,出入口,出入口;停车场出入口,2709,,12141686.38,4043267.96,109.0579249,34.2832484,
唐都医院,唐都医院-急诊,0a46dc0f944a532330621205,17660410337192574975,,陕西省西安市灞桥区新寺路1号,[陕西省(610000)|PROV|1|][西安市(610100)|CITY|1|][灞桥区(610111)|AREA|1|][新寺路()|ROAD|1|1号$],8247,西安市灞桥区,198,医疗,医疗;其他,2001,(029)84777753,12141624.4,4043447.7,109.0573677,34.2845967,
唐都医院,第四军医大学唐都医院-北门,345616f2645235ee1ef74d7d,13145623380550699248,,柳虹路南口,[陕西省(610000)|PROV|0|][西安市(610100)|CITY|0|][灞桥区(610111)|AREA|0|][柳虹路()|ROAD|1|南口$],8247,西安市灞桥区,489,出入口 门,出入口;门,2708,,12141658.95,4044005.09,109.0576791,34.2887465,
唐都医院,唐都医院-感染病院,fa8551bd8a3a4c44940319ce,1035185390994551497,,西安市灞桥区新寺路1号,[陕西省(610000)|PROV|0|][西安市(610100)|CITY|1|][灞桥区(610111)|AREA|1|][新寺路()|ROAD|1|1号$],8247,西安市灞桥区,489,医疗,医疗;其他,2001,,12141570.91,4043550.35,109.0568867,34.2853694,
唐都医院,唐都医院-幼儿园,860dac61a2bc76ff354aaec9,12273965541620141949,,灞桥街道新寺路1号,[陕西省(610000)|PROV|0|][西安市(610100)|CITY|0|][灞桥区(610111)|AREA|0|]灞桥街道新寺路1号,8247,西安市灞桥区,476,幼儿园 学校 教育,教育培训;幼儿园,1805,,12141591.92,4043771.31,109.057076,34.2870134,109.0567818 34.2870388;109.0569294 34.2870455;109.0569274 34.2870975;109.0573213 34.2871158;109.0573373 34.2869429;109.0567868 34.2869229;109.0567818 34.2870388
唐都医院,中国银行(西安唐都医院支行),74eb6b8a6eaa707fd42ce24a,3755862724481008694,['中国银行'],新寺路1号唐都医院内,[陕西省(610000)|PROV|0|][西安市(610100)|CITY|0|][灞桥区(610111)|AREA|0|]新寺路1号唐都医院内,8247,西安市灞桥区,564,金融 银行,金融;银行,2302,,12141762.19,4043785.72,109.0586077,34.2870976,
唐都医院,唐都医院-住院-二部,0f043c2699260a855a3ac8b1,3139036380128520034,,新医路1号唐都医院内,[陕西省(610000)|PROV|0|][西安市(610100)|CITY|0|][灞桥区(610111)|AREA|0|][新医路()|ROAD|1|1号$]唐都医院内,8247,西安市灞桥区,201,医疗 医院,医疗;其他,2001,,12141764.79,4043569.31,109.0586308,34.2854842,
唐都医院,唐都医院-南1门,705419d695378fd0d7851f4d,5044234889027890081,,新寺路1号,[陕西省(610000)|PROV|0|][西安市(610100)|CITY|0|][灞桥区(610111)|AREA|0|][新寺路()|ROAD|1|1号$],8247,西安市灞桥区,0,出入口 门,出入口;门,2708,,12141789.59,4043299.08,109.0588534,34.2834667,
唐都医院,唐都医院-篮球场,afb07797cbcf5344901fc92f,3806164324680810501,,席王路,[陕西省(610000)|PROV|0|][西安市(610100)|CITY|0|][灞桥区(610111)|AREA|0|][席王路()|ROAD|1|],8247,西安市灞桥区,0,运动健身 体育场馆,运动健身;体育场馆,1702,,12141846.55,4043869.89,109.0593665,34.287714,
唐都医院,如家酒店(西安四医大唐都医院北门城东客运站店),89de4e90afd627550af5ebcb,10268984839802444357,,西安市灞桥区席王街卞家村1号,[陕西省(610000)|PROV|0|][西安市(610100)|CITY|1|][灞桥区(610111)|AREA|1|][柳虹路()|ROAD|0|]席王街卞家村1号,8247,西安市灞桥区,0,宾馆 快捷酒店 连锁酒店,酒店;快捷酒店,1103,(029)83350666,12141635.87,4044060.22,109.0574715,34.2891605,109.0574175 34.2893513;109.0575747 34.2893529;109.0575886 34.2890058;109.0573954 34.2890048;109.0574175 34.2893513
唐都医院,西安聚源宾馆(唐都医院店),7b13f64893a8f181b34c4940,3792446316943107175,,陕西省西安市灞桥区卞家村7号唐都医院后门,[陕西省(610000)|PROV|1|][西安市(610100)|CITY|1|][灞桥区(610111)|AREA|1|][席王路()|ROAD|0|]卞家村7号唐都医院后门,8247,西安市灞桥区,14,宾馆,酒店;其他,1101,(029)83619634,12142216.63,4044004.43,109.0626942,34.2886733,
唐都医院,唐都医院住院一部-东门,4f42686df25f4dddd618b79d,17222161589624475752,,陕西省西安市灞桥区新寺路1号,[陕西省(610000)|PROV|1|][西安市(610100)|CITY|1|][灞桥区(610111)|AREA|1|][新寺路()|ROAD|1|1号$],8247,西安市灞桥区,0,出入口 门,出入口;门,2708,,12141662.32,4043303.24,109.0577086,34.2835147,
唐都医院,唐都医院人行天桥,830ccab535f607d3cafa5fa0,11645242,,陕西省西安市灞桥区,,8247,西安市灞桥区,49,道路,,,,12141747.88,4042739.28,109.0584766,34.2792991,
唐都医院,灞桥区席王社区卫生服务中心,e85e2527fcef2f2e95f08cef,17671006725886443519,,陕西省西安市灞桥区席王路唐都医院后门向东50米,[陕西省(610000)|PROV|1|][西安市(610100)|CITY|1|][灞桥区(610111)|AREA|1|][席王路()|ROAD|1|]唐都医院后门向东50米,8247,西安市灞桥区,194,诊所 医疗,医疗;诊所,2004,,12141994.21,4044074.71,109.0606945,34.2892222,
唐都医院,泰隆酒店(西安唐都医院店),8435e856eff701db901fc95f,10961759763502908718,['泰隆酒店'],陕西省西安市灞桥区新寺路1号唐都医院东侧,[陕西省(610000)|PROV|1|][西安市(610100)|CITY|1|][灞桥区(610111)|AREA|1|][新寺路()|ROAD|1|1号$]唐都医院东侧,8247,西安市灞桥区,0,宾馆 客栈,酒店;其他,1101,(029)62908999,12141838.08,4043268.47,109.0592895,34.2832322,
唐都医院,尚客优连锁酒店(唐都医院店),cc48fcd57eb342ca5bbbbcc1,8294772910660905584,['尚客优连锁酒店（灞桥唐都店）'],陕西省西安市灞桥区电厂东路附8号,[陕西省(610000)|PROV|1|][西安市(610100)|CITY|1|][灞桥区(610111)|AREA|1|][电厂东路()|ROAD|1|附8号$],8247,西安市灞桥区,0,宾馆 快捷酒店 连锁酒店,酒店;快捷酒店,1103,(029)89517055,12141025.05,4043017.48,109.0519733,34.2814803,
唐都医院,陕南宾馆(唐都医院),71b409fe7ec957de7ec876c1,8959668995269876444,['陕南宾馆'],陕西省西安市灞桥区新医路105号,[陕西省(610000)|PROV|1|][西安市(610100)|CITY|1|][灞桥区(610111)|AREA|1|][新医路()|ROAD|1|105号$],8247,西安市灞桥区,115,宾馆,酒店;其他,1101,13152476610,12141691.89,4043068.51,109.057974,34.2817609,
唐都医院,西安澄悦宾馆(唐都医院),1bb3b041b733dce59868b4f8,17204321795962613996,['西安澄悦宾馆'],陕西省西安市灞桥区新寺路唐都医院门前,[陕西省(610000)|PROV|1|][西安市(610100)|CITY|1|][灞桥区(610111)|AREA|1|][新寺路()|ROAD|1|]唐都医院门前,8247,西安市灞桥区,14,宾馆,酒店;其他,1101,(029)83472921,12141579.76,4043236.3,109.0569657,34.2830272,
唐都医院,第四军医大学唐都医院,cbae3e8a5b5f433ed22dd6a6,16582798718835004359,,陕西省西安市灞桥区新医路29号附近,[陕西省(610000)|PROV|1|][西安市(610100)|CITY|1|][灞桥区(610111)|AREA|1|][新医路()|ROAD|1|29号$]附近,8247,西安市灞桥区,0,医疗 医院,医疗;其他,2001,,12141662.59,4042748.86,109.0577094,34.279382,
唐都医院,中国工商银行附行式自助银行(营业部军大二院支行唐都医院),dd05856e460a70933de23150,17913643616597060815,,唐都医院,[陕西省(610000)|PROV|0|][西安市(610100)|CITY|0|][灞桥区(610111)|AREA|0|][新医路()|ROAD|0|]唐都医院,8247,西安市灞桥区,16,金融 工商银行atm 工行 工行atm 中国工商银行 中国工商银行atm,金融;atm,2303,,12141678.62,4043461.52,109.0578555,34.2846923,
唐都医院,西安康泰宾馆(唐都医院店),8aa2b64a41468dc959bbbc8c,8530107133682974774,['西安康泰宾馆'],陕西省西安市灞桥区唐都医院南门新医路中段(鸿运家常菜馆向西20米处),[陕西省(610000)|PROV|1|][西安市(610100)|CITY|1|][灞桥区(610111)|AREA|1|][新医路()|ROAD|0|]唐都医院南门新医路中段(鸿运家常菜馆向西20米处),8247,西安市灞桥区,14,宾馆 客栈,酒店;其他,1101,(029)83343638,12141648.78,4043085.74,109.0575862,34.2818952,
唐都医院,唐都脑科医院,878a8d6ed8931ea39ee3219b,6342718183698954818,,新寺路1号,[陕西省(610000)|PROV|0|][西安市(610100)|CITY|0|][灞桥区(610111)|AREA|0|][新寺路()|ROAD|1|1号$],8247,西安市灞桥区,1,骨科医院 专科医院 医疗 医院,医疗;其他,2001,,12141784.8,4043382.28,109.0588105,34.2840875,109.0588443 34.2845073;109.0599054 34.2845064;109.0599154 34.2844974;109.0599015 34.2840846;109.0598785 34.2840757;109.0598157 34.2840668;109.0587715 34.2840586;109.0587755 34.2844654;109.0587924 34.2844934;109.0588443 34.2845073
唐都医院,唐都医院-19号楼,4a50fac7e423e33fd23ce3c0,14554818213422188531,['唐都医院19号楼'],西安市灞桥区席王路与柳虹路交叉口南200米,[陕西省(610000)|PROV|0|][西安市(610100)|CITY|1|][灞桥区(610111)|AREA|1|][柳虹路()|ROAD|0|]席王路与柳虹路交叉口南200米,8247,西安市灞桥区,0,房地产 住宅区 内部楼号,房地产;内部楼栋,2405,,12141634.69,4043852.48,109.0574608,34.2876124,
唐都医院,唐都医院20号住宅楼,6772cfa07546cdef16764386,6789260211639232299,,新寺路1号,[陕西省(610000)|PROV|0|][西安市(610100)|CITY|0|][灞桥区(610111)|AREA|0|][柳虹路()|ROAD|0|]新寺路1号,8247,西安市灞桥区,0,房地产 住宅区,房地产;住宅区,2403,,12141659.74,4043899.42,109.0576862,34.2879588,
唐都医院,红星宾馆(唐都医院),d8205f3ccb41deed931fc930,10254036959059366002,,陕西省西安市灞桥区新寺路99号唐都医院北门斜对面,[陕西省(610000)|PROV|1|][西安市(610100)|CITY|1|][灞桥区(610111)|AREA|1|][新寺路()|ROAD|1|99号$]唐都医院北门斜对面,8247,西安市灞桥区,0,宾馆,酒店;其他,1101,13892146455,12141535.48,4043247.26,109.0565673,34.2831152,
唐都医院,住院三部,8c98faebb41be544d12dd675,919767852703196544,,唐都医院内,[陕西省(610000)|PROV|0|][西安市(610100)|CITY|0|][灞桥区(610111)|AREA|0|]唐都医院内,8247,西安市灞桥区,0,医疗 医院,医疗;其他,2001,,12141667.48,4043659.74,109.0577556,34.2861713,
唐都医院,唐都医院-病案室,91c80782d4fbcb6001294f05,10224021117750030458,,陕西省西安市灞桥区新寺路1号,[陕西省(610000)|PROV|1|][西安市(610100)|CITY|1|][灞桥区(610111)|AREA|1|][新寺路()|ROAD|1|1号$],8247,西安市灞桥区,201,医疗,医疗;其他,2001,,12141693.93,4043610.17,109.0579935,34.2857982,
唐都医院,芙润足浴,fcd830e99eebb1b7a2a93417,508426091788295960,['芙润阁'],唐都医院正对面6楼,[陕西省(610000)|PROV|0|][西安市(610100)|CITY|0|][灞桥区(610111)|AREA|0|][新寺路()|ROAD|0|]唐都医院正对面6楼,8247,西安市灞桥区,16,足浴 洗浴 休闲娱乐,休闲娱乐;洗浴按摩,1610,(029)83593088,12141744.72,4043226.3,109.0584496,34.28293,
唐都医院,IU酒店(西安纺织城地铁站唐都医院店),6142e6dd37c8e3f00682c28b,12568017919959422587,,西安市灞桥区柳鸣路中泰广场1楼,[陕西省(610000)|PROV|0|][西安市(610100)|CITY|1|][灞桥区(610111)|AREA|1|][柳鸣路()|ROAD|1|][中泰广场(4326387820047068634)|POI_PARENT|1|1楼$],8247,西安市灞桥区,0,宾馆 客栈,酒店;快捷酒店,1103,(029)83595777,12142491.7,4043014.12,109.0651647,34.2812647,
唐都医院,魏家凉皮(唐都医院店),5d3a2af71a435296a11de968,11609787360184751751,,新寺路1号,[陕西省(610000)|PROV|0|][西安市(610100)|CITY|0|][灞桥区(610111)|AREA|0|][新寺路()|ROAD|1|1号$],8247,西安市灞桥区,13,快餐 美食 凉皮 餐馆 小吃,美食;小吃快餐店,1004,(029)89588214,12141711.9,4043214.86,109.0581544,34.2828492,
唐都医院,骏怡连锁酒店(唐都医院店),c5c70dfc6039ff8817c8f679,3297118266006868271,,陕西省西安市灞桥区新医路113号,[陕西省(610000)|PROV|1|][西安市(610100)|CITY|1|][灞桥区(610111)|AREA|1|][新医路()|ROAD|1|113号$],8247,西安市灞桥区,0,宾馆 连锁酒店,酒店;快捷酒店,1103,(029)83334398,12141640.0,4043052.0,109.0575071,34.2816449,
唐都医院,天天城市宾馆(唐都医院店),7be26ef599d4022feee4a56a,16182273436360352283,,陕西省西安市灞桥区电厂东路7号,[陕西省(610000)|PROV|1|][西安市(610100)|CITY|1|][灞桥区(610111)|AREA|1|][电厂东路()|ROAD|1|7号$],8247,西安市灞桥区,0,宾馆 星级酒店 客栈,酒店;其他,1101,(029)62520688,12140967.05,4043014.85,109.0514512,34.2814701,109.0514744 34.2816732;109.0516367 34.2816073;109.0515374 34.2814481;109.0513842 34.2815069;109.0514744 34.2816732
唐都医院,灏阳商务酒店(唐都医院店),1b2c0a6560e3545cc17da240,3339695675014563874,['灏阳商务酒店'],陕西省西安市灞桥区新寺路唐都医院南门向西20米,[陕西省(610000)|PROV|1|][西安市(610100)|CITY|1|][灞桥区(610111)|AREA|1|][新寺路()|ROAD|1|]唐都医院南门向西20米,8247,西安市灞桥区,0,招待所 宾馆,酒店;其他,1101,(029)83618066,12141620.17,4043213.03,109.0573292,34.2828481,109.0573865 34.2830284;109.0573766 34.2826616;109.0572709 34.2826698;109.0572838 34.2830316;109.0573865 34.2830284
唐都医院,OYO柳虹酒店(唐都医院柳虹路店),28c66a17b9c580a76fc02c68,10914148520484607115,,陕西省西安市灞桥区柳虹路灞桥第二幼儿园对面,[陕西省(610000)|PROV|1|][西安市(610100)|CITY|1|][灞桥区(610111)|AREA|1|][柳虹路()|ROAD|1|]灞桥第二幼儿园对面,8247,西安市灞桥区,0,宾馆 客栈,酒店;其他,1101,(029)83565657,12141740.51,4044494.92,109.0584126,34.292386,
唐都医院,西安盛和宾馆(唐都医院城东客运站店),d1a00cf3716a4d04a2acc493,12356661179880151689,['西安盛和宾馆'],陕西省西安市灞桥区城东客运站柳虹路席王新村61号(川陕人家向东20米),[陕西省(610000)|PROV|1|][西安市(610100)|CITY|1|][灞桥区(610111)|AREA|1|][纺渭路()|ROAD|0|]城东客运站柳虹路席王新村61号(川陕人家向东20米),8247,西安市灞桥区,14,宾馆 客栈,酒店;其他,1101,(029)89511452,12142666.59,4043615.22,109.0667372,34.2857309,
唐都医院,唐都医院停车场-出口,ba8ea3aa0f2ee7abb14c4957,1050182382687386022,,新寺路1号唐都医院内,[陕西省(610000)|PROV|0|][西安市(610100)|CITY|0|][灞桥区(610111)|AREA|0|][新寺路()|ROAD|1|1号$]唐都医院内,8247,西安市灞桥区,0,出入口,出入口;停车场出入口,2709,,12141686.38,4043269.03,109.0579249,34.2832564,
唐都医院,西安浪漫水汇酒店(纺织城店),ecbc23940c655c96a6da39ab,5224052994791939366,['西安浪漫水汇酒店纺织城店'],陕西省西安市灞桥区纺织城纺东街113号(近邻唐都医院),[陕西省(610000)|PROV|1|][西安市(610100)|CITY|1|][灞桥区(610111)|AREA|1|][纺五路()|ROAD|0|]纺织城纺东街113号(近邻唐都医院),8247,西安市灞桥区,14,休闲娱乐,休闲娱乐;洗浴按摩,1610,(029)82118888,12142400.0,4040400.0,109.0643265,34.2617814,
唐都医院,竹签烤肉(唐都医院分店),a3236e9e768c0a33e607380a,9586283956104642664,['竹签烤肉'],陕西省西安市灞桥区纺织城纺建路东辰濠景附近(一印社区西),[陕西省(610000)|PROV|1|][西安市(610100)|CITY|1|][灞桥区(610111)|AREA|1|]纺织城[纺建路()|ROAD|1|]东辰濠景附近(一印社区西),8247,西安市灞桥区,297,美食 烧烤 中餐馆 川菜 餐馆,美食;其他,1001,18382336695,12141190.25,4042284.6,109.0534573,34.2759903,
唐都医院,唐都医院-门口以南路东停车场,4b84fbe269f7ab3a8936ee46,10176053944138252139,,新医路51号附近,[陕西省(610000)|PROV|0|][西安市(610100)|CITY|0|][灞桥区(610111)|AREA|0|][新医路()|ROAD|1|51号$]附近,8247,西安市灞桥区,0,停车场 交通设施,交通设施;停车场,2208,,12141692.0,4043029.4,109.0579749,34.2814693,
唐都医院,唐都医院-核医学科,c041ed8a182bcc5d744ff1db,778589228706283461,,西安市灞桥区新寺路1号,[陕西省(610000)|PROV|0|][西安市(610100)|CITY|1|][灞桥区(610111)|AREA|1|][新寺路()|ROAD|1|1号$],8247,西安市灞桥区,201,医疗,医疗;其他,2001,,12141590.97,4043550.82,109.0570672,34.28537,
唐都医院,西安漫希酒店(唐都医院城东客运站店),a1c3db34897ecd1bad045794,10606628585167881938,,陕西省西安市灞桥区长乐东路999号华阳玲珑苑3号楼1单元(地铁一号线纺织城地铁站D口东侧),[陕西省(610000)|PROV|1|][西安市(610100)|CITY|1|][灞桥区(610111)|AREA|1|][长乐东路()|ROAD|1|999号$]华阳玲珑苑3号楼1单元(地铁一号线纺织城地铁站D口东侧),8247,西安市灞桥区,0,宾馆 客栈,酒店;快捷酒店,1103,,12142618.72,4043114.3,109.0663061,34.2820008,
唐都医院,河间正宗驴肉火烧(唐都医院店),92c4850204ebc7e15cbe86bf,17583178651558079506,['河间正宗驴肉火烧（唐都医院店）'],西安市灞桥区席王村1号,[陕西省(610000)|PROV|0|][西安市(610100)|CITY|1|][灞桥区(610111)|AREA|1|][新寺路()|ROAD|0|]席王村1号,8247,西安市灞桥区,13,美食 中餐馆 餐馆,美食;小吃快餐店,1004,,12141952.97,4043182.71,109.0603225,34.2825786,
东方米兰,东方米兰(新中关购物中心店),644b3e9d210a18ddab175a20,11393362148453634394,['东方米兰'; '东方米兰(新中关购物中心)'; '东方米兰(新中关购物中心店)'],北京市海淀区北京市海淀区中关村大街19号新中关购物中心F4,[北京市(110000)|CITY|1|][海淀区(110108)|AREA|1|][中关村大街()|ROAD|1|19号$][新中关购物中心(1266491069957144575)|POI_PARENT|1|F4$],1960,北京市海淀区,6060100,购物,购物;商铺,1207,(010)56257987,12949071.38,4835960.88,116.3095692,39.9772154,
东方米兰,尚驰米兰情调系列,060a6e2f7db9a31c26e0a0be,11337343145085045960,,北京市南三环东方家园,[北京市(110000)|CITY|1|][丰台区(110106)|AREA|0|]南三环东方家园,2305,北京市丰台区,0,购物,购物,1200,,12952156.67,4816644.87,116.3371679,39.8437983,
西安交大,西安交通大学,d67ad39faf3a5d6929201a71,2419033015855752544,['交通大学'],陕西省西安市碑林区咸宁西路28号,[陕西省(610000)|PROV|1|][西安市(610100)|CITY|1|][碑林区(610103)|AREA|1|][文治路()|ROAD|0|]咸宁西路28号,8257,西安市碑林区,975,学校 教育 大学,教育培训;高等院校,1802,(029)83228400,12132861.77,4038466.26,108.9789034,34.2477539,108.9746903 34.2430668;108.9747404 34.2524857;108.9768549 34.2524859;108.9831451 34.252415;108.9831131 34.2478462;108.9831627 34.2434943;108.9831356 34.243392;108.982825 34.2432602;108.982476 34.2431148;108.9822135 34.2430362;108.981671 34.2429556;108.9747412 34.242921;108.9746903 34.2430668
西安交大,西安交通大学(曲江校区),1de2ab509879aa1ac6effb98,218253866175847752,['西安交通大学'],西安市雁塔区雁翔路99号,[陕西省(610000)|PROV|0|][西安市(610100)|CITY|1|][雁塔区(610113)|AREA|1|][雁翔路()|ROAD|1|99号$],8256,西安市雁塔区,467,学校 教育 大学,教育培训;高等院校,1802,(029)83399201,12134821.78,4035364.02,108.9963427,34.2248526,108.9945748 34.2274502;108.9977048 34.2288573;108.997442 34.2293882;108.9978783 34.2295718;108.9987647 34.2297558;108.9988311 34.2294246;109.0007018 34.229793;109.0019059 34.2276099;109.0003067 34.2269147;109.0014037 34.2250479;109.0029049 34.2257682;109.0032306 34.2253977;109.0005568 34.2241382;109.001382 34.2226909;108.9966614 34.2208027;108.9950036 34.2234502;108.993641 34.2257494;108.9951857 34.226405;108.9945748 34.2274502
西安交大,西安交大,ce0c0026d50a13ba465726f4,116384434480922209,,碑林区,[陕西省(610000)|PROV|0|][西安市(610100)|CITY|0|][碑林区(610103)|AREA|1|][文治路()|ROAD|0|],8257,西安市碑林区,0,商圈 行政区划,行政地标;商圈,2906,,12133268.0,4038410.2,108.9825184,34.2473859,108.9745291 34.2522213;108.9745569 34.2523626;108.9746514 34.2524943;108.9747975 34.2525855;108.9749846 34.2526235;108.983364 34.2526487;108.9916255 34.2525604;108.9918345 34.2524296;108.9919234 34.252216;108.9919552 34.2469418;108.9919275 34.246799;108.9917619 34.2466133;108.9915482 34.2465404;108.9889899 34.2465883;108.9887817 34.2465645;108.9885957 34.2464925;108.9883874 34.2463173;108.9882778 34.2460636;108.9882665 34.2434038;108.9882184 34.2432412;108.9881036 34.2431166;108.9796614 34.2395452;108.9794505 34.239499;108.9792698 34.2395264;108.9791523 34.2395845;108.9790375 34.2397023;108.9786275 34.2404568;108.9784471 34.2412017;108.9784867 34.2422778;108.9784165 34.2424536;108.9782554 34.2426215;108.9780765 34.2427131;108.9778647 34.2427551;108.9749335 34.2427688;108.9746886 34.2428703;108.9745694 34.2430337;108.9745287 34.2435322;108.9745291 34.2522213
西安交大,西安交大(雁塔校区),4edf9fbf3f91c697cc06a47f,17848772952661688319,,西安市雁塔区雁塔西路76号,[陕西省(610000)|PROV|0|][西安市(610100)|CITY|1|][雁塔区(610113)|AREA|1|][雁塔西路()|ROAD|1|76号$],8256,西安市雁塔区,468,学校 教育 大学,教育培训;高等院校,1802,(029)82655011,12128069.88,4034567.52,108.9360231,34.2187071,108.9301136 34.2180108;108.930219 34.2162204;108.935551 34.2162491;108.9410848 34.2161967;108.9410013 34.2196278;108.9366198 34.2196031;108.9349812 34.2196365;108.9347659 34.2195171;108.9346127 34.2192848;108.9346406 34.217942;108.9301136 34.2180108
西安交大,西安交通大学(兴庆校区)-教学二区,92ffcc24f0c2f85326e0a028,6961191780064950620,['西安交通大学(兴庆校区)-教学二区'; '西安交通大学兴庆校区教学二区'],兴庆南路5号,[陕西省(610000)|PROV|0|][西安市(610100)|CITY|0|][碑林区(610103)|AREA|0|][二环南路东段()|ROAD|0|]兴庆南路5号,8257,西安市碑林区,468,学校 教育 大学,教育培训;其他,1801,,12133572.15,4037865.69,108.9852223,34.2433633,108.9834732 34.2431646;108.9834731 34.2443521;108.9871565 34.2443785;108.9871506 34.2430051;108.9843207 34.2418257;108.9835927 34.2428733;108.9834732 34.2431646
西安交大,西安交通大学医学院第一附属医院,be1ea5efe36988a614948e56,1263138431370788863,,西安市雁塔区雁塔西路277号,[陕西省(610000)|PROV|0|][西安市(610100)|CITY|1|][雁塔区(610113)|AREA|1|][雁塔西路()|ROAD|1|277号$],8256,西安市雁塔区,486,医疗 医院,医疗;综合医院,2002,,12127640.52,4034915.01,108.932155,34.2213634,108.9327313 34.2223341;108.9334566 34.2223201;108.9343256 34.2223199;108.9343367 34.2203197;108.9342968 34.2202347;108.9341222 34.22007;108.9339097 34.2199854;108.9336763 34.2199887;108.9319134 34.219983;108.9303908 34.2199769;108.9299248 34.2199754;108.9299296 34.2223406;108.9302769 34.2223422;108.9323492 34.2224116;108.9327333 34.2224181;108.9327313 34.2223341
西安交大,西安交大第二附属医院,02a15a0ea6e4ae802cb17e12,4459783870492683358,['西北医院'],西安市新城区西五路157号,[陕西省(610000)|PROV|0|][西安市(610100)|CITY|1|][新城区(610102)|AREA|1|][西五路()|ROAD|1|157号$],8258,西安市新城区,0,三级医院 医疗 三甲医院 医院,医疗;综合医院,2002,(029)87678421,12129215.6,4041792.33,108.9463456,34.2724547,108.9480485 34.273143;108.9480595 34.2719574;108.9481772 34.2719252;108.9481682 34.2716743;108.9454632 34.2716698;108.9446665 34.2716673;108.9446725 34.2721551;108.9446874 34.2728208;108.9454292 34.2728204;108.9454412 34.2731312;108.9458599 34.2731294;108.9473147 34.2731525;108.9480485 34.273143
西安交大,西安交大-继续教育学院,b84dc63017ad43ec157643aa,6613167525582215412,['交大-继续教育学院'; '西安交通大学(雁塔校区)-继续教育学院'; '西安交通大学继续教育学院'],西安市雁塔区翠华路137号,[陕西省(610000)|PROV|0|][西安市(610100)|CITY|1|][雁塔区(610113)|AREA|1|][翠华路()|ROAD|1|137号$],8256,西安市雁塔区,468,学校 教育 学院,教育培训;成人教育,1806,(029)82657024,12129994.15,4034502.59,108.9533075,34.2180383,108.9519482 34.2191405;108.9542642 34.2191157;108.9542693 34.2189448;108.954682 34.2189275;108.9546705 34.2169777;108.9519607 34.2170146;108.9519482 34.2191405
西安交大,西安市儿童医院,a86009b1e0f6ea0707026fde,2841006169223183138,['陕西省儿童医疗中心'; '西安交通大学附属儿童医院'],西安市莲湖区西举院巷69号,[陕西省(610000)|PROV|0|][西安市(610100)|CITY|1|][莲湖区(610104)|AREA|1|][西举院巷()|ROAD|1|69号$],8255,西安市莲湖区,0,专科医院 医疗 儿童医院 医院,医疗;专科医院,2003,(029)87311818,12126540.0,4040622.95,108.9222519,34.2641129,108.9230651 34.2655474;108.9230601 34.2644025;108.9234475 34.2643916;108.9234614 34.2642764;108.9240023 34.2642556;108.9239696 34.2636113;108.9234106 34.2636213;108.923401 34.2628756;108.9226714 34.2628766;108.9226711 34.2625896;108.9210523 34.2626112;108.9210771 34.2655635;108.9230651 34.2655474
西安交大,西安交通大学-南门,39d43f82b29ff786a8059d54,17998542881794555903,['西安交通大学(南门)'; '西安交通大学兴庆校区(南门)'],陕西省西安市碑林区咸宁西路28号,[陕西省(610000)|PROV|1|][西安市(610100)|CITY|1|][碑林区(610103)|AREA|1|][友谊东路()|ROAD|0|]咸宁西路28号,8257,西安市碑林区,468,出入口 门,出入口;门,2708,,12132848.44,4037836.84,108.9787821,34.2430577,
西安交大,西安市第四医院,e2c734e40cce524415a19036,1260781087030771711,['四医院'; '西安第四医院'; '西安交通大学附属广仁医院'; '西安市四院'; '西安四院'],陕西省西安市新城区解放路21号,[陕西省(610000)|PROV|1|][西安市(610100)|CITY|1|][新城区(610102)|AREA|1|][解放路()|ROAD|1|21号$],8258,西安市新城区,0,医疗 医院,医疗;综合医院,2002,(029)87420006,12130675.93,4040439.66,108.9594218,34.2623103,108.9586371 34.2622506;108.9586506 34.2617467;108.9596739 34.2617447;108.9596968 34.2617748;108.9602243 34.2617457;108.9602333 34.2618467;108.9599875 34.2618912;108.9600059 34.2623682;108.9600373 34.2629652;108.9599925 34.2630171;108.9599119 34.263024;108.9591384 34.262956;108.9590627 34.2629189;108.9589728 34.2624749;108.9589009 34.2622659;108.9586371 34.2622506
西安交大,西安交通大学城市学院,2a443b7d1620d50077026964,6057651909160336644,['城市学院'; '交大城市'; '交大城市学院'; '西安城市学院'; '西安大学城市学院'; '西安交大城市学院'; '西安交大城院'; '西安交通大城市学院'; '西安交通大学大城市学院'; '西安市城市交通学院'; '西交城市学院'; '西交大城市学院'],西安市未央区尚稷路8715号,[陕西省(610000)|PROV|0|][西安市(610100)|CITY|1|][未央区(610112)|AREA|1|]尚稷路8715号,8253,西安市未央区,468,学校 教育 大学 民办高校,教育培训;高等院校,1802,(029)86652000,12119018.98,4055032.31,108.8547424,34.3711994,108.8563033 34.37642;108.857657 34.3686321;108.8533242 34.368039;108.8531084 34.3689272;108.8529085 34.3698108;108.8528824 34.3699627;108.8527612 34.3706831;108.8521921 34.375231;108.8563033 34.37642
西安交大,西安交通大学-北门,65fcdfb1dd0358c8f7b9161e,10977356272574258252,['西安交通大学(北门)'; '西安交通大学兴庆校区(北门)'],陕西省西安市碑林区咸宁西路28号,[陕西省(610000)|PROV|1|][西安市(610100)|CITY|1|][碑林区(610103)|AREA|1|][咸宁西路()|ROAD|1|28号$],8257,西安市碑林区,468,出入口 门,出入口;门,2708,,12132872.7,4039073.76,108.9790041,34.2522862,
西安交大,西安交通大学科技创新港科创基地,f666b824b8ecc7fa8f55ecc4,7671266073018986301,['交大科创基地'],陕西省西安市长安区学森一路,[陕西省(610000)|PROV|1|][西安市(610100)|CITY|1|][长安区(610116)|AREA|1|][学森一路()|ROAD|1|],8248,西安市长安区,256,工业区 行政区划,公司企业;园区,2503,,12096446.23,4039893.04,108.6519164,34.2588967,
西安交大,交大三村,6e2ae9a177916f980b1cc7ca,14068238525858896535,['西安交大三村'; '西安交通大学三村'],金花南路交大三村,[陕西省(610000)|PROV|0|][西安市(610100)|CITY|0|][碑林区(610103)|AREA|0|][金花南路()|ROAD|1|]交大三村,8257,西安市碑林区,238,房地产 住宅区 小区,房地产;住宅区,2403,,12134134.05,4038472.87,108.9902245,34.2479625,108.9915762 34.2487879;108.9915783 34.2479742;108.9915754 34.2467457;108.9914788 34.246675;108.9908485 34.2466659;108.988395 34.2466711;108.9883014 34.2467393;108.9883242 34.2477378;108.9891159 34.2477285;108.9892234 34.2477812;108.9892243 34.2484739;108.9883083 34.2484836;108.9883241 34.2494721;108.9883789 34.249501;108.9884944 34.2495166;108.9892322 34.2495095;108.9894264 34.2495339;108.9896544 34.2495352;108.9905496 34.2495426;108.9911022 34.249544;108.9911022 34.249601;108.9915911 34.2496045;108.9915762 34.2487879
西安交大,西安交大医学院附属市九院,3fdce332eeac656feb12e43a,5851062891918172218,['西安交大医学院附属市九院'],西安市碑林区南二环路东段151号,[陕西省(610000)|PROV|0|][西安市(610100)|CITY|1|][碑林区(610103)|AREA|1|][二环南路东段()|ROAD|0|]南二环路东段151号,8257,西安市碑林区,489,三级医院 医疗 三甲医院 医院,医疗;综合医院,2002,(029)82322257;(029)82322548,12132198.1,4037111.81,108.9729889,34.2375784,108.972389 34.2384096;108.9744557 34.2384179;108.9743712 34.2375812;108.9721128 34.2366462;108.9719165 34.237058;108.971863 34.2371804;108.9720009 34.2372608;108.9718412 34.237643;108.972126 34.23781;108.9721618 34.2379483;108.9722729 34.2380655;108.9721926 34.2383816;108.972389 34.2384096
西安交大,西安交通大学-东南门,083a55faf5472979246e9854,17998542894679457791,['交通大学东南门'; '西安交大东南门'; '西安交通大学(兴庆校区)-东南门'; '西安交通大学兴庆校区(东南门)'; '西安交通大学兴庆校区-东南门'],咸宁西路28号西安交通大学,[陕西省(610000)|PROV|0|][西安市(610100)|CITY|0|][碑林区(610103)|AREA|0|][兴庆路()|ROAD|0|]咸宁西路28号[西安交通大学(2419033015855752544)|POI_PARENT|1|],8257,西安市碑林区,468,出入口 门,出入口;门,2708,,12133332.45,4038344.38,108.9830916,34.2469032,
西安交大,西安交大医学部,077d72fa2ab1da24d7851fbe,3617303485605249750,['西安交大-医学部'],雁塔西路76号,[陕西省(610000)|PROV|0|][西安市(610100)|CITY|0|][雁塔区(610113)|AREA|0|][雁塔西路()|ROAD|1|76号$],8256,西安市雁塔区,0,学校 教育 大学,教育培训;高等院校,1802,(029)82655011,12128091.03,4034590.97,108.9362134,34.2188789,
西安交大,西安交通大学-医学院,ec419195f64cdfa136b06c99,3538912549290658786,['交通大学医学院'],雁塔西路76,[陕西省(610000)|PROV|0|][西安市(610100)|CITY|0|][雁塔区(610113)|AREA|0|][雁塔西路()|ROAD|1|76$],8256,西安市雁塔区,192,学校 教育 学院,教育培训;高等院校,1802,(029)82655011,12128129.89,4034587.89,108.9365632,34.2188504,108.9359599 34.218885;108.9359652 34.2185561;108.9370944 34.2185532;108.9370991 34.2188929;108.9359599 34.218885
西安交大,西安交大医院,84cca2de8e040dd1c51e5176,9826001587225815602,,西安市雁塔区雁塔西路277号,[陕西省(610000)|PROV|0|][西安市(610100)|CITY|1|][雁塔区(610113)|AREA|1|][雁塔西路()|ROAD|1|277号$],8256,西安市雁塔区,0,医疗 医院,医疗;其他,2001,(029)85323888,12129860.0,4034499.15,108.9521054,34.2180181,108.9519794 34.2178304;108.9519694 34.2182053;108.9522285 34.2182088;108.9522445 34.2178299;108.9519794 34.2178304
西安交大,西安交通大学附属中学,1cea15a97466afc407fef56e,17969223923203571711,['交大附中高中'; '交通大学附属中学'; '西安交大附属中学'; '西安交大附中'; '西安交通大学附中'; '西交大附中'; '西交附中'],西安市雁塔区雁翔路99号,[陕西省(610000)|PROV|0|][西安市(610100)|CITY|1|][雁塔区(610113)|AREA|1|][延兴门西路()|ROAD|0|]雁翔路99号,8256,西安市雁塔区,471,中学 学校 教育,教育培训;中学,1803,(029)82295802,12135114.26,4035523.3,108.9989472,34.2260682,108.9973124 34.227411;108.9989841 34.2281676;109.0011003 34.2248894;108.9994196 34.2241488;108.9973124 34.227411
西安交大,西安交通大学南洋大酒店,504d6113caf107aa46572676,1263666635038785535,['交大南洋大酒店'; '南洋大酒店'; '西安交大南洋大酒店'; '西安交通大学(学术交流中心)南洋大酒店'; '西安交通大学学术交流中心南洋大酒店'],陕西省西安市碑林区兴庆南路1号(友谊东路与兴庆南路十字东北角),[陕西省(610000)|PROV|1|][西安市(610100)|CITY|1|][碑林区(610103)|AREA|1|]兴庆南路1号([友谊东路()|ROAD|1|]与兴庆南路十字东北角),8257,西安市碑林区,782,宾馆,酒店;其他,1101,(029)87665566,12133489.31,4037814.06,108.984485,34.2429677,108.9834818 34.2432832;108.9838325 34.2433063;108.9846021 34.2432873;108.9848646 34.2432801;108.9850607 34.2432609;108.9853803 34.2427956;108.9853802 34.2426576;108.9852475 34.2425807;108.9844551 34.2425843;108.9843085 34.2426532;108.984166 34.2428641;108.9837391 34.242765;108.9836233 34.2429423;108.9834769 34.2432042;108.9834818 34.2432832
西安交大,西安交通大学口腔医院,6b69fba523b4e0bf2efaa7ac,1342153011878018625,['西安交通大学医学院附属口腔医院'],西安市新城区西五路98号,[陕西省(610000)|PROV|0|][西安市(610100)|CITY|1|][新城区(610102)|AREA|1|]西五路98号,8258,西安市新城区,486,口腔医院 专科医院 医疗 医院,医疗;专科医院,2003,(029)87275706,12128965.79,4041564.23,108.9441006,34.2707776,108.9434938 34.2712787;108.944356 34.2712687;108.944414 34.2712681;108.9446031 34.2712699;108.9445987 34.270867;108.9453196 34.2708503;108.945351 34.270178;108.9446271 34.2701748;108.944632 34.2699368;108.9442319 34.2699443;108.9442253 34.2703603;108.943488 34.2703508;108.9434792 34.2705519;108.9434612 34.2705451;108.9434435 34.2708883;108.9433805 34.270918;108.9433988 34.2712758;108.9434938 34.2712787
西安交大,交通大学电脑城(兴庆路),89fd4ea32bd4155ee4e96596,1260113339875327999,['交大电脑城'; '交通大学电脑城'; '西安交通大学电脑城(兴庆路)'],兴庆路159号交大东门,[陕西省(610000)|PROV|0|][西安市(610100)|CITY|0|][碑林区(610103)|AREA|0|][兴庆路()|ROAD|1|159号$]交大东门,8257,西安市碑林区,1,购物 数码 电脑,购物;家电数码,1206,,12133315.08,4038891.0,108.9829399,34.2509779,
西安交大,西安交通大学(财经校区)-经济与金融学院,3fb0aca2abf894818d7727c4,10202624233167412385,['西安交大经济与金融学院'; '西安交通大学经济与金融学院'],陕西省西安市雁塔区雁塔西路74号,[陕西省(610000)|PROV|1|][西安市(610100)|CITY|1|][雁塔区(610113)|AREA|1|][雁塔西路()|ROAD|1|74号$],8256,西安市雁塔区,192,学校 教育 学院,教育培训;其他,1801,(029)82656949,12128481.75,4034591.79,108.9397292,34.2188319,
西安交大,西安交大阳光中学,c879fa0158859e4ac909f032,17998430916292116479,['西安阳光中学'; '阳光中学'],西影路5号,[陕西省(610000)|PROV|0|][西安市(610100)|CITY|0|][雁塔区(610113)|AREA|0|][西影路()|ROAD|1|5号$],8256,西安市雁塔区,471,中学 学校 教育,教育培训;中学,1803,(029)82625360,12135653.38,4037527.3,109.0037525,34.2410545,109.0025535 34.2413708;109.0025247 34.2413069;109.003156 34.2402233;109.0049891 34.2409844;109.0045024 34.2417603;109.0043438 34.2418481;109.0033501 34.2413933;109.0025535 34.2413708
西安交大,西安交通大学第二附属医院(大明宫院区),6dd562a136674bce373a71c7,8866569528878681770,['西安交通大学第二附属医院'],西安市未央区大明宫・圣远广场(建强路西),[陕西省(610000)|PROV|0|][西安市(610100)|CITY|1|][未央区(610112)|AREA|1|]大明宫・圣远广场([建强路()|ROAD|1|]西),8253,西安市未央区,0,医疗 医院,医疗;其他,2001,,12129659.54,4044908.84,108.9503353,34.2956526,
西安交大,西安市第八医院,923ffd00553b77aed92f2857,1263139951789211647,['陕西省传染病院'; '西安交通大学医学院附属西安市第八医院'],西安市雁塔区丈八东路2号,[陕西省(610000)|PROV|0|][西安市(610100)|CITY|1|][雁塔区(610113)|AREA|1|][丈八东路()|ROAD|1|2号$],8256,西安市雁塔区,1,医疗 医院,医疗;专科医院,2003,(029)85410050;(029)85331580,12128275.83,4031813.74,108.9378966,34.198139,108.9366186 34.1993988;108.9366396 34.1994478;108.9366805 34.1994807;108.9367493 34.1995006;108.9396149 34.199525;108.9396389 34.1979705;108.9387433 34.197968;108.9387613 34.1973862;108.9382137 34.1973811;108.9382157 34.1968992;108.9368432 34.1969084;108.9367555 34.1969175;108.9366807 34.1969526;108.9366298 34.1970197;108.9366186 34.1993988
西安交大,西安交通大学-一村,e56bf5e3c3f940440782c249,17998531186598608895,['交大一村'; '西安交大一村'; '西安交通大学一村'],碑林区咸宁路与兴庆路十字东南角,[陕西省(610000)|PROV|0|][西安市(610100)|CITY|0|][碑林区(610103)|AREA|1|]咸宁路与[兴庆路()|ROAD|1|]十字东南角,8257,西安市碑林区,238,房地产 住宅区 小区,房地产;住宅区,2403,,12133524.43,4038891.43,108.9848026,34.2510078,108.9835803 34.2514913;108.983606 34.2502528;108.9840864 34.2502567;108.9840955 34.2504948;108.9861507 34.2504982;108.9862001 34.2515169;108.9835803 34.2514913
西安交大,西安济仁医院,0a15c7ecd84b95e5ed74f858,1263145105749966847,['西安交大第二临床医学院附属济仁医院'],西安市邑区沣京大道1号,[陕西省(610000)|PROV|0|][西安市(610100)|CITY|1|][邑区(610118)|AREA|1|][丰京路()|ROAD|0|]沣京大道1号,1811,西安市邑区,489,医疗 医院,医疗;综合医院,2002,(029)84836666,12094254.55,4020031.78,108.6323325,34.1104935,108.632934 34.1102752;108.6329421 34.1097774;108.6321945 34.1097843;108.6320677 34.1098604;108.631941 34.1099406;108.6318332 34.1100847;108.631873 34.1115582;108.6333361 34.1115414;108.6333353 34.1102887;108.632934 34.1102752
西安交大,交大康桥宾馆,e2c734e403235f4414a1908d,1260107099287846911,['康桥宾馆'; '西安交大康桥宾馆'],陕西省西安市碑林区咸宁西路28号交大商业街(近理工大学),[陕西省(610000)|PROV|1|][西安市(610100)|CITY|1|][碑林区(610103)|AREA|1|][咸宁西路()|ROAD|1|28号$]交大商业街(近理工大学),8257,西安市碑林区,14,招待所 宾馆 客栈,酒店;其他,1101,(029)82666366,12133886.84,4038959.25,108.9880275,34.2515596,108.9878801 34.2518157;108.9878846 34.2512458;108.9881649 34.2512498;108.9881683 34.2518158;108.9878801 34.2518157
西安交大,西安市精神卫生中心,46cddfaa58294fdf441a3262,17598365556173231093,['陕西省精神卫生中心'; '西安交通大学医学部附属精神卫生中心'],西安市长安区航天大道东段与包茂高速交叉点东南角,[陕西省(610000)|PROV|0|][西安市(610100)|CITY|1|][长安区(610116)|AREA|1|]航天大道东段与包茂高速交叉点东南角,8248,西安市长安区,0,专科医院 医疗 医院 精神病医院,医疗;专科医院,2003,(029)63606310;(029)63609288,12135241.94,4028583.41,109.0001262,34.1743091,108.9975797 34.1752084;108.9988303 34.1751956;108.9989687 34.1753722;109.0023392 34.1753849;109.0027616 34.1732493;108.9975699 34.173203;108.9975797 34.1752084
西安交大,西安交大附小金辉分校曲江分部,45e2ca8d44d268df7069d3a6,13463435965014914564,['交大附属中学'; '交大附中'; '交大科技园区交大附中'; '西安交通附属中学'; '西安中学'],雁翔路99号西安交通大学曲江校区附近,[陕西省(610000)|PROV|0|][西安市(610100)|CITY|0|][雁塔区(610113)|AREA|0|]雁翔路99号西安交通大学曲江校区附近,8256,西安市雁塔区,0,学校 小学 教育,教育培训;小学,1804,,12135161.68,4035769.9,108.9993691,34.2279115,
西安交大,西安交通大学-幼儿园,fcf2cade09ba931b88b988b5,8858341186398716523,['交大幼儿园'; '西安交大幼儿园'],碑林区咸宁西路28号,[陕西省(610000)|PROV|0|][西安市(610100)|CITY|0|][碑林区(610103)|AREA|1|][咸宁西路()|ROAD|1|28号$],8257,西安市碑林区,476,幼儿园 学校 教育,教育培训;幼儿园,1805,(029)82665310;(029)82668470,12133717.92,4038897.77,108.9865242,34.2510797,108.9862822 34.251449;108.9862508 34.2504497;108.9860547 34.2504499;108.9860503 34.2500288;108.986081 34.2499993;108.9861127 34.2499958;108.9870378 34.250013;108.9870607 34.2514381;108.9862822 34.251449
西安交大,交大三村-东门,de88e3c599244177246e9889,301680202609151273,['交大三村(东2门)'; '交大三村东门'],西安市碑林区西安交通大学三村号,[陕西省(610000)|PROV|0|][西安市(610100)|CITY|1|][碑林区(610103)|AREA|1|][金花南路()|ROAD|0|]西安交通大学三村号,8257,西安市碑林区,238,正门 出入口 门,出入口;门,2708,,12134266.01,4038510.31,108.991399,34.2482576,
西安交大,西安交大-附小,083a55faf5722979246e986b,17998493416656207871,['交大附小'; '交通大学附属小学'; '西安交通大学附属小学'; '线交通大学附属小学'],西安市碑林区咸宁西路28号,[陕西省(610000)|PROV|0|][西安市(610100)|CITY|1|][碑林区(610103)|AREA|1|][咸宁西路()|ROAD|1|28号$],8257,西安市碑林区,188,学校 小学 教育,教育培训;小学,1804,(029)82668189,12134101.85,4038989.82,108.9899408,34.2518143,108.9905241 34.2521853;108.9905364 34.25138;108.9893576 34.2513974;108.9893582 34.2522063;108.9905241 34.2521853
西安交大,西安交通大学-西南门,77403f20eb096e38a3acc4fa,9177999887444113967,['交通大学西南门'; '西安交通大学(西门)'],陕西省西安市碑林区咸宁西路28号西安交通大学,[陕西省(610000)|PROV|1|][西安市(610100)|CITY|1|][碑林区(610103)|AREA|1|][兴庆西路()|ROAD|0|]咸宁西路28号[西安交通大学(2419033015855752544)|POI_PARENT|1|],8257,西安市碑林区,0,出入口 门,出入口;门,2708,,12132409.05,4038387.52,108.9748723,34.247115,
西安交大,交大南门,6b1d6886b297ad4b4c6d464d,50553007183352097,,33路;252路;313路;401路;612路;700路,,8257,西安市碑林区,524,,,,,12132855.12,4037793.2,108.9788414,34.242733,
西安交大,西安交大-停车场,504d17c9db114fcea3acc4f8,17689513116498818824,,学森路与樱花西道交叉口西50米,[陕西省(610000)|PROV|0|][西安市(610100)|CITY|0|][碑林区(610103)|AREA|0|]学森路与樱花西道交叉口西50米,8257,西安市碑林区,0,停车场 交通设施,交通设施;停车场,2208,,12132734.13,4038692.35,108.9777684,34.2494251,
西安交大,交大附中航天校区,a3fabf9cd0666f6152e5c52e,9553698771583427890,,陕西省西安市长安区航天南路180号,[陕西省(610000)|PROV|1|][西安市(610100)|CITY|1|][长安区(610116)|AREA|1|]航天南路180号,8248,西安市长安区,0,中学 学校 教育,教育培训;中学,1803,(029)89689922,12131744.6,4024626.65,108.9689752,34.1443774,108.9659396 34.1437888;108.9684413 34.1470043;108.9720765 34.1448426;108.9694084 34.1418065;108.9659396 34.1437888
西安交大,西安交大出版传媒大厦,1e23bc582b61f5f8eaf85347,11308389338383329201,['交大出版传媒大厦'; '西安交大出版传媒大厦'],陕西省西安市碑林区西安交通大学兴庆校区教学二区,[陕西省(610000)|PROV|1|][西安市(610100)|CITY|1|][碑林区(610103)|AREA|1|][二环南路东段()|ROAD|0|]西安交通大学兴庆校区教学二区,8257,西安市碑林区,0,房地产 写字楼,房地产;写字楼,2402,,12133727.37,4037830.97,108.9866032,34.2431241,
西安交大,西安交通大学,70605cddb8e4e330f32d83f9,10075062855556410113,,陕西省西安市长安区学森一路,[陕西省(610000)|PROV|1|][西安市(610100)|CITY|1|][长安区(610116)|AREA|1|][学森一路()|ROAD|1|],8248,西安市长安区,0,学校 教育 大学,教育培训;高等院校,1802,,12097011.52,4040457.63,108.6569842,34.2631024,
西安交大,西安交通大学-西门,e0eaee4da73bb4b4c056ac32,11495000019272393759,['西安交通大学兴庆校区(西1门)'],陕西省西安市碑林区咸宁西路28号,[陕西省(610000)|PROV|1|][西安市(610100)|CITY|1|][碑林区(610103)|AREA|1|][兴庆西路()|ROAD|0|]咸宁西路28号,8257,西安市碑林区,0,出入口 门,出入口;门,2708,,12132391.58,4037867.94,108.9747145,34.2432379,
西安交大,西安交通大学国家大学科技园,7c5e480b9257e5c9adb22a14,17660426726787776511,['交通大学国家大学科技园'; '陕西交通大学国家大学科技园'; '西安交大科技园'; '西安交通大学国家大学科技园(雁翔路)'; '西安交通大学科技园'],西安市雁塔区雁翔路99号,[陕西省(610000)|PROV|0|][西安市(610100)|CITY|1|][雁塔区(610113)|AREA|1|][雁翔路()|ROAD|1|99号$],8256,西安市雁塔区,256,科技园 行政区划,公司企业;园区,2503,(029)83399995,12134477.28,4035732.51,108.9932747,34.227564,108.992385 34.2274186;108.9927894 34.226823;108.9943112 34.2274729;108.9936837 34.2285047;108.9930694 34.228266;108.9931141 34.2281396;108.9932924 34.2279;108.9932251 34.2277532;108.9926644 34.2275112;108.992385 34.2274186
西安交大,交大曲江新村,8cd071cbcfe2ef5e6240a96d,3829725711837879412,['交大曲江新村小区'; '西安交通大学曲江新村'],陕西省西安市雁塔区雁翔路99号,[陕西省(610000)|PROV|1|][西安市(610100)|CITY|1|][雁塔区(610113)|AREA|1|]雁翔路99号,8256,西安市雁塔区,238,房地产 住宅区 小区,房地产;住宅区,2403,,12135262.87,4035926.71,109.0002704,34.2290894,
西安交大,交大科技园,877f4c14ab159b7b2cb96dde,9400919399030801842,['西安交通大学国家大学科技园(雁翔路)'],陕西省西安市雁塔区雁翔路,[陕西省(610000)|PROV|1|][西安市(610100)|CITY|1|][雁塔区(610113)|AREA|1|][雁翔路()|ROAD|1|],8256,西安市雁塔区,0,科技园 行政区划,公司企业;园区,2503,,12135067.4,4034721.35,108.9985328,34.2200829,
西安交大,西安交通大学医学院第一附属医院-东门,631c41576663d66231f71d7f,17848773541072207871,,雁塔西路277号,[陕西省(610000)|PROV|0|][西安市(610100)|CITY|0|][雁塔区(610113)|AREA|0|][雁塔西路()|ROAD|1|277号$],8256,西安市雁塔区,1,出入口 门,出入口;门,2708,,12127860.84,4034986.99,108.9341391,34.2218664,
西安交大,西安交通大学出版社,51a4ad715078fc3f6d20b96d,17497177332840369455,['西安交大出版社'; '西安交通大学音像出版社'],兴庆南路1号,[陕西省(610000)|PROV|0|][西安市(610100)|CITY|0|][碑林区(610103)|AREA|0|][兴庆路()|ROAD|0|]兴庆南路1号,8257,西安市碑林区,0,出版社 公司企业,文化传媒;新闻出版,1902,(029)82668316,12133324.3,4038308.23,108.9830189,34.2466325,
西安交大,西安交大附中分校,d69855071e3f824b79b55c9f,12466585538808045499,['交大附中'; '交大附中分校'; '西安交通大学附属中学'],碑林区兴庆南路135号,[陕西省(610000)|PROV|0|][西安市(610100)|CITY|0|][碑林区(610103)|AREA|1|][兴庆路()|ROAD|0|]兴庆南路135号,8257,西安市碑林区,471,中学 学校 教育,教育培训;中学,1803,(029)82668353,12133506.4,4038550.54,108.9846403,34.248463,108.9835336 34.2480015;108.9835365 34.2488841;108.9858487 34.2488775;108.9858488 34.2481667;108.9851248 34.2481689;108.9851249 34.2479989;108.9835336 34.2480015
西安交大,交大创业园,d219bb1d0aab7f8bf50e7751,17998540313404112895,['西安交大创业园'; '西安交通大学-创业园'],兴庆南路30号,[陕西省(610000)|PROV|0|][西安市(610100)|CITY|0|][碑林区(610103)|AREA|0|][兴庆路()|ROAD|0|]兴庆南路30号,8257,西安市碑林区,236,房地产 写字楼,公司企业;园区,2503,,12133322.22,4038709.08,108.9830024,34.249622,108.9829135 34.249973;108.9830918 34.2499755;108.9830952 34.2492707;108.982908 34.24928;108.9829135 34.249973
西工大,西北工业大学(友谊校区),c332966b1c0ad5c2d6b74eb2,17046146367555972126,['西北工业大学'; '西北工业大学(友谊校区)'],西安市碑林区友谊西路127号,[陕西省(610000)|PROV|0|][西安市(610100)|CITY|1|][碑林区(610103)|AREA|1|]友谊西路127号,8257,西安市碑林区,468,学校 教育 大学,教育培训;高等院校,1802,,12125261.53,4038201.31,108.9107144,34.2462324,108.905735 34.2476772;108.9061779 34.2476957;108.9063226 34.2482312;108.9066583 34.248269;108.9066533 34.248433;108.9071083 34.2484065;108.9079272 34.248405;108.9079592 34.2483336;108.9090208 34.2483738;108.9090373 34.2490165;108.9091565 34.249157;108.9092115 34.249223;108.9092245 34.2493579;108.9092092 34.2495994;108.9135286 34.2496068;108.9155069 34.2495582;108.9155333 34.248637;108.9155087 34.2461947;108.9155351 34.2451164;108.9155185 34.2439929;108.915525 34.24292;108.9117491 34.2428996;108.907028 34.2429732;108.9065961 34.2430625;108.9061719 34.2432582;108.9057642 34.2435492;108.9057609 34.2443681;108.9057192 34.2457867;108.9057399 34.2462858;108.9057658 34.2469549;108.905735 34.2476772
西工大,西北工业大学(长安校区),ac5e594a4e2716d31d580047,15008478874060025130,['西北工业大学(长安校区)'; '西北工业大学长安校区'; '西北工业大学校区'; '西工大长安校区'],西安市长安区东祥路1号,[陕西省(610000)|PROV|0|][西安市(610100)|CITY|1|][长安区(610116)|AREA|1|][长安大道()|ROAD|0|]东祥路1号,8248,西安市长安区,467,学校 教育 大学,教育培训;高等院校,1802,,12108543.04,4009926.56,108.7604412,34.0349395,108.7548054 34.0331037;108.7548184 34.0333536;108.7548184 34.0336036;108.7548034 34.0342494;108.7547883 34.0349712;108.7547953 34.0356671;108.7547912 34.0363599;108.7547922 34.0370187;108.7547911 34.0381715;108.754816 34.0386744;108.754809 34.0389983;108.754849 34.0390483;108.754917 34.0390853;108.760252 34.0390869;108.7629141 34.039081;108.7642472 34.0390926;108.7649323 34.0391009;108.7655804 34.0391053;108.764936 34.0289733;108.7646532 34.0258679;108.7639742 34.0252307;108.7633812 34.0245936;108.7623772 34.0232745;108.7612573 34.0216884;108.7604744 34.0203084;108.7547124 34.0203557;108.7547855 34.0321089;108.7548054 34.0331037
西工大,西工大西苑,5c56edd63daff35aa1d23056,17998541142332801023,['西北工业大学西苑'],劳动南路118号,[陕西省(610000)|PROV|0|][西安市(610100)|CITY|0|][莲湖区(610104)|AREA|0|][西市二路()|ROAD|0|]劳动南路118号,8255,西安市莲湖区,238,房地产 住宅区 小区,房地产;住宅区,2403,(029)89348070,12124104.53,4037815.0,108.9002998,34.2434422,108.9009212 34.244893;108.9009432 34.2449598;108.9009706 34.2456316;108.9009999 34.2460974;108.9012119 34.2461041;108.9022289 34.2461184;108.902729 34.2461394;108.9029563 34.2461189;108.9029941 34.2457127;108.9028889 34.2456535;108.9023762 34.2455937;108.9023894 34.2459476;108.9013101 34.2459318;108.9012551 34.2441195;108.9021812 34.2441062;108.9023614 34.2440161;108.9029501 34.2439934;108.902933 34.2437475;108.9026173 34.2432307;108.9021925 34.2426075;108.9013376 34.2429892;108.9002998 34.2434422;108.9003181 34.243889;108.9003186 34.2448808;108.9009212 34.244893
西工大,西工大-西门,9ba7f35e0b191dc638e4a6d5,15688597188988480138,['西北工业大学(友谊西路校区)-西门'; '西北工业大学国家大学科技园西门'; '西北工业大学友谊校区(西门)'],陕西省西安市碑林区友谊西路127号西北工业大学西门海天科苑楼,[陕西省(610000)|PROV|1|][西安市(610100)|CITY|1|][碑林区(610103)|AREA|1|][求实路()|ROAD|0|]友谊西路127号西北工业大学西门海天科苑楼,8257,西安市碑林区,0,出入口 门,出入口;门,2708,,12124717.35,4038202.73,108.9058143,34.2462967,
西工大,西北工业大学明德学院,fd34c861f7e13162fe0eb088,3579513711024561252,['明德学院'; '西北大学明德学院'; '西北工大明德学院'; '西北工业大学明德院'; '西北工业明德学院'; '西北明德学院'; '西工大明德'; '西工大明德学院'],陕西省西安市长安区S107(关中环线),[陕西省(610000)|PROV|1|][西安市(610100)|CITY|1|][长安区(610116)|AREA|1|]S107(关中环线),8248,西安市长安区,470,学校 教育 大学 民办高校,教育培训;高等院校,1802,(029)85603158,12110824.81,4011522.56,108.7809273,34.0469676,108.7772934 34.0509564;108.7807344 34.0517439;108.7814071 34.0496599;108.7816498 34.0495398;108.7827215 34.0473739;108.7831005 34.0465939;108.7837305 34.0466882;108.7838027 34.0464558;108.7842531 34.0462659;108.784578 34.0452539;108.7840371 34.0448245;108.7850907 34.0420726;108.780055 34.0437658;108.779416 34.0449126;108.7772934 34.0509564
西工大,西北工业大学-南门,d4034eb3b07e15f6c0364457,17998542705700896767,['西北工业大学(友谊西路校区)-南门'; '西北工业大学友谊校区(南门)'],友谊西路127号,[陕西省(610000)|PROV|0|][西安市(610100)|CITY|0|][碑林区(610103)|AREA|0|][友谊西路()|ROAD|1|127号$],8257,西安市碑林区,468,出入口 门,出入口;门,2708,,12125431.71,4037760.74,108.9122458,34.2429262,
西工大,西工大附中(西北工业大学附属中学),c9189bf4cdff9efeb320a849,11922064211173395979,['西北工业大学-附属中学'; '西北工业大学附属中学'; '西工大附中'],西安市碑林区友谊西路127,[陕西省(610000)|PROV|0|][西安市(610100)|CITY|1|][碑林区(610103)|AREA|1|][友谊西路()|ROAD|1|127$],8257,西安市碑林区,187,中学 学校 教育,教育培训;中学,1803,(029)88492401;(029)88494872,12125405.92,4037672.27,108.9120131,34.2422695,
西工大,西北工业大学-东门,25ec69fc1c0e1b00c26c14ce,17671041326142980095,['西北工业大学(东门)'; '西北工业大学(友谊西路校区)-东门'; '西北工业大学友谊校区(东门)'],西工大路3号西北工业大学,[陕西省(610000)|PROV|0|][西安市(610100)|CITY|0|][碑林区(610103)|AREA|0|][西工大路()|ROAD|1|3号$][西北工业大学(17046146367555972126)|POI_PARENT|1|],8257,西安市碑林区,468,出入口 门,出入口;门,2708,,12125778.37,4038215.6,108.9153715,34.2462733,
西工大,陕西省人民医院,62e29b0ee608e33522f01749,4818035142538550284,['陕西省临床医学研究院'; '西安医学院附属医院'; '西北工业大学附属医院'],西安市碑林区黄雁村友谊西路256号,[陕西省(610000)|PROV|0|][西安市(610100)|CITY|1|][碑林区(610103)|AREA|1|]黄雁村友谊西路256号,8257,西安市碑林区,20,医疗 医院,医疗;综合医院,2002,(029)85251331,12126902.02,4037575.46,108.9254982,34.2413252,108.9237102 34.2420673;108.9237196 34.242604;108.9273495 34.2426016;108.9273329 34.2400512;108.9237365 34.2400493;108.9237102 34.2420673
西工大,西北工业大学-东会议室,145fdbfbe6275ea94d2fdfdb,17548526842538648519,,陕西省西安市碑林区友谊西路西段-127号-付38号,[陕西省(610000)|PROV|1|][西安市(610100)|CITY|1|][碑林区(610103)|AREA|1|][友谊西路()|ROAD|1|]西段-127号-付38号,8257,西安市碑林区,0,旅游景点 展览馆,文化传媒;展览馆,1906,,12124886.89,4037817.01,108.9073389,34.243405,
西工大,西工大旺园学生公寓,3e9f815e9dd472dd9e95de49,14430302771394819051,['旺元学生公寓'; '旺园公寓楼'; '西北工业大学友谊校区旺园学生公寓'; '西工大旺园公寓'; '西工大旺园公寓(西市城东南)'; '西工大望园学生公寓'],张家村街道友谊西路127号,[陕西省(610000)|PROV|0|][西安市(610100)|CITY|0|][莲湖区(610104)|AREA|0|][西市南路()|ROAD|0|]张家村街道友谊西路127号,8255,西安市莲湖区,238,房地产 住宅区 小区 宿舍,房地产;宿舍,2404,,12124544.58,4038148.26,108.9042592,34.2459036,108.9053522 34.2461843;108.9053603 34.2456455;108.9035576 34.2456529;108.9031459 34.2456479;108.9031408 34.2461807;108.9036135 34.2461826;108.9053522 34.2461843
西工大,西北工业大学-航海学院,b69443d98e0db887cb213dcc,1961901561529930742,['航海学院'; '西北工业大学-航海学院'; '西北工业大学友谊校区航海学院'; '西工大航海学院'],友谊西路127号,[陕西省(610000)|PROV|0|][西安市(610100)|CITY|0|][碑林区(610103)|AREA|0|][友谊西路()|ROAD|1|127号$],8257,西安市碑林区,192,学校 教育 学院,教育培训;高等院校,1802,(029)88492611,12125252.75,4037648.23,108.9106332,34.2421082,
西工大,西北工业大学-西馆,8fe965242531b2d8b42655b0,5606256507811058625,['西北工业大学(友谊校区)西馆'; '西北工业大学友谊校区研究生西馆'; '西馆'],陕西西安友谊西路127号,[陕西省(610000)|PROV|1|][西安市(610100)|CITY|1|][碑林区(610103)|AREA|0|][友谊西路()|ROAD|1|127号$],8257,西安市碑林区,192,科研机构 教育,教育培训;其他,1801,,12124944.05,4037865.57,108.9078538,34.2437618,
西工大,西北工业大学-诚字楼,54692c458d0971b197ec8413,1617945990535434461,['诚字楼'; '西北工业大学诚字楼'; '西北工业大学友谊西路校区-诚字楼'],陕西西安友谊西路127号,[陕西省(610000)|PROV|1|][西安市(610100)|CITY|1|][碑林区(610103)|AREA|0|][友谊西路()|ROAD|1|127号$],8257,西安市碑林区,192,学校 教育 教学楼,教育培训;其他,1801,,12125075.77,4038070.91,108.9090407,34.2452801,
西工大,西北工业大学医院,37d60a468c43f5601e1d1154,17998543483089977343,['西工大医院'],西安市碑林区友谊西路127号,[陕西省(610000)|PROV|0|][西安市(610100)|CITY|1|][碑林区(610103)|AREA|1|][糜家桥()|ROAD|0|]友谊西路127号,8257,西安市碑林区,20,医疗 医院,医疗;综合医院,2002,(029)88493836;(029)88493920,12124903.14,4038457.1,108.907488,34.2481776,108.9070336 34.248357;108.9078919 34.2483947;108.9079678 34.2483677;108.9079808 34.2481628;108.9080108 34.2481178;108.9080218 34.2480628;108.9080058 34.2479989;108.9079868 34.2479679;108.9079199 34.2479559;108.9077021 34.247961;108.9076541 34.247948;108.9076381 34.247917;108.9072495 34.2479101;108.9072475 34.2480631;108.9071935 34.248123;108.9071186 34.248194;108.9070327 34.2482291;108.9070336 34.248357
西工大,西北工业大学-学舟楼,cf96807f0308364c6f47609e,513054049556730479,['西北工业大学学舟楼'; '西北工业大学友谊西路校区-学舟楼'; '学舟楼'],友谊西路127号,[陕西省(610000)|PROV|0|][西安市(610100)|CITY|0|][碑林区(610103)|AREA|0|]友谊西路127号,8257,西安市碑林区,192,学校 教育 教学楼,教育培训;其他,1801,,12125120.44,4038171.09,108.9094434,34.2460226,
西工大,西北工业大学-留学生公寓,fde58162f56b4b3109b93a89,11724668985936524221,['留学生公寓'; '西北工业大学(友谊西路校区)-留学生公寓'; '西北工业大学留学生公寓'],陕西省西安市碑林区友谊西路127号西北工业大学内,[陕西省(610000)|PROV|1|][西安市(610100)|CITY|1|][碑林区(610103)|AREA|1|][友谊西路()|ROAD|1|127号$]西北工业大学内,8257,西安市碑林区,0,房地产 住宅区 小区 宿舍,房地产;宿舍,2404,,12125625.39,4038044.98,108.913992,34.2450214,
西工大,西北工业大学创新科技大楼,38b5357619f3be3173210b8c,7878172035360996759,['西北工业大学-创新科技大楼'],陕西省西安市碑林区劳动南路17-3号,[陕西省(610000)|PROV|1|][西安市(610100)|CITY|1|][碑林区(610103)|AREA|1|][劳动南路()|ROAD|1|17-3号$],8257,西安市碑林区,0,房地产 写字楼,房地产;写字楼,2402,,12124763.56,4038055.05,108.9062296,34.2451914,
西工大,西北工业大学-毅字楼,d17ae99dd965dd19bd484211,14060167280430749596,['西北工业大学友谊西路校区-毅字楼'; '西北工业大学友谊校区毅字楼'; '毅字楼'],陕西西安友谊西路127号,[陕西省(610000)|PROV|1|][西安市(610100)|CITY|1|][碑林区(610103)|AREA|0|][友谊西路()|ROAD|1|127号$],8257,西安市碑林区,192,学校 教育 教学楼,教育培训;其他,1801,,12125303.28,4037873.49,108.9110891,34.2437825,
西工大,西北工业大学医院,2206b63161af4df5b11e36da,10603161289658253097,['西工大医院'],东祥路1号西北工业大学学沣河校区(东一门)附近,[陕西省(610000)|PROV|0|][西安市(610100)|CITY|0|][长安区(610116)|AREA|0|][东大路()|ROAD|0|]东祥路1号西北工业大学学沣河校区(东一门)附近,8248,西安市长安区,489,综合医院 医疗 医院,医疗;综合医院,2002,,12109177.41,4010096.69,108.7661234,34.0362713,108.7656286 34.0365839;108.7669329 34.0365326;108.766875 34.0355528;108.76685 34.0355358;108.7655317 34.0355771;108.7655247 34.0355911;108.7655906 34.0365749;108.7656286 34.0365839
西工大,西北工业大学-爱生楼,59ebcaca100af7939de3216a,5232749411742653340,['爱生楼'; '西北工业大学(友谊校区)爱生楼'],陕西省西安市碑林区友谊西路127号西北工业大学内,[陕西省(610000)|PROV|1|][西安市(610100)|CITY|1|][碑林区(610103)|AREA|1|][友谊西路()|ROAD|1|127号$]西北工业大学内,8257,西安市碑林区,192,活动中心 教育,教育培训;其他,1801,,12125534.7,4037996.64,108.9131746,34.2446727,
西工大,西北工业大学-健翔楼,cd7e3a208c842e03c8213d32,10929264403085752717,['西北工业大学(友谊校区)-健翔楼'; '西北工业大学友谊西路校区-健翔楼'],陕西西安友谊西路127号,[陕西省(610000)|PROV|1|][西安市(610100)|CITY|1|][碑林区(610103)|AREA|0|]友谊西路127号,8257,西安市碑林区,192,学校 教育 教学楼,教育培训;其他,1801,,12125297.08,4038428.45,108.9110357,34.2479225,
西工大,西北工业大学-档案馆,5b25f446e0c5d697102935c2,17671027998859460607,,友谊西路350号卡塞尔国际少儿艺术中心附近,[陕西省(610000)|PROV|0|][西安市(610100)|CITY|0|][碑林区(610103)|AREA|0|][友谊西路()|ROAD|1|350号$]卡塞尔国际少儿艺术中心附近,8257,西安市碑林区,629,政府机构 机关单位 档案馆,政府机构;行政单位,2604,(029)88493280,12125191.25,4037936.02,108.9100802,34.2442616,
西工大,西北工业大学-图书馆,49d95938bf73443dc61e5116,17628900185071419391,['西北工业大学图书馆'; '西北工业大学(友谊校区)图书馆'],陕西省西安市碑林区友谊西路127号西北工业大学,[陕西省(610000)|PROV|1|][西安市(610100)|CITY|1|][碑林区(610103)|AREA|1|][友谊西路()|ROAD|1|127号$][西北工业大学(17046146367555972126)|POI_PARENT|1|],8257,西安市碑林区,169,教育 图书馆,教育培训;图书馆,1812,(029)88492361,12125351.54,4037981.35,108.9115243,34.2445813,
西工大,西北工业大学附属小学(龙湖分校),a2dfa7509d0360de9cec2ba9,2564497040113150741,['西北工业大学附属小学龙湖分校'],西安市灞桥区沁水路与高楼路交汇处南200米,[陕西省(610000)|PROV|0|][西安市(610100)|CITY|1|][灞桥区(610111)|AREA|1|][沁水路()|ROAD|1|]与高楼路交汇处南200米,8247,西安市灞桥区,0,学校 小学 教育,教育培训;小学,1804,(029)82465890,12138805.04,4040276.13,109.0319836,34.2614084,109.0315424 34.2622559;109.0325755 34.2620353;109.0328436 34.2608031;109.0310932 34.2607597;109.0315424 34.2622559
西工大,西北工业大学-航空楼,fee32811ef1becdbaeb22a2a,16360781901887128189,['航空楼'; '西北工业大学航空楼'; '西北工业大学友谊西路校区-航空楼'; '西北工业大学友谊校区航空楼'],陕西西安友谊西路127号,[陕西省(610000)|PROV|1|][西安市(610100)|CITY|1|][碑林区(610103)|AREA|0|][友谊西路()|ROAD|1|127号$],8257,西安市碑林区,192,学校 教育 教学楼,教育培训;其他,1801,,12125310.01,4038135.31,108.9111508,34.2457345,
西工大,西北工业大学-管理学院,f27856d27e16f46007fef570,11352151869011815697,,西安市碑林区友谊西路127号西北工业大学友谊校区,[陕西省(610000)|PROV|0|][西安市(610100)|CITY|1|][碑林区(610103)|AREA|1|][友谊西路()|ROAD|1|127号$]西北工业大学友谊校区,8257,西安市碑林区,192,学校 教育 学院,教育培训;其他,1801,,12125234.97,4038112.61,108.9104747,34.2455739,
西工大,西北工业大学-党政办公楼,cc36e7549ba568524f6d461d,500053055970146950,['西北工业大学党政办公楼'],友谊西路127附近,[陕西省(610000)|PROV|0|][西安市(610100)|CITY|0|][碑林区(610103)|AREA|0|][友谊西路()|ROAD|1|127$]附近,8257,西安市碑林区,192,房地产 职能机构 学校 教育 写字楼,教育培训;其他,1801,,12125165.69,4037790.36,108.9098495,34.243178,
西工大,西北工业大学长安校区-东一门,6cc015abcff6520702ec015e,1591235876550019448,['西北工业大学(长安校区)-东门'; '西北工业大学长安校区(东1门)'; '西北工业大学长安校区(东一门)'; '西北工业大学长安校区教学东楼B座'; '西北工业大学长安校区理学院'; '西北工业大学长安校区力学与土木建筑学院'; '西北工业大学长安校区实验大楼'; '西北工业大学长安校区自动化学院'],东祥路1号,[陕西省(610000)|PROV|0|][西安市(610100)|CITY|0|][长安区(610116)|AREA|0|][东大路()|ROAD|0|]东祥路1号,8248,西安市长安区,474,出入口 门,出入口;门,2708,,12109064.99,4009985.77,108.7651154,34.0354329,
西工大,西北工业大学-书海楼,a4fa93cd10c354573586f417,8023882073799429707,['书海楼'; '西北工业大学友谊西路校区-书海楼'],陕西西安友谊西路127号,[陕西省(610000)|PROV|1|][西安市(610100)|CITY|1|][碑林区(610103)|AREA|0|]友谊西路127号,8257,西安市碑林区,192,出版社 公司企业,教育培训;其他,1801,,12124989.01,4038160.42,108.9082598,34.2459566,
西工大,西北工业大学长安校区,10c6d750dfa92dc3f5c59cc7,11998658546998781492,,333路,,8248,西安市长安区,524,,,,,12108508.22,4010512.88,108.7601323,34.0393203,
西工大,西北工业大学-体育馆,189713b7721f2472a10464dd,3670499687227787911,,友谊西路127号西北工业大学内,[陕西省(610000)|PROV|0|][西安市(610100)|CITY|0|][碑林区(610103)|AREA|0|]友谊西路127号西北工业大学内,8257,西安市碑林区,460,运动健身 体育场馆,运动健身;体育场馆,1702,,12125532.44,4038243.92,108.9131553,34.2465173,
西工大,西北工业大学-翱翔训练馆,cdef4edf79f5114e28d7ab5a,17998545037868138495,,陕西省西安市碑林区友谊西路127号西北工业大学内,[陕西省(610000)|PROV|1|][西安市(610100)|CITY|1|][碑林区(610103)|AREA|1|]友谊西路127号西北工业大学内,8257,西安市碑林区,460,运动健身 体育场馆,运动健身;体育场馆,1702,,12125532.23,4038231.32,108.9131534,34.2464234,
西工大,西北工业大学-机电学院,8a688f42d554b87fb9df8f1d,11706439684750604496,,西北工业大学航空楼B座1/2～8/11/12层,[陕西省(610000)|PROV|0|][西安市(610100)|CITY|0|][碑林区(610103)|AREA|0|]西北工业大学航空楼B座1/2～8/11/12层,8257,西安市碑林区,192,学校 教育 学院,教育培训;其他,1801,,12125384.96,4038127.76,108.911826,34.2456693,
西工大,西北工业大学-塑胶田径场,18193a40f463a05897ec845f,7873211019763884177,['西北工业大学田径场'],友谊西路127号西北工业大学内,[陕西省(610000)|PROV|0|][西安市(610100)|CITY|0|][碑林区(610103)|AREA|0|][西建新村()|ROAD|0|]友谊西路127号西北工业大学内,8257,西安市碑林区,460,洗浴 休闲娱乐,运动健身;体育场馆,1702,,12125585.87,4038442.35,108.9136377,34.2479904,
西工大,西北工业大学-停车场,fe140f214366285d63180935,11154685296707690811,['西北工业大学停车场'; '停车场'],西安市碑林区友谊西路127号,[陕西省(610000)|PROV|0|][西安市(610100)|CITY|1|][碑林区(610103)|AREA|1|][友谊西路()|ROAD|1|127号$],8257,西安市碑林区,0,停车场 交通设施,交通设施;停车场,2208,,12125246.53,4037802.92,108.9105777,34.2432627,
西工大,西北工业大学医院-西1门,463ec8d65123c505f82d61d4,17973645592527951777,,东大路与银河路交叉口东北100米,[陕西省(610000)|PROV|0|][西安市(610100)|CITY|0|][长安区(610116)|AREA|0|][东大路()|ROAD|1|]与银河路交叉口东北100米,8248,西安市长安区,0,出入口 门,出入口;门,2708,,12109153.27,4010035.01,108.7659067,34.0358082,
西工大,西北工业大学-外国语学院,4d346d4be62e933adbd89115,5929877648696618886,,陕西省西安市长安区东大街道办东祥路1号西北工业大学长安校区教学东楼A座,[陕西省(610000)|PROV|1|][西安市(610100)|CITY|1|][长安区(610116)|AREA|1|]东大街道办东祥路1号西北工业大学长安校区教学东楼A座,8248,西安市长安区,0,学校 教育 大学,教育培训;其他,1801,(029)88430908,12108696.86,4009804.58,108.7618174,34.0340437,
西工大,西北工业大学-航海东楼,8b349c5dfbe6eed0fbf0cb97,14251906735001617736,['西北工业大学-航海东楼'; '西北工业大学航海东楼'],友谊西路127号西北工业大学航海学院航海,[陕西省(610000)|PROV|0|][西安市(610100)|CITY|0|][碑林区(610103)|AREA|0|][友谊西路()|ROAD|1|127号$]西北工业大学航海学院航海,8257,西安市碑林区,0,学校 教育 大学,教育培训;其他,1801,,12125355.11,4037685.37,108.9115554,34.2423733,
西工大,西北工业大学-游泳池,de70f14eee0399b2f7e73b19,14004454908147109270,,陕西省西安市碑林区友谊西路127号西北工业大学内,[陕西省(610000)|PROV|1|][西安市(610100)|CITY|1|][碑林区(610103)|AREA|1|][建新巷()|ROAD|0|]友谊西路127号西北工业大学内,8257,西安市碑林区,460,游泳馆 运动健身 体育场馆,运动健身;体育场馆,1702,,12125551.03,4038479.58,108.913324,34.2482726,
西工大,西北工业大学-理发室,beabdbf4d5300de57069d3c2,17671027887190310911,['理发室'; '西北工业大学理发室'],陕西省西安市碑林区友谊西路127号西北工业大学内,[陕西省(610000)|PROV|1|][西安市(610100)|CITY|1|][碑林区(610103)|AREA|1|][友谊西路()|ROAD|1|127号$]西北工业大学内,8257,西安市碑林区,141,丽人 美容 美发,丽人;美发,1403,,12125653.22,4038099.48,108.9142431,34.2454242,
西工大,东大村,4bb049d948f1af47990050db,17998406314719444991,['大东'],陕西省西安市长安区中共东大村支部委员会(西北工业大学北),[陕西省(610000)|PROV|1|][西安市(610100)|CITY|1|][长安区(610116)|AREA|1|][巡航北路()|ROAD|0|]中共东大村支部委员会(西北工业大学北),8248,西安市长安区,651,村庄 行政区划,行政地标;村庄,2908,,12108775.84,4010572.39,108.762528,34.0397936,
西工大,西北工业大学-航空学院,e3b8cd287b9f464ce115f9a3,17253317037419375579,,陕西省西安市碑林区西北工业大学航空楼A座4-9层C座1-5层,[陕西省(610000)|PROV|1|][西安市(610100)|CITY|1|][碑林区(610103)|AREA|1|]西北工业大学航空楼A座4-9层C座1-5层,8257,西安市碑林区,192,学校 教育 学院,教育培训;高等院校,1802,,12125314.03,4038069.84,108.9111868,34.2452458,
西工大,西北工业大学医院-南门,2a301d5b500d9688eb12e402,3775854928199568431,,陕西省西安市碑林区友谊西路226号附近,[陕西省(610000)|PROV|1|][西安市(610100)|CITY|1|][碑林区(610103)|AREA|1|]友谊西路226号附近,8257,西安市碑林区,0,出入口 门,出入口;门,2708,,12124924.49,4038431.81,108.9076801,34.247987,
西工大,西北工业大学-音像电子出版社,4eb3b533ee07c27543024557,17998542709995864063,['西北工业大学出版社'; '音像电子出版社'],友谊西路127号西北工业大学友谊校区,[陕西省(610000)|PROV|0|][西安市(610100)|CITY|0|][碑林区(610103)|AREA|0|]友谊西路127号西北工业大学友谊校区,8257,西安市碑林区,244,出版社 公司企业,文化传媒;新闻出版,1902,(029)88492314,12124989.01,4038160.42,108.9082598,34.2459566,
西工大,西北工业大学-西村0号楼,e30e5b9ced00740a04026f9a,3746909145990681961,['西北工业大学(友谊西路校区)-西村0号楼'; '西北工业大学西村0号楼'; '西北工业大学友谊西路校区-西0'],陕西西安友谊西路127号,[陕西省(610000)|PROV|1|][西安市(610100)|CITY|1|][碑林区(610103)|AREA|0|]友谊西路127号,8257,西安市碑林区,0,教育,教育培训;其他,1801,,12125020.74,4038348.0,108.9085464,34.2473525,
西工大,西北工业大学-综合服务楼,83a27225b673388221026224,7388204787941206319,['西北工业大学-综合服务楼'],友谊西路127号西北工业大学内,[陕西省(610000)|PROV|0|][西安市(610100)|CITY|0|][碑林区(610103)|AREA|0|]友谊西路127号西北工业大学内,8257,西安市碑林区,236,职能机构 学校 教育,教育培训;其他,1801,,12125347.98,4038361.82,108.9114939,34.2474195,
西工大,西北工业大学长安校区-停车场,f2859ce5bf6152d643e1929f,14217785859422712456,,陕西省西安市长安区西北工业大学长安校区内,[陕西省(610000)|PROV|1|][西安市(610100)|CITY|1|][长安区(610116)|AREA|1|][西北工业大学长安校区(15008478874060025130)|POI_PARENT|1|]内,8248,西安市长安区,0,停车场 交通设施,交通设施;停车场,2208,,12108249.18,4010003.57,108.7578126,34.0354809,
西工大,西北工业大学医院-西2门,64d7893b6a04f0ac3310af4a,11353012618719365999,,东大路与银河路交叉口东北150米,[陕西省(610000)|PROV|0|][西安市(610100)|CITY|0|][长安区(610116)|AREA|0|][东大路()|ROAD|1|]与银河路交叉口东北150米,8248,西安市长安区,0,出入口 门,出入口;门,2708,,12109151.32,4010118.18,108.7658896,34.0364301,
西工大,西北工业大学-停车场,2849dc5892998a64b9df8ffa,12061587699908958578,['西北工业大学停车场柳荫路'; '西北工业大学西村停车场'],柳荫路与求实路交叉口西北100米,[陕西省(610000)|PROV|0|][西安市(610100)|CITY|0|][碑林区(610103)|AREA|0|]柳荫路与求实路交叉口西北100米,8257,西安市碑林区,0,停车场 交通设施,交通设施;停车场,2208,,12125018.9,4038258.78,108.9085294,34.2466872,
西京医院,空军军医大学(第四军医大学)西京医院,38e48037e20eb450373a71f8,1261280948209582079,['空军军医大学西京医院'],陕西省西安市新城区长乐西路127号,[陕西省(610000)|PROV|1|][西安市(610100)|CITY|1|][新城区(610102)|AREA|1|][长乐西路()|ROAD|1|127号$],8258,西安市新城区,486,医疗 医院,医疗;其他,2001,(029)84775507,12133366.67,4041729.2,108.9834172,34.2721508,108.9798414 34.274366;108.9797986 34.2756032;108.9806794 34.2756193;108.9806745 34.2758272;108.9819208 34.2758187;108.9819036 34.2768472;108.9830249 34.2768522;108.983042 34.2756926;108.9845812 34.2756886;108.9857965 34.275713;108.9858933 34.2753835;108.9859109 34.2749698;108.9860356 34.2749566;108.9860224 34.2743375;108.985942 34.2740644;108.9859236 34.2732253;108.9858378 34.2725042;108.9858249 34.272481;108.9856832 34.272278;108.9856332 34.2717814;108.9845913 34.2717974;108.984573 34.2711853;108.9822819 34.2711456;108.9806226 34.2711303;108.9806092 34.271633;108.9800752 34.2716406;108.9800911 34.2743884;108.9798414 34.274366
西京医院,西京医院,76e694a809990913740269ca,4998313137013284696,,203路;237路;408路;410路;512路;517路;622路;709路,,8258,西安市新城区,524,,,,,12133358.11,4041414.64,108.9833392,34.2698042,
西京医院,西京医院-南门,5083a40c85bbe2ff3010af05,7826323484558417755,,长乐西路125-127号,[陕西省(610000)|PROV|0|][西安市(610100)|CITY|0|][新城区(610102)|AREA|0|][长乐西路()|ROAD|1|125-127号$],8258,西安市新城区,0,出入口 门,出入口;门,2708,,12133364.39,4041631.52,108.9833963,34.2714222,
西京医院,西京医院-停车场,27045b6f31cc08e6d23ce358,9341809618227762078,,长乐西路127号,[陕西省(610000)|PROV|0|][西安市(610100)|CITY|0|][新城区(610102)|AREA|0|][长乐西路()|ROAD|1|127号$],8258,西安市新城区,217,停车场 交通设施,交通设施;停车场,2208,,12133122.62,4041685.89,108.9812453,34.2717971,
西京医院,西京医院-门诊部,c8e8f63388e60011ab0dd813,17660421014481272831,,长乐西路127号,[陕西省(610000)|PROV|0|][西安市(610100)|CITY|0|][新城区(610102)|AREA|0|][长乐西路()|ROAD|1|127号$],8258,西安市新城区,201,综合医院 医疗 医院,医疗;其他,2001,(029)84775507,12133358.74,4041706.71,108.9833465,34.2719821,
西京医院,西京医院西京医院急诊中心,ce1ba846212a2004a2d230d6,15319606364783424109,,陕西省西安市新城区长乐西路127-1号,[陕西省(610000)|PROV|1|][西安市(610100)|CITY|1|][新城区(610102)|AREA|1|][长乐西路()|ROAD|1|127-1号$],8258,西安市新城区,198,医疗,医疗;其他,2001,(029)84775539,12133372.76,4041734.13,108.9834714,34.2721884,
西京医院,西京医院-骨科楼,f780b0496abf42acad080f66,11928983115469595149,,陕西省西安市新城区长乐西路127号,[陕西省(610000)|PROV|1|][西安市(610100)|CITY|1|][新城区(610102)|AREA|1|][长乐西路()|ROAD|1|127号$],8258,西安市新城区,201,医疗 医院,医疗;其他,2001,,12133298.9,4041983.55,108.9828156,34.2740387,
西京医院,西京医院-体检中心,2611ac154b96663307026f41,18082277571270593196,,长乐西路127号西京医院5层,[陕西省(610000)|PROV|0|][西安市(610100)|CITY|0|][新城区(610102)|AREA|0|][长乐西路()|ROAD|1|127号$]西京医院5层,8258,西安市新城区,201,体检中心 医疗,医疗;体检机构,2006,,12133429.84,4041665.71,108.9839789,34.2716855,
西京医院,西京医院-地下停车场,01fc6983806b1a7481a12e43,4746693053040223815,,陕西省西安市新城区长乐西路127号,[陕西省(610000)|PROV|1|][西安市(610100)|CITY|1|][新城区(610102)|AREA|1|][长乐西路()|ROAD|1|127号$],8258,西安市新城区,0,停车场 交通设施,交通设施;停车场,2208,,12133311.99,4041664.76,108.9829303,34.2716634,
西京医院,西京医院-停车场,08d9b999afc1c81a465726b6,11588960310864079783,,陕西省西安市新城区西京医院(康复路地铁站东460米),[陕西省(610000)|PROV|1|][西安市(610100)|CITY|1|][新城区(610102)|AREA|1|][长乐西路()|ROAD|0|]西京医院(康复路地铁站东460米),8258,西安市新城区,217,停车场 交通设施,交通设施;停车场,2208,,12133472.95,4041671.51,108.9843625,34.2717342,
西京医院,西京医院停车场-出入口,2f328e11600cdc68dbd8914f,9264479254323931620,,陕西省西安市新城区长乐西路131号附近,[陕西省(610000)|PROV|1|][西安市(610100)|CITY|1|][新城区(610102)|AREA|1|][长乐西路()|ROAD|1|131号$]附近,8258,西安市新城区,0,出入口,出入口;停车场出入口,2709,,12133365.98,4041603.87,108.9834103,34.2712162,
西京医院,西京医院-地上停车场,272e7dbd9e3dc4fcdb131893,3447604923016809501,,长乐西路15号西京医院内,[陕西省(610000)|PROV|0|][西安市(610100)|CITY|0|][新城区(610102)|AREA|0|][长乐西路()|ROAD|1|15号$]西京医院内,8258,西安市新城区,0,停车场 交通设施,交通设施;停车场,2208,,12133533.17,4041849.32,108.9848993,34.2730677,
西京医院,如家酒店(西安西京医院兴庆路店),cde5b06ca8a084f741e19214,16583654603415491255,,西安市碑林区兴庆路95号,[陕西省(610000)|PROV|0|][西安市(610100)|CITY|1|][碑林区(610103)|AREA|1|][兴庆路()|ROAD|1|95号$],8257,西安市碑林区,14,宾馆 快捷酒店 连锁酒店,酒店;快捷酒店,1103,(029)83180001,12133408.38,4040081.55,108.9837776,34.2598692,108.9835549 34.259996;108.9840095 34.2599805;108.9840043 34.2597225;108.9835596 34.2597311;108.9835549 34.259996
西京医院,西京医院-幼儿园,2e20f1bbdb393f5846e274cb,8419989364514195409,,长乐西路125-127号,[陕西省(610000)|PROV|0|][西安市(610100)|CITY|0|][新城区(610102)|AREA|0|][金桂路()|ROAD|0|]长乐西路125-127号,8258,西安市新城区,476,幼儿园 学校 教育,教育培训;幼儿园,1805,,12133538.69,4042038.15,108.9849494,34.2744763,108.9846777 34.2746742;108.9852453 34.2746955;108.9852612 34.2742767;108.9846498 34.2742614;108.9846368 34.2746643;108.9846777 34.2746742
西京医院,西京医院-停车场,f9f71da3ec295cf977026911,1984438356474416855,,西京大道与金桂路交叉口西北150米,[陕西省(610000)|PROV|0|][西安市(610100)|CITY|0|][新城区(610102)|AREA|0|][西京大道()|ROAD|1|]与金桂路交叉口西北150米,8258,西安市新城区,0,停车场 交通设施,交通设施;停车场,2208,,12133357.39,4042102.22,108.9833366,34.2749309,
西京医院,中国银行(西安西京医院支行),cdd5f13f0896bf05d23ce33f,16154847682792374900,,西安市新城区长乐西路127号,[陕西省(610000)|PROV|0|][西安市(610100)|CITY|1|][新城区(610102)|AREA|1|][西京大道()|ROAD|0|]长乐西路127号,8258,西安市新城区,541,金融 银行,金融;银行,2302,,12133234.16,4042096.32,108.9822401,34.2748713,
西京医院,西京医院整形美容中心,4e5ad3c046d8be632cb90897,2438860835911039692,,长乐西路145第附近,[陕西省(610000)|PROV|0|][西安市(610100)|CITY|0|][新城区(610102)|AREA|0|][长乐西路()|ROAD|1|145$]第附近,8258,西安市新城区,0,丽人 美容,丽人;美容,1402,,12133177.61,4041617.2,108.9817342,34.2712918,
西京医院,西京医院-西2门,29276b6087f0f3db8bf15d8a,2688443915975723728,,梧桐路与长乐西路交叉口北50米,[陕西省(610000)|PROV|0|][西安市(610100)|CITY|0|][新城区(610102)|AREA|0|][梧桐路()|ROAD|1|]与长乐西路交叉口北50米,8258,西安市新城区,0,出入口 门,出入口;门,2708,,12133234.47,4041608.16,108.9822402,34.2712316,
西京医院,西京医院-家属院,4860fbb8844bede81811d5fa,17846780764393769281,,长乐西路15号,[陕西省(610000)|PROV|0|][西安市(610100)|CITY|0|][新城区(610102)|AREA|0|][金桂路()|ROAD|0|]长乐西路15号,8258,西安市新城区,0,房地产 宿舍,房地产;宿舍,2404,,12133623.78,4042160.29,108.9857071,34.2753978,
西京医院,雅杰商务酒店(西京医院店),6b9c5d191964575316a1902a,325538609611842678,['雅杰商务酒店'],陕西省西安市新城区长乐西路3号西京医院往东50米,[陕西省(610000)|PROV|1|][西安市(610100)|CITY|1|][新城区(610102)|AREA|1|][长乐西路()|ROAD|1|3号$]西京医院往东50米,8258,西安市新城区,14,宾馆 舒适型,酒店;其他,1101,(029)68678999,12133734.81,4041672.19,108.9866924,34.2717726,
西京医院,7天酒店(西安西京医院通化门地铁站店),3810c8799da8a3929c09f713,1259968693966733311,['7天连锁酒店'; '7天连锁酒店(西安金花路通化门地铁站店)'],西安市碑林区东二环路电子大厦隔壁,[陕西省(610000)|PROV|0|][西安市(610100)|CITY|1|][碑林区(610103)|AREA|1|][东二环路()|ROAD|1|][电子大厦(17998530559533383679)|POI_PARENT|1|]隔壁,8257,西安市碑林区,0,宾馆 快捷酒店 连锁酒店,酒店;快捷酒店,1103,(029)82469288;(029)83266654,12134153.67,4040997.44,108.9904151,34.2667933,
西京医院,同兴宾馆(西京医院店),efa9ea588c93467aa8059d84,8536774708659126825,['同兴宾馆'],陕西省西安市新城区长乐西路双鱼大厦3层,[陕西省(610000)|PROV|1|][西安市(610100)|CITY|1|][新城区(610102)|AREA|1|][长乐西路()|ROAD|1|]双鱼大厦3层,8258,西安市新城区,0,宾馆 客栈,酒店;其他,1101,(029)82497021,12133570.35,4041596.95,108.9852287,34.2711907,
西京医院,西京医院(内部餐厅),d25e675074c982c304026f28,7752217352280966488,,陕西省西安市新城区长乐西路99号,[陕西省(610000)|PROV|1|][西安市(610100)|CITY|1|][新城区(610102)|AREA|1|][长乐西路()|ROAD|1|99号$],8258,西安市新城区,0,美食 食堂,美食;中餐厅,1002,,12133586.51,4041684.48,108.985373,34.2718454,
西京医院,西京医院-教学楼,f3b849aa946a60fadf1e52de,11199152997058117461,,长乐西路127号,[陕西省(610000)|PROV|0|][西安市(610100)|CITY|0|][新城区(610102)|AREA|0|][西京大道()|ROAD|0|]长乐西路127号,8258,西安市新城区,201,医疗,医疗;其他,2001,,12133162.64,4041998.24,108.9816031,34.2741311,
西京医院,西京医院住院-三部,bc6a7c87810788bed6851fae,10954417801796162925,,长乐西路街道长乐西路127号,[陕西省(610000)|PROV|0|][西安市(610100)|CITY|0|][新城区(610102)|AREA|0|][长乐西路()|ROAD|1|]街道长乐西路127号,8258,西安市新城区,201,综合医院 医疗 医院,医疗;其他,2001,,12133062.19,4041713.1,108.9807077,34.2719925,
西京医院,西京医院-地下停车场(一),a4c3a0e86a7d1f737c29bde8,9155259209755711009,,长乐西路15号,[陕西省(610000)|PROV|0|][西安市(610100)|CITY|0|][新城区(610102)|AREA|0|][长乐西路()|ROAD|1|15号$],8258,西安市新城区,0,停车场 交通设施,交通设施;停车场,2208,,12133303.74,4041675.66,108.9828569,34.2717436,
西京医院,星辰商务酒店(西京医院),2b27faea6e3cceb54d776eda,14098382956295925288,['星辰商务酒店'],陕西省西安市碑林区长乐西路西京医院天桥向东100米丹尼尔世纪广场美食街内,[陕西省(610000)|PROV|1|][西安市(610100)|CITY|1|][碑林区(610103)|AREA|1|][长乐西路()|ROAD|1|]西京医院天桥向东100米丹尼尔世纪广场美食街内,8257,西安市碑林区,14,宾馆,酒店;快捷酒店,1103,(029)83295165,12133723.97,4041326.22,108.9865938,34.2691915,
西京医院,西京医院高新区干部住房,75eed2d5924158ac2bb97c58,8394785637115410025,,高新四路,[陕西省(610000)|PROV|0|][西安市(610100)|CITY|0|][雁塔区(610113)|AREA|0|][高新四路()|ROAD|1|],8256,西安市雁塔区,0,房地产 住宅区,房地产;住宅区,2403,,12123173.17,4037123.58,108.8919323,34.2382892,108.8917436 34.2386326;108.8914967 34.2382167;108.8920907 34.237937;108.8923816 34.2383689;108.8917436 34.2386326
西京医院,中国工商银行(西安西京医院支行),1109170cb03c13c058f6be8f,11543992660486275501,,西安市新城区长乐西路127号西京医院骨科楼对面,[陕西省(610000)|PROV|0|][西安市(610100)|CITY|1|][新城区(610102)|AREA|1|][西京大道()|ROAD|0|]长乐西路127号西京医院骨科楼对面,8258,西安市新城区,542,金融 银行,金融;银行,2302,(029)82559855,12133261.1,4042053.81,108.9824796,34.2745578,
西京医院,西京医院-神经内外科,5460dfd11f34d0d595f08cc7,8958167216751493443,,长乐西路127号第四军医大学西京医院门诊部F4,[陕西省(610000)|PROV|0|][西安市(610100)|CITY|0|][新城区(610102)|AREA|0|][长乐西路()|ROAD|1|127号$]第四军医大学西京医院门诊部F4,8258,西安市新城区,201,医疗 医院,医疗;其他,2001,,12133398.92,4041859.92,108.9837049,34.2731296,
西京医院,西京医院-消化病急诊,15ecf7c7dd969be1095cb356,6496313986203055298,,长乐中路街道长乐西路15号,[陕西省(610000)|PROV|0|][西安市(610100)|CITY|0|][新城区(610102)|AREA|0|]长乐中路街道[长乐西路()|ROAD|1|15号$],8258,西安市新城区,198,医疗 下属科室机构,医疗;其他,2001,,12133311.78,4041646.0,108.9829283,34.2715235,
西京医院,西京医院办公楼,a6a36284266c866915a190ec,3329166854754769851,,陕西省西安市新城区长乐西路127号,[陕西省(610000)|PROV|1|][西安市(610100)|CITY|1|][新城区(610102)|AREA|1|][西京大道()|ROAD|0|]长乐西路127号,8258,西安市新城区,0,综合医院 医疗 医院,医疗;其他,2001,,12133238.5,4042116.97,108.9822788,34.2750259,
西京医院,时代旅馆(西京医院店),33b74ccadd5bca21c7f025b8,6963039482390200473,['时代旅馆'],陕西省西安市碑林区兴庆路长乐坊玫瑰坊小区18号2层,[陕西省(610000)|PROV|1|][西安市(610100)|CITY|1|][碑林区(610103)|AREA|1|][兴庆路()|ROAD|1|]长乐坊玫瑰坊小区18号2层,8257,西安市碑林区,115,宾馆 客栈,酒店;其他,1101,(029)83224743,12133288.99,4040866.31,108.9827206,34.2657065,
西京医院,幸福公寓酒店(康复路西京医院店),8b85b76818ecaec36018095b,3551049789622743118,['幸福公寓酒店'],陕西省西安市碑林区兴庆北路兴庆雅居小区1单元5层505室,[陕西省(610000)|PROV|1|][西安市(610100)|CITY|1|][碑林区(610103)|AREA|1|][兴庆路()|ROAD|0|]兴庆北路兴庆雅居小区1单元5层505室,8257,西安市碑林区,14,公寓式酒店 宾馆,酒店;公寓式酒店,1104,13093947222,12133403.48,4041169.61,108.9837413,34.2679828,
西京医院,如家驿居酒店(西京医院通化门地铁站店),2dd4473a37217cf02cb90802,12653527197177509039,,新城区长乐西路21号(与金花北路交汇处西北角),[陕西省(610000)|PROV|0|][西安市(610100)|CITY|0|][新城区(610102)|AREA|1|][长乐西路()|ROAD|1|21号$](与金花北路交汇处西北角),8258,西安市新城区,14,宾馆 快捷酒店 连锁酒店,酒店;快捷酒店,1103,(029)81016677,12133987.91,4041606.61,108.9889439,34.2713154,108.9885491 34.2716678;108.9892285 34.2716553;108.9892958 34.2715553;108.9892827 34.2712041;108.9885478 34.2712539;108.9885491 34.2716678
西京医院,西京医院-西1门,a7d9d3a12179d5e8bea240c6,8385716446077054821,,陕西省西安市新城区长乐西路(第四军医大学口腔医院内),[陕西省(610000)|PROV|1|][西安市(610100)|CITY|1|][新城区(610102)|AREA|1|][长乐西路()|ROAD|1|](第四军医大学口腔医院内),8258,西安市新城区,0,出入口 门,出入口;门,2708,,12133111.38,4041602.73,108.9811448,34.2711757,
西京医院,西安阳阳公寓酒店(西京医院店),c838d63915160c5c2806ce34,7164573593649865648,['西安阳阳公寓酒店'],陕西省西安市碑林区兴庆路幸福公寓楼2单元8楼803室(西京医院南侧150米路东),[陕西省(610000)|PROV|1|][西安市(610100)|CITY|1|][碑林区(610103)|AREA|1|][兴庆路()|ROAD|1|]幸福公寓楼2单元8楼803室(西京医院南侧150米路东),8257,西安市碑林区,14,宾馆 客栈,酒店;公寓式酒店,1104,18392358886,12133410.71,4041200.41,108.9838058,34.2682134,
西京医院,西京医院-项目部,553b175b352ef3b8a9f72992,5615938999518807127,,西安市新城区长乐西路127号第四军医大学西京医院骨科B1,[陕西省(610000)|PROV|0|][西安市(610100)|CITY|1|][新城区(610102)|AREA|1|][长乐西路()|ROAD|1|127号$]第四军医大学西京医院骨科B1,8258,西安市新城区,1030100,生活服务,生活服务;其他,1301,,12133362.14,4041966.17,108.9833782,34.2739172,
西京医院,西京动物医院,d6ee8724b54ec19da8f0cdc4,17686515380345896959,,东县门36号附4号,[陕西省(610000)|PROV|0|][西安市(610100)|CITY|0|][碑林区(610103)|AREA|0|][下马陵()|ROAD|0|]东县门36号附4号,8257,西安市碑林区,150,宠物 生活服务 宠物医院,生活服务;宠物服务,1315,(029)87528221,12130296.08,4039310.12,108.956016,34.253887,
西京医院,IU酒店(西京医院通化门地铁站店),294ce5639339d16e9de3210e,2573884566056058092,,西安市新城区长乐西路41号长乐大厦15楼,[陕西省(610000)|PROV|0|][西安市(610100)|CITY|1|][新城区(610102)|AREA|1|][长乐西路()|ROAD|1|41号$][长乐大厦(11802108171066962804)|POI_PARENT|1|15楼$],8258,西安市新城区,0,宾馆,酒店;快捷酒店,1103,(029)81018777,12133997.27,4041611.57,108.9890272,34.2713536,
西京医院,西京医院-书吧,ff49f7be849c9b052efaa713,10982433053447134933,,长乐西路127号西京医院内,[陕西省(610000)|PROV|0|][西安市(610100)|CITY|0|][新城区(610102)|AREA|0|][西京大道()|ROAD|0|]长乐西路127号西京医院内,8258,西安市新城区,395,购物,购物;商铺,1207,,12133243.24,4042046.75,108.9823206,34.2745029,
西京医院,西京医院-爱心早餐,6e54fefa554dd65e9222e09f,15439723645519492,,陕西省西安市新城区长乐西路127号西京医院内,[陕西省(610000)|PROV|1|][西安市(610100)|CITY|1|][新城区(610102)|AREA|1|][西京大道()|ROAD|0|]长乐西路127号西京医院内,8258,西安市新城区,0,快餐 美食 早餐 餐馆 小吃,美食;小吃快餐店,1004,,12133252.86,4042075.54,108.9824064,34.2747188,
西京医院,西安雁塔西京门诊部(恒瑞佳园东北),e054e8ea1b7ef0281894c6e7,9540817515430644495,['西安雁塔西京门诊部'],陕西省西安市雁塔区朱雀大街长安西路福林胜景恒瑞佳园,[陕西省(610000)|PROV|1|][西安市(610100)|CITY|1|][雁塔区(610113)|AREA|1|]朱雀大街[长安西路()|ROAD|1|]福林胜景恒瑞佳园,8256,西安市雁塔区,0,门诊部 医疗,医疗;其他,2001,,12128158.38,4030880.24,108.9368466,34.1911916,
西京医院,西京医院家属院-51号楼,35807df13dcdd5b004fef535,17125248996786804182,,陕西省西安市新城区北四合窑建秦苑小区南,[陕西省(610000)|PROV|1|][西安市(610100)|CITY|1|][新城区(610102)|AREA|1|]北四合窑建秦苑小区南,8258,西安市新城区,238,房地产 住宅区 内部楼号,房地产;内部楼栋,2405,,12133290.98,4042348.58,108.9827469,34.2767593,
西京医院,OYO秦时明月快捷酒店(西安西京医院兴庆路店),8cba4bb08f51129dad045773,1259723094851846143,,陕西省西安市碑林区兴庆路69号(兴庆宫附近加油站斜对面),[陕西省(610000)|PROV|1|][西安市(610100)|CITY|1|][碑林区(610103)|AREA|1|][兴庆路()|ROAD|1|69号$](兴庆宫附近加油站斜对面),8257,西安市碑林区,14,宾馆 快捷酒店,酒店;快捷酒店,1103,(029)83215191,12133408.96,4039922.03,108.9837817,34.2586796,108.9836343 34.2589258;108.9839012 34.258925;108.9839769 34.2589258;108.9839799 34.2587808;108.9838982 34.2587831;108.9839032 34.2584062;108.9836403 34.258403;108.9836343 34.2589258
西京医院,西京医院-理容中心,e36ab5d1aa9901291d580018,11123149326281431397,,陕西省西安市新城区长乐西路127号西京医院内,[陕西省(610000)|PROV|1|][西安市(610100)|CITY|1|][新城区(610102)|AREA|1|]长乐西路127号西京医院内,8258,西安市新城区,141,丽人 美容 美发,丽人;美容,1402,,12133236.52,4042048.36,108.9822608,34.2745141,
西京医院,西安阳光酒店(西京医院店),23bcededa108e67f7bf7960a,1942222410621065058,,陕西省西安市新城区长乐西路安仁坊小区8号楼4层405室(第四军医大学斜对面),[陕西省(610000)|PROV|1|][西安市(610100)|CITY|1|][新城区(610102)|AREA|1|][长乐西路()|ROAD|1|][安仁坊小区(10588341555901491866)|POI_PARENT|1|8号楼4层405室$](第四军医大学斜对面),8258,西安市新城区,0,宾馆 客栈,酒店;其他,1101,18628618260,12132405.86,4041537.45,108.9748637,34.2706065,
西京医院,二棵树宾馆(西京医院店),806fb9eb6c3859a2d6b74ea1,868106482478117213,['二棵树宾馆'],陕西省西安市碑林区兴庆北路80号,[陕西省(610000)|PROV|1|][西安市(610100)|CITY|1|][碑林区(610103)|AREA|1|][兴庆路()|ROAD|0|]兴庆北路80号,8257,西安市碑林区,14,宾馆,酒店;其他,1101,(029)83255889,12133326.35,4041180.72,108.9830551,34.2680559,
西京医院,西京医院-医学配镜中心,ff7467d93d26ee430782c2c0,18119511540941840613,,西安市新城区长乐西路127号第四军医大学西京医院门诊部B1,[陕西省(610000)|PROV|0|][西安市(610100)|CITY|1|][新城区(610102)|AREA|1|][长乐西路()|ROAD|1|127号$]第四军医大学西京医院门诊部B1,8258,西安市新城区,5100300,购物 眼镜,购物;商铺,1207,,12133363.72,4041629.66,108.9833904,34.2714082,
西京医院,西京医院-发热门诊,0bbb3d9e728b5ff2f32d8322,14879242269764743290,,长乐西路127号,[陕西省(610000)|PROV|0|][西安市(610100)|CITY|0|][新城区(610102)|AREA|0|][长乐西路()|ROAD|1|127号$],8258,西安市新城区,201,门诊部 医疗,医疗;其他,2001,,12133448.24,4041758.5,108.9841431,34.2723797,
唐都医院,空军军医大学唐都医院,92b5cb74c0962c451f3894a8,713035225996057524,['第四军医大学第二附属医院'],西安市灞桥区新寺路1号,[陕西省(610000)|PROV|0|][西安市(610100)|CITY|1|][灞桥区(610111)|AREA|1|]新寺路1号,8247,西安市灞桥区,486,医疗 医院,医疗;综合医院,2002,(029)84777777;(029)84777590,12141646.67,4043527.37,109.0575682,34.2851875,109.0593839 34.2869661;109.0594279 34.2866556;109.0594507 34.2853068;109.0589421 34.285262;109.0589369 34.2846243;109.0588065 34.2839358;109.0587215 34.2839266;109.0587353 34.2831177;109.0562376 34.283268;109.0563421 34.284251;109.056256 34.2843904;109.0561944 34.2869175;109.0593839 34.2869661
唐都医院,唐都医院,f7ea6f54e9bfabaae9f8533a,7727501234788429400,,42路;401路;508路;927路,,8247,西安市灞桥区,524,,,,,12141704.39,4043210.93,109.0580868,34.2828209,
唐都医院,唐都医院-门诊部,daeb4fb5fe0d47b7a4c75662,5240002539150965875,,新医路1号唐都医院内,[陕西省(610000)|PROV|0|][西安市(610100)|CITY|0|][灞桥区(610111)|AREA|0|][新医路()|ROAD|1|1号$]唐都医院内,8247,西安市灞桥区,201,门诊部 医疗,医疗;其他,2001,(029)84777777,12141649.56,4043528.44,109.0575942,34.2851951,
唐都医院,唐都医院-停车场,427a40c1728742211676432d,2361446653937594126,,新医路1号唐都医院内,[陕西省(610000)|PROV|0|][西安市(610100)|CITY|0|][灞桥区(610111)|AREA|0|][新医路()|ROAD|1|1号$]唐都医院内,8247,西安市灞桥区,217,停车场 交通设施,交通设施;停车场,2208,,12141618.77,4043264.31,109.0573167,34.2832305,
唐都医院,第四军医大学唐都医院-住院一部,3307048c571f54e000ec016e,8002841568439356967,,陕西省西安市灞桥区新寺路1号,[陕西省(610000)|PROV|1|][西安市(610100)|CITY|1|][灞桥区(610111)|AREA|1|][新寺路()|ROAD|1|1号$],8247,西安市灞桥区,201,医疗 医院,医疗;其他,2001,(029)84777114,12141650.9,4043334.52,109.0576059,34.2837494,
唐都医院,唐都医院-南门,e1fede6629a2ad4b7069d3fe,5160187570566113952,,陕西省西安市灞桥区新寺路1号,[陕西省(610000)|PROV|1|][西安市(610100)|CITY|1|][灞桥区(610111)|AREA|1|][新寺路()|ROAD|1|1号$],8247,西安市灞桥区,0,出入口 门,出入口;门,2708,,12141696.36,4043261.41,109.0580147,34.2831983,
唐都医院,唐都医院-住院部,593d3580d1ece797b1077d28,16543117194996339035,,新寺路569号附近,[陕西省(610000)|PROV|0|][西安市(610100)|CITY|0|][灞桥区(610111)|AREA|0|][新寺路()|ROAD|1|569号$]附近,8247,西安市灞桥区,201,医疗 下属科室机构,医疗;其他,2001,,12141744.0,4043515.6,109.0584437,34.2850866,
唐都医院,唐都医院-停车场,a3f4213906d68f1df22d83a8,12622994882807578578,,新寺路1号,[陕西省(610000)|PROV|0|][西安市(610100)|CITY|0|][灞桥区(610111)|AREA|0|][新寺路()|ROAD|1|1号$],8247,西安市灞桥区,0,停车场 交通设施,交通设施;停车场,2208,,12141919.48,4043533.16,109.0600221,34.285195,
唐都医院,唐都医院停车场-出入口,dc02b8b8b0fc91aac61b750c,18418617317879838018,,陕西省西安市灞桥区新寺路1号唐都医院内,[陕西省(610000)|PROV|1|][西安市(610100)|CITY|1|][灞桥区(610111)|AREA|1|][新寺路()|ROAD|1|1号$]唐都医院内,8247,西安市灞桥区,0,出入口,出入口;停车场出入口,2709,,12141686.38,4043267.96,109.0579249,34.2832484,
唐都医院,唐都医院-急诊,0a46dc0f944a532330621205,17660410337192574975,,陕西省西安市灞桥区新寺路1号,[陕西省(610000)|PROV|1|][西安市(610100)|CITY|1|][灞桥区(610111)|AREA|1|][新寺路()|ROAD|1|1号$],8247,西安市灞桥区,198,医疗,医疗;其他,2001,(029)84777753,12141624.4,4043447.7,109.0573677,34.2845967,
唐都医院,第四军医大学唐都医院-北门,345616f2645235ee1ef74d7d,13145623380550699248,,柳虹路南口,[陕西省(610000)|PROV|0|][西安市(610100)|CITY|0|][灞桥区(610111)|AREA|0|][柳虹路()|ROAD|1|南口$],8247,西安市灞桥区,489,出入口 门,出入口;门,2708,,12141658.95,4044005.09,109.0576791,34.2887465,
唐都医院,唐都医院-感染病院,fa8551bd8a3a4c44940319ce,1035185390994551497,,西安市灞桥区新寺路1号,[陕西省(610000)|PROV|0|][西安市(610100)|CITY|1|][灞桥区(610111)|AREA|1|][新寺路()|ROAD|1|1号$],8247,西安市灞桥区,489,医疗,医疗;其他,2001,,12141570.91,4043550.35,109.0568867,34.2853694,
唐都医院,唐都医院-幼儿园,860dac61a2bc76ff354aaec9,12273965541620141949,,灞桥街道新寺路1号,[陕西省(610000)|PROV|0|][西安市(610100)|CITY|0|][灞桥区(610111)|AREA|0|]灞桥街道新寺路1号,8247,西安市灞桥区,476,幼儿园 学校 教育,教育培训;幼儿园,1805,,12141591.92,4043771.31,109.057076,34.2870134,109.0567818 34.2870388;109.0569294 34.2870455;109.0569274 34.2870975;109.0573213 34.2871158;109.0573373 34.2869429;109.0567868 34.2869229;109.0567818 34.2870388
唐都医院,中国银行(西安唐都医院支行),74eb6b8a6eaa707fd42ce24a,3755862724481008694,['中国银行'],新寺路1号唐都医院内,[陕西省(610000)|PROV|0|][西安市(610100)|CITY|0|][灞桥区(610111)|AREA|0|]新寺路1号唐都医院内,8247,西安市灞桥区,564,金融 银行,金融;银行,2302,,12141762.19,4043785.72,109.0586077,34.2870976,
唐都医院,唐都医院-住院-二部,0f043c2699260a855a3ac8b1,3139036380128520034,,新医路1号唐都医院内,[陕西省(610000)|PROV|0|][西安市(610100)|CITY|0|][灞桥区(610111)|AREA|0|][新医路()|ROAD|1|1号$]唐都医院内,8247,西安市灞桥区,201,医疗 医院,医疗;其他,2001,,12141764.79,4043569.31,109.0586308,34.2854842,
唐都医院,唐都医院-南1门,705419d695378fd0d7851f4d,5044234889027890081,,新寺路1号,[陕西省(610000)|PROV|0|][西安市(610100)|CITY|0|][灞桥区(610111)|AREA|0|][新寺路()|ROAD|1|1号$],8247,西安市灞桥区,0,出入口 门,出入口;门,2708,,12141789.59,4043299.08,109.0588534,34.2834667,
唐都医院,唐都医院-篮球场,afb07797cbcf5344901fc92f,3806164324680810501,,席王路,[陕西省(610000)|PROV|0|][西安市(610100)|CITY|0|][灞桥区(610111)|AREA|0|][席王路()|ROAD|1|],8247,西安市灞桥区,0,运动健身 体育场馆,运动健身;体育场馆,1702,,12141846.55,4043869.89,109.0593665,34.287714,
唐都医院,如家酒店(西安四医大唐都医院北门城东客运站店),89de4e90afd627550af5ebcb,10268984839802444357,,西安市灞桥区席王街卞家村1号,[陕西省(610000)|PROV|0|][西安市(610100)|CITY|1|][灞桥区(610111)|AREA|1|][柳虹路()|ROAD|0|]席王街卞家村1号,8247,西安市灞桥区,0,宾馆 快捷酒店 连锁酒店,酒店;快捷酒店,1103,(029)83350666,12141635.87,4044060.22,109.0574715,34.2891605,109.0574175 34.2893513;109.0575747 34.2893529;109.0575886 34.2890058;109.0573954 34.2890048;109.0574175 34.2893513
唐都医院,西安聚源宾馆(唐都医院店),7b13f64893a8f181b34c4940,3792446316943107175,,陕西省西安市灞桥区卞家村7号唐都医院后门,[陕西省(610000)|PROV|1|][西安市(610100)|CITY|1|][灞桥区(610111)|AREA|1|][席王路()|ROAD|0|]卞家村7号唐都医院后门,8247,西安市灞桥区,14,宾馆,酒店;其他,1101,(029)83619634,12142216.63,4044004.43,109.0626942,34.2886733,
唐都医院,唐都医院住院一部-东门,4f42686df25f4dddd618b79d,17222161589624475752,,陕西省西安市灞桥区新寺路1号,[陕西省(610000)|PROV|1|][西安市(610100)|CITY|1|][灞桥区(610111)|AREA|1|][新寺路()|ROAD|1|1号$],8247,西安市灞桥区,0,出入口 门,出入口;门,2708,,12141662.32,4043303.24,109.0577086,34.2835147,
唐都医院,唐都医院人行天桥,830ccab535f607d3cafa5fa0,11645242,,陕西省西安市灞桥区,,8247,西安市灞桥区,49,道路,,,,12141747.88,4042739.28,109.0584766,34.2792991,
唐都医院,灞桥区席王社区卫生服务中心,e85e2527fcef2f2e95f08cef,17671006725886443519,,陕西省西安市灞桥区席王路唐都医院后门向东50米,[陕西省(610000)|PROV|1|][西安市(610100)|CITY|1|][灞桥区(610111)|AREA|1|][席王路()|ROAD|1|]唐都医院后门向东50米,8247,西安市灞桥区,194,诊所 医疗,医疗;诊所,2004,,12141994.21,4044074.71,109.0606945,34.2892222,
唐都医院,泰隆酒店(西安唐都医院店),8435e856eff701db901fc95f,10961759763502908718,['泰隆酒店'],陕西省西安市灞桥区新寺路1号唐都医院东侧,[陕西省(610000)|PROV|1|][西安市(610100)|CITY|1|][灞桥区(610111)|AREA|1|][新寺路()|ROAD|1|1号$]唐都医院东侧,8247,西安市灞桥区,0,宾馆 客栈,酒店;其他,1101,(029)62908999,12141838.08,4043268.47,109.0592895,34.2832322,
唐都医院,尚客优连锁酒店(唐都医院店),cc48fcd57eb342ca5bbbbcc1,8294772910660905584,['尚客优连锁酒店（灞桥唐都店）'],陕西省西安市灞桥区电厂东路附8号,[陕西省(610000)|PROV|1|][西安市(610100)|CITY|1|][灞桥区(610111)|AREA|1|][电厂东路()|ROAD|1|附8号$],8247,西安市灞桥区,0,宾馆 快捷酒店 连锁酒店,酒店;快捷酒店,1103,(029)89517055,12141025.05,4043017.48,109.0519733,34.2814803,
唐都医院,陕南宾馆(唐都医院),71b409fe7ec957de7ec876c1,8959668995269876444,['陕南宾馆'],陕西省西安市灞桥区新医路105号,[陕西省(610000)|PROV|1|][西安市(610100)|CITY|1|][灞桥区(610111)|AREA|1|][新医路()|ROAD|1|105号$],8247,西安市灞桥区,115,宾馆,酒店;其他,1101,13152476610,12141691.89,4043068.51,109.057974,34.2817609,
唐都医院,西安澄悦宾馆(唐都医院),1bb3b041b733dce59868b4f8,17204321795962613996,['西安澄悦宾馆'],陕西省西安市灞桥区新寺路唐都医院门前,[陕西省(610000)|PROV|1|][西安市(610100)|CITY|1|][灞桥区(610111)|AREA|1|][新寺路()|ROAD|1|]唐都医院门前,8247,西安市灞桥区,14,宾馆,酒店;其他,1101,(029)83472921,12141579.76,4043236.3,109.0569657,34.2830272,
唐都医院,第四军医大学唐都医院,cbae3e8a5b5f433ed22dd6a6,16582798718835004359,,陕西省西安市灞桥区新医路29号附近,[陕西省(610000)|PROV|1|][西安市(610100)|CITY|1|][灞桥区(610111)|AREA|1|][新医路()|ROAD|1|29号$]附近,8247,西安市灞桥区,0,医疗 医院,医疗;其他,2001,,12141662.59,4042748.86,109.0577094,34.279382,
唐都医院,中国工商银行附行式自助银行(营业部军大二院支行唐都医院),dd05856e460a70933de23150,17913643616597060815,,唐都医院,[陕西省(610000)|PROV|0|][西安市(610100)|CITY|0|][灞桥区(610111)|AREA|0|][新医路()|ROAD|0|]唐都医院,8247,西安市灞桥区,16,金融 工商银行atm 工行 工行atm 中国工商银行 中国工商银行atm,金融;atm,2303,,12141678.62,4043461.52,109.0578555,34.2846923,
唐都医院,西安康泰宾馆(唐都医院店),8aa2b64a41468dc959bbbc8c,8530107133682974774,['西安康泰宾馆'],陕西省西安市灞桥区唐都医院南门新医路中段(鸿运家常菜馆向西20米处),[陕西省(610000)|PROV|1|][西安市(610100)|CITY|1|][灞桥区(610111)|AREA|1|][新医路()|ROAD|0|]唐都医院南门新医路中段(鸿运家常菜馆向西20米处),8247,西安市灞桥区,14,宾馆 客栈,酒店;其他,1101,(029)83343638,12141648.78,4043085.74,109.0575862,34.2818952,
唐都医院,唐都脑科医院,878a8d6ed8931ea39ee3219b,6342718183698954818,,新寺路1号,[陕西省(610000)|PROV|0|][西安市(610100)|CITY|0|][灞桥区(610111)|AREA|0|][新寺路()|ROAD|1|1号$],8247,西安市灞桥区,1,骨科医院 专科医院 医疗 医院,医疗;其他,2001,,12141784.8,4043382.28,109.0588105,34.2840875,109.0588443 34.2845073;109.0599054 34.2845064;109.0599154 34.2844974;109.0599015 34.2840846;109.0598785 34.2840757;109.0598157 34.2840668;109.0587715 34.2840586;109.0587755 34.2844654;109.0587924 34.2844934;109.0588443 34.2845073
唐都医院,唐都医院-19号楼,4a50fac7e423e33fd23ce3c0,14554818213422188531,['唐都医院19号楼'],西安市灞桥区席王路与柳虹路交叉口南200米,[陕西省(610000)|PROV|0|][西安市(610100)|CITY|1|][灞桥区(610111)|AREA|1|][柳虹路()|ROAD|0|]席王路与柳虹路交叉口南200米,8247,西安市灞桥区,0,房地产 住宅区 内部楼号,房地产;内部楼栋,2405,,12141634.69,4043852.48,109.0574608,34.2876124,
唐都医院,唐都医院20号住宅楼,6772cfa07546cdef16764386,6789260211639232299,,新寺路1号,[陕西省(610000)|PROV|0|][西安市(610100)|CITY|0|][灞桥区(610111)|AREA|0|][柳虹路()|ROAD|0|]新寺路1号,8247,西安市灞桥区,0,房地产 住宅区,房地产;住宅区,2403,,12141659.74,4043899.42,109.0576862,34.2879588,
唐都医院,红星宾馆(唐都医院),d8205f3ccb41deed931fc930,10254036959059366002,,陕西省西安市灞桥区新寺路99号唐都医院北门斜对面,[陕西省(610000)|PROV|1|][西安市(610100)|CITY|1|][灞桥区(610111)|AREA|1|][新寺路()|ROAD|1|99号$]唐都医院北门斜对面,8247,西安市灞桥区,0,宾馆,酒店;其他,1101,13892146455,12141535.48,4043247.26,109.0565673,34.2831152,
唐都医院,住院三部,8c98faebb41be544d12dd675,919767852703196544,,唐都医院内,[陕西省(610000)|PROV|0|][西安市(610100)|CITY|0|][灞桥区(610111)|AREA|0|]唐都医院内,8247,西安市灞桥区,0,医疗 医院,医疗;其他,2001,,12141667.48,4043659.74,109.0577556,34.2861713,
唐都医院,唐都医院-病案室,91c80782d4fbcb6001294f05,10224021117750030458,,陕西省西安市灞桥区新寺路1号,[陕西省(610000)|PROV|1|][西安市(610100)|CITY|1|][灞桥区(610111)|AREA|1|][新寺路()|ROAD|1|1号$],8247,西安市灞桥区,201,医疗,医疗;其他,2001,,12141693.93,4043610.17,109.0579935,34.2857982,
唐都医院,芙润足浴,fcd830e99eebb1b7a2a93417,508426091788295960,['芙润阁'],唐都医院正对面6楼,[陕西省(610000)|PROV|0|][西安市(610100)|CITY|0|][灞桥区(610111)|AREA|0|][新寺路()|ROAD|0|]唐都医院正对面6楼,8247,西安市灞桥区,16,足浴 洗浴 休闲娱乐,休闲娱乐;洗浴按摩,1610,(029)83593088,12141744.72,4043226.3,109.0584496,34.28293,
唐都医院,IU酒店(西安纺织城地铁站唐都医院店),6142e6dd37c8e3f00682c28b,12568017919959422587,,西安市灞桥区柳鸣路中泰广场1楼,[陕西省(610000)|PROV|0|][西安市(610100)|CITY|1|][灞桥区(610111)|AREA|1|][柳鸣路()|ROAD|1|][中泰广场(4326387820047068634)|POI_PARENT|1|1楼$],8247,西安市灞桥区,0,宾馆 客栈,酒店;快捷酒店,1103,(029)83595777,12142491.7,4043014.12,109.0651647,34.2812647,
唐都医院,魏家凉皮(唐都医院店),5d3a2af71a435296a11de968,11609787360184751751,,新寺路1号,[陕西省(610000)|PROV|0|][西安市(610100)|CITY|0|][灞桥区(610111)|AREA|0|][新寺路()|ROAD|1|1号$],8247,西安市灞桥区,13,快餐 美食 凉皮 餐馆 小吃,美食;小吃快餐店,1004,(029)89588214,12141711.9,4043214.86,109.0581544,34.2828492,
唐都医院,骏怡连锁酒店(唐都医院店),c5c70dfc6039ff8817c8f679,3297118266006868271,,陕西省西安市灞桥区新医路113号,[陕西省(610000)|PROV|1|][西安市(610100)|CITY|1|][灞桥区(610111)|AREA|1|][新医路()|ROAD|1|113号$],8247,西安市灞桥区,0,宾馆 连锁酒店,酒店;快捷酒店,1103,(029)83334398,12141640.0,4043052.0,109.0575071,34.2816449,
唐都医院,天天城市宾馆(唐都医院店),7be26ef599d4022feee4a56a,16182273436360352283,,陕西省西安市灞桥区电厂东路7号,[陕西省(610000)|PROV|1|][西安市(610100)|CITY|1|][灞桥区(610111)|AREA|1|][电厂东路()|ROAD|1|7号$],8247,西安市灞桥区,0,宾馆 星级酒店 客栈,酒店;其他,1101,(029)62520688,12140967.05,4043014.85,109.0514512,34.2814701,109.0514744 34.2816732;109.0516367 34.2816073;109.0515374 34.2814481;109.0513842 34.2815069;109.0514744 34.2816732
唐都医院,灏阳商务酒店(唐都医院店),1b2c0a6560e3545cc17da240,3339695675014563874,['灏阳商务酒店'],陕西省西安市灞桥区新寺路唐都医院南门向西20米,[陕西省(610000)|PROV|1|][西安市(610100)|CITY|1|][灞桥区(610111)|AREA|1|][新寺路()|ROAD|1|]唐都医院南门向西20米,8247,西安市灞桥区,0,招待所 宾馆,酒店;其他,1101,(029)83618066,12141620.17,4043213.03,109.0573292,34.2828481,109.0573865 34.2830284;109.0573766 34.2826616;109.0572709 34.2826698;109.0572838 34.2830316;109.0573865 34.2830284
唐都医院,OYO柳虹酒店(唐都医院柳虹路店),28c66a17b9c580a76fc02c68,10914148520484607115,,陕西省西安市灞桥区柳虹路灞桥第二幼儿园对面,[陕西省(610000)|PROV|1|][西安市(610100)|CITY|1|][灞桥区(610111)|AREA|1|][柳虹路()|ROAD|1|]灞桥第二幼儿园对面,8247,西安市灞桥区,0,宾馆 客栈,酒店;其他,1101,(029)83565657,12141740.51,4044494.92,109.0584126,34.292386,
唐都医院,西安盛和宾馆(唐都医院城东客运站店),d1a00cf3716a4d04a2acc493,12356661179880151689,['西安盛和宾馆'],陕西省西安市灞桥区城东客运站柳虹路席王新村61号(川陕人家向东20米),[陕西省(610000)|PROV|1|][西安市(610100)|CITY|1|][灞桥区(610111)|AREA|1|][纺渭路()|ROAD|0|]城东客运站柳虹路席王新村61号(川陕人家向东20米),8247,西安市灞桥区,14,宾馆 客栈,酒店;其他,1101,(029)89511452,12142666.59,4043615.22,109.0667372,34.2857309,
唐都医院,唐都医院停车场-出口,ba8ea3aa0f2ee7abb14c4957,1050182382687386022,,新寺路1号唐都医院内,[陕西省(610000)|PROV|0|][西安市(610100)|CITY|0|][灞桥区(610111)|AREA|0|][新寺路()|ROAD|1|1号$]唐都医院内,8247,西安市灞桥区,0,出入口,出入口;停车场出入口,2709,,12141686.38,4043269.03,109.0579249,34.2832564,
唐都医院,西安浪漫水汇酒店(纺织城店),ecbc23940c655c96a6da39ab,5224052994791939366,['西安浪漫水汇酒店纺织城店'],陕西省西安市灞桥区纺织城纺东街113号(近邻唐都医院),[陕西省(610000)|PROV|1|][西安市(610100)|CITY|1|][灞桥区(610111)|AREA|1|][纺五路()|ROAD|0|]纺织城纺东街113号(近邻唐都医院),8247,西安市灞桥区,14,休闲娱乐,休闲娱乐;洗浴按摩,1610,(029)82118888,12142400.0,4040400.0,109.0643265,34.2617814,
唐都医院,竹签烤肉(唐都医院分店),a3236e9e768c0a33e607380a,9586283956104642664,['竹签烤肉'],陕西省西安市灞桥区纺织城纺建路东辰濠景附近(一印社区西),[陕西省(610000)|PROV|1|][西安市(610100)|CITY|1|][灞桥区(610111)|AREA|1|]纺织城[纺建路()|ROAD|1|]东辰濠景附近(一印社区西),8247,西安市灞桥区,297,美食 烧烤 中餐馆 川菜 餐馆,美食;其他,1001,18382336695,12141190.25,4042284.6,109.0534573,34.2759903,
唐都医院,唐都医院-门口以南路东停车场,4b84fbe269f7ab3a8936ee46,10176053944138252139,,新医路51号附近,[陕西省(610000)|PROV|0|][西安市(610100)|CITY|0|][灞桥区(610111)|AREA|0|][新医路()|ROAD|1|51号$]附近,8247,西安市灞桥区,0,停车场 交通设施,交通设施;停车场,2208,,12141692.0,4043029.4,109.0579749,34.2814693,
唐都医院,唐都医院-核医学科,c041ed8a182bcc5d744ff1db,778589228706283461,,西安市灞桥区新寺路1号,[陕西省(610000)|PROV|0|][西安市(610100)|CITY|1|][灞桥区(610111)|AREA|1|][新寺路()|ROAD|1|1号$],8247,西安市灞桥区,201,医疗,医疗;其他,2001,,12141590.97,4043550.82,109.0570672,34.28537,
唐都医院,西安漫希酒店(唐都医院城东客运站店),a1c3db34897ecd1bad045794,10606628585167881938,,陕西省西安市灞桥区长乐东路999号华阳玲珑苑3号楼1单元(地铁一号线纺织城地铁站D口东侧),[陕西省(610000)|PROV|1|][西安市(610100)|CITY|1|][灞桥区(610111)|AREA|1|][长乐东路()|ROAD|1|999号$]华阳玲珑苑3号楼1单元(地铁一号线纺织城地铁站D口东侧),8247,西安市灞桥区,0,宾馆 客栈,酒店;快捷酒店,1103,,12142618.72,4043114.3,109.0663061,34.2820008,
唐都医院,河间正宗驴肉火烧(唐都医院店),92c4850204ebc7e15cbe86bf,17583178651558079506,['河间正宗驴肉火烧（唐都医院店）'],西安市灞桥区席王村1号,[陕西省(610000)|PROV|0|][西安市(610100)|CITY|1|][灞桥区(610111)|AREA|1|][新寺路()|ROAD|0|]席王村1号,8247,西安市灞桥区,13,美食 中餐馆 餐馆,美食;小吃快餐店,1004,,12141952.97,4043182.71,109.0603225,34.2825786,
东方米兰,东方米兰(新中关购物中心店),644b3e9d210a18ddab175a20,11393362148453634394,['东方米兰'; '东方米兰(新中关购物中心)'; '东方米兰(新中关购物中心店)'],北京市海淀区北京市海淀区中关村大街19号新中关购物中心F4,[北京市(110000)|CITY|1|][海淀区(110108)|AREA|1|][中关村大街()|ROAD|1|19号$][新中关购物中心(1266491069957144575)|POI_PARENT|1|F4$],1960,北京市海淀区,6060100,购物,购物;商铺,1207,(010)56257987,12949071.38,4835960.88,116.3095692,39.9772154,
东方米兰,尚驰米兰情调系列,060a6e2f7db9a31c26e0a0be,11337343145085045960,,北京市南三环东方家园,[北京市(110000)|CITY|1|][丰台区(110106)|AREA|0|]南三环东方家园,2305,北京市丰台区,0,购物,购物,1200,,12952156.67,4816644.87,116.3371679,39.8437983,
